"Station Name","SUDBURY A"
"Province","ONTARIO"
"Latitude","46.63"
"Longitude","-80.80"
"Elevation","348.40"
"Climate Identifier","6068153"
"WMO Identifier","71730"
"TC Identifier","YSB"
"All times are specified in Local Standard Time (LST). Add 1 hour to adjust for Daylight Saving Time where and when it is observed."

"Legend"
"E","Estimated"
"M","Missing"
"NA","Not Available"

"Date/Time","Year","Month","Day","Time","Temp (°C)","Temp Flag","Dew Point Temp (°C)","Dew Point Temp Flag","Rel Hum (%)","Rel Hum Flag","Wind Dir (10s deg)","Wind Dir Flag","Wind Spd (km/h)","Wind Spd Flag","Visibility (km)","Visibility Flag","Stn Press (kPa)","Stn Press Flag","Hmdx","Hmdx Flag","Wind Chill","Wind Chill Flag","Weather"
"2016-08-01 00:00","2016","08","01","00:00","20.0","","14.4","","70","","2","","4","","24.1","","97.84","","","","","","NA"
"2016-08-01 01:00","2016","08","01","01:00","19.6","","14.3","","71","","35","","3","","24.1","","97.85","","","","","","Cloudy"
"2016-08-01 02:00","2016","08","01","02:00","18.2","","14.7","","80","","33","","7","","24.1","","97.83","","","","","","NA"
"2016-08-01 03:00","2016","08","01","03:00","17.5","","14.8","","84","","33","","5","","24.1","","97.84","","","","","","NA"
"2016-08-01 04:00","2016","08","01","04:00","17.8","","16.0","","89","","5","","12","","24.1","","97.86","","","","","","Mainly Clear"
"2016-08-01 05:00","2016","08","01","05:00","17.5","","15.9","","90","","3","","10","","32.2","","97.88","","","","","","NA"
"2016-08-01 06:00","2016","08","01","06:00","18.4","","16.4","","88","","3","","12","","32.2","","97.91","","","","","","NA"
"2016-08-01 07:00","2016","08","01","07:00","20.4","","16.9","","80","","2","","4","","32.2","","97.94","","26","","","","Mainly Clear"
"2016-08-01 08:00","2016","08","01","08:00","22.1","","15.8","","67","","7","","4","","32.2","","97.94","","27","","","","NA"
"2016-08-01 09:00","2016","08","01","09:00","24.3","","16.4","","61","","28","","4","","32.2","","97.96","","29","","","","NA"
"2016-08-01 10:00","2016","08","01","10:00","25.7","","14.1","","48","","8","","5","","32.2","","97.96","","29","","","","Mainly Clear"
"2016-08-01 11:00","2016","08","01","11:00","25.4","","13.1","","46","","1","","8","","32.2","","97.95","","28","","","","NA"
"2016-08-01 12:00","2016","08","01","12:00","26.0","","12.7","","43","","5","","6","","32.2","","97.93","","29","","","","NA"
"2016-08-01 13:00","2016","08","01","13:00","27.8","","12.8","","39","","5","","4","","32.2","","97.90","","30","","","","Mainly Clear"
"2016-08-01 14:00","2016","08","01","14:00","28.5","","12.3","","36","","8","","10","","32.2","","97.85","","31","","","","NA"
"2016-08-01 15:00","2016","08","01","15:00","28.9","","12.6","","36","","5","","7","","32.2","","97.81","","31","","","","NA"
"2016-08-01 16:00","2016","08","01","16:00","29.0","","12.3","","35","","10","","9","","32.2","","97.77","","31","","","","Mainly Clear"
"2016-08-01 17:00","2016","08","01","17:00","29.2","","11.1","","32","","3","","12","","32.2","","97.74","","31","","","","NA"
"2016-08-01 18:00","2016","08","01","18:00","28.5","","11.4","","34","","2","","8","","32.2","","97.72","","30","","","","NA"
"2016-08-01 19:00","2016","08","01","19:00","27.5","","10.9","","35","","2","","5","","32.2","","97.74","","29","","","","Clear"
"2016-08-01 20:00","2016","08","01","20:00","24.4","","14.1","","52","","14","","9","","32.2","","97.77","","28","","","","NA"
"2016-08-01 21:00","2016","08","01","21:00","22.6","","14.1","","58","","20","","8","","24.1","","97.85","","26","","","","NA"
"2016-08-01 22:00","2016","08","01","22:00","21.1","","13.7","","62","","21","","11","","24.1","","97.87","","","","","","Mainly Clear"
"2016-08-01 23:00","2016","08","01","23:00","20.9","","13.9","","64","","24","","7","","24.1","","97.89","","","","","","NA"
"2016-08-02 00:00","2016","08","02","00:00","19.6","","13.6","","68","","21","","8","","24.1","","97.89","","","","","","NA"
"2016-08-02 01:00","2016","08","02","01:00","19.1","","13.6","","70","","27","","6","","24.1","","97.91","","","","","","Mainly Clear"
"2016-08-02 02:00","2016","08","02","02:00","19.1","","14.0","","72","","27","","8","","24.1","","97.90","","","","","","NA"
"2016-08-02 03:00","2016","08","02","03:00","17.5","","13.9","","79","","33","","7","","24.1","","97.90","","","","","","NA"
"2016-08-02 04:00","2016","08","02","04:00","16.8","","13.6","","81","","31","","11","","24.1","","97.90","","","","","","Mainly Clear"
"2016-08-02 05:00","2016","08","02","05:00","15.7","","13.4","","86","","32","","9","","32.2","","97.93","","","","","","NA"
"2016-08-02 06:00","2016","08","02","06:00","17.4","","14.0","","80","","36","","6","","32.2","","97.94","","","","","","NA"
"2016-08-02 07:00","2016","08","02","07:00","20.6","","14.8","","69","","2","","5","","32.2","","97.94","","","","","","Mainly Clear"
"2016-08-02 08:00","2016","08","02","08:00","23.1","","15.5","","62","","7","","7","","32.2","","97.96","","27","","","","NA"
"2016-08-02 09:00","2016","08","02","09:00","25.6","","16.1","","55","","10","","7","","32.2","","97.95","","30","","","","NA"
"2016-08-02 10:00","2016","08","02","10:00","27.3","","12.8","","40","","17","","11","","32.2","","97.95","","30","","","","Clear"
"2016-08-02 11:00","2016","08","02","11:00","28.7","","12.8","","37","","17","","13","","32.2","","97.92","","31","","","","NA"
"2016-08-02 12:00","2016","08","02","12:00","29.3","","11.7","","33","","15","","16","","32.2","","97.90","","31","","","","NA"
"2016-08-02 13:00","2016","08","02","13:00","29.8","","11.2","","31","","20","","3","","32.2","","97.85","","32","","","","Mainly Clear"
"2016-08-02 14:00","2016","08","02","14:00","28.9","","10.8","","32","","16","","11","","32.2","","97.79","","31","","","","NA"
"2016-08-02 15:00","2016","08","02","15:00","29.7","","10.6","","30","","17","","10","","32.2","","97.73","","31","","","","NA"
"2016-08-02 16:00","2016","08","02","16:00","30.8","","13.0","","33","","23","","14","","32.2","","97.70","","34","","","","Mainly Clear"
"2016-08-02 17:00","2016","08","02","17:00","29.8","","11.6","","32","","24","","16","","32.2","","97.68","","32","","","","NA"
"2016-08-02 18:00","2016","08","02","18:00","28.6","","9.6","","30","","23","","17","","32.2","","97.68","","30","","","","NA"
"2016-08-02 19:00","2016","08","02","19:00","26.6","","11.4","","38","","24","","12","","32.2","","97.67","","29","","","","Mainly Clear"
"2016-08-02 20:00","2016","08","02","20:00","23.4","","12.6","","50","","22","","8","","32.2","","97.67","","26","","","","NA"
"2016-08-02 21:00","2016","08","02","21:00","22.0","","12.7","","55","","22","","8","","24.1","","97.71","","25","","","","NA"
"2016-08-02 22:00","2016","08","02","22:00","20.6","","12.4","","59","","22","","7","","24.1","","97.71","","","","","","Mainly Clear"
"2016-08-02 23:00","2016","08","02","23:00","20.4","","12.7","","61","","21","","8","","32.2","","97.70","","","","","","NA"
"2016-08-03 00:00","2016","08","03","00:00","19.4","","13.7","","69","","22","","10","","32.2","","97.71","","","","","","NA"
"2016-08-03 01:00","2016","08","03","01:00","18.7","","13.8","","73","","23","","9","","24.1","","97.71","","","","","","Clear"
"2016-08-03 02:00","2016","08","03","02:00","18.2","","14.4","","78","","21","","10","","24.1","","97.70","","","","","","NA"
"2016-08-03 03:00","2016","08","03","03:00","18.4","","15.5","","83","","21","","9","","24.1","","97.70","","","","","","NA"
"2016-08-03 04:00","2016","08","03","04:00","18.3","","15.0","","81","","21","","9","","24.1","","97.71","","","","","","Mostly Cloudy"
"2016-08-03 05:00","2016","08","03","05:00","19.1","","14.8","","76","","19","","9","","32.2","","97.70","","","","","","NA"
"2016-08-03 06:00","2016","08","03","06:00","19.3","","15.2","","77","","18","","8","","32.2","","97.71","","","","","","NA"
"2016-08-03 07:00","2016","08","03","07:00","20.8","","16.5","","76","","18","","9","","32.2","","97.68","","26","","","","Mainly Clear"
"2016-08-03 08:00","2016","08","03","08:00","22.9","","17.0","","69","","22","","12","","32.2","","97.72","","28","","","","NA"
"2016-08-03 09:00","2016","08","03","09:00","24.3","","16.9","","63","","21","","8","","32.2","","97.70","","30","","","","NA"
"2016-08-03 10:00","2016","08","03","10:00","25.4","","16.7","","58","","22","","9","","32.2","","97.68","","30","","","","Mostly Cloudy"
"2016-08-03 11:00","2016","08","03","11:00","27.6","","17.1","","52","","22","","19","","32.2","","97.67","","33","","","","NA"
"2016-08-03 12:00","2016","08","03","12:00","27.0","","18.2","","58","","26","","19","","32.2","","97.64","","33","","","","NA"
"2016-08-03 13:00","2016","08","03","13:00","29.2","","18.5","","52","","21","","19","","32.2","","97.57","","36","","","","Mostly Cloudy"
"2016-08-03 14:00","2016","08","03","14:00","29.6","","17.7","","48","","23","","17","","32.2","","97.47","","35","","","","NA"
"2016-08-03 15:00","2016","08","03","15:00","19.1","","18.0","","93","","30","","40","","1.2","","97.71","","","","","","Thunderstorms,Heavy Rain Showers"
"2016-08-03 16:00","2016","08","03","16:00","21.4","","18.3","","82","","20","","9","","32.2","","97.58","","28","","","","Mostly Cloudy"
"2016-08-03 17:00","2016","08","03","17:00","23.4","","20.0","","81","","19","","16","","32.2","","97.55","","31","","","","NA"
"2016-08-03 18:00","2016","08","03","18:00","23.6","","19.0","","75","","19","","23","","32.2","","97.52","","30","","","","NA"
"2016-08-03 19:00","2016","08","03","19:00","23.3","","18.9","","76","","19","","15","","32.2","","97.50","","30","","","","Mainly Clear"
"2016-08-03 20:00","2016","08","03","20:00","22.2","","19.0","","82","","19","","12","","32.2","","97.51","","29","","","","NA"
"2016-08-03 21:00","2016","08","03","21:00","21.0","","18.8","","87","","20","","11","","24.1","","97.52","","28","","","","NA"
"2016-08-03 22:00","2016","08","03","22:00","20.2","","18.5","","90","","23","","9","","24.1","","97.50","","27","","","","Mainly Clear"
"2016-08-03 23:00","2016","08","03","23:00","20.1","","18.1","","88","","25","","9","","24.1","","97.51","","26","","","","NA"
"2016-08-04 00:00","2016","08","04","00:00","20.5","","17.0","","80","","26","","8","","24.1","","97.54","","26","","","","NA"
"2016-08-04 01:00","2016","08","04","01:00","19.3","","16.4","","83","","24","","5","","24.1","","97.51","","","","","","Clear"
"2016-08-04 02:00","2016","08","04","02:00","19.7","","16.4","","81","","21","","7","","24.1","","97.48","","","","","","NA"
"2016-08-04 03:00","2016","08","04","03:00","18.7","","16.2","","85","","18","","4","","24.1","","97.48","","","","","","NA"
"2016-08-04 04:00","2016","08","04","04:00","18.3","","16.1","","87","","19","","8","","24.1","","97.47","","","","","","Mainly Clear"
"2016-08-04 05:00","2016","08","04","05:00","18.4","","15.7","","84","","21","","4","","32.2","","97.48","","","","","","NA"
"2016-08-04 06:00","2016","08","04","06:00","18.6","","16.1","","85","","19","","8","","32.2","","97.48","","","","","","NA"
"2016-08-04 07:00","2016","08","04","07:00","20.6","","16.3","","76","","21","","6","","32.2","","97.54","","25","","","","Mainly Clear"
"2016-08-04 08:00","2016","08","04","08:00","22.2","","17.2","","73","","22","","11","","32.2","","97.56","","28","","","","NA"
"2016-08-04 09:00","2016","08","04","09:00","24.2","","18.9","","72","","20","","9","","32.2","","97.54","","31","","","","NA"
"2016-08-04 10:00","2016","08","04","10:00","26.1","","19.6","","67","","21","","13","","32.2","","97.52","","33","","","","Mostly Cloudy"
"2016-08-04 11:00","2016","08","04","11:00","27.7","","19.9","","62","","21","","15","","32.2","","97.48","","35","","","","NA"
"2016-08-04 12:00","2016","08","04","12:00","28.7","","18.7","","54","","22","","18","","32.2","","97.44","","35","","","","NA"
"2016-08-04 13:00","2016","08","04","13:00","30.6","","17.6","","45","","23","","22","","32.2","","97.36","","36","","","","Mostly Cloudy"
"2016-08-04 14:00","2016","08","04","14:00","30.4","","17.0","","44","","23","","18","","32.2","","97.31","","36","","","","NA"
"2016-08-04 15:00","2016","08","04","15:00","30.1","","17.5","","46","","21","","27","","32.2","","97.24","","36","","","","NA"
"2016-08-04 16:00","2016","08","04","16:00","30.5","","19.1","","50","","22","","26","","32.2","","97.21","","37","","","","Mostly Cloudy"
"2016-08-04 17:00","2016","08","04","17:00","29.2","","17.9","","50","","22","","30","","32.2","","97.20","","35","","","","NA"
"2016-08-04 18:00","2016","08","04","18:00","28.1","","16.6","","49","","21","","23","","32.2","","97.14","","33","","","","NA"
"2016-08-04 19:00","2016","08","04","19:00","26.4","","15.6","","51","","20","","24","","32.2","","97.09","","31","","","","Mostly Cloudy"
"2016-08-04 20:00","2016","08","04","20:00","23.8","","15.7","","60","","20","","17","","32.2","","97.03","","28","","","","NA"
"2016-08-04 21:00","2016","08","04","21:00","23.1","","14.3","","57","","18","","21","","24.1","","96.99","","27","","","","NA"
"2016-08-04 22:00","2016","08","04","22:00","21.9","","13.9","","60","","18","","18","","24.1","","96.93","","25","","","","Mainly Clear"
"2016-08-04 23:00","2016","08","04","23:00","21.8","","15.5","","67","","19","","23","","24.1","","96.94","","26","","","","NA"
"2016-08-05 00:00","2016","08","05","00:00","21.1","","16.2","","73","","19","","18","","24.1","","96.89","","26","","","","NA"
"2016-08-05 01:00","2016","08","05","01:00","21.7","","17.4","","76","","19","","24","","24.1","","96.82","","27","","","","Mainly Clear"
"2016-08-05 02:00","2016","08","05","02:00","21.1","","18.2","","83","","18","","22","","32.2","","96.76","","27","","","","NA"
"2016-08-05 03:00","2016","08","05","03:00","21.7","","19.1","","85","","19","","21","","32.2","","96.67","","29","","","","NA"
"2016-08-05 04:00","2016","08","05","04:00","21.5","","18.9","","85","","19","","17","","24.1","","96.62","","28","","","","Mainly Clear"
"2016-08-05 05:00","2016","08","05","05:00","21.3","","19.5","","89","","19","","16","","16.1","","96.57","","28","","","","NA"
"2016-08-05 06:00","2016","08","05","06:00","21.4","","19.9","","91","","19","","18","","19.3","","96.56","","29","","","","NA"
"2016-08-05 07:00","2016","08","05","07:00","21.3","","20.3","","94","","20","","20","","19.3","","96.53","","29","","","","Mostly Cloudy"
"2016-08-05 08:00","2016","08","05","08:00","20.9","","20.1","","95","","21","","17","","19.3","","96.47","","29","","","","Thunderstorms,Rain Showers"
"2016-08-05 09:00","2016","08","05","09:00","22.6","","21.1","","91","","22","","18","","19.3","","96.48","","31","","","","NA"
"2016-08-05 10:00","2016","08","05","10:00","23.5","","21.3","","87","","23","","22","","16.1","","96.44","","32","","","","Mostly Cloudy"
"2016-08-05 11:00","2016","08","05","11:00","25.8","","20.5","","72","","23","","27","","32.2","","96.42","","34","","","","NA"
"2016-08-05 12:00","2016","08","05","12:00","26.1","","19.4","","66","","22","","32","","32.2","","96.40","","33","","","","NA"
"2016-08-05 13:00","2016","08","05","13:00","27.4","","16.0","","49","","25","","28","","32.2","","96.39","","32","","","","Mainly Clear"
"2016-08-05 14:00","2016","08","05","14:00","27.6","","14.8","","45","","26","","27","","32.2","","96.39","","31","","","","NA"
"2016-08-05 15:00","2016","08","05","15:00","28.2","","13.9","","41","","25","","28","","32.2","","96.40","","32","","","","NA"
"2016-08-05 16:00","2016","08","05","16:00","28.2","","14.3","","42","","30","","25","","32.2","","96.37","","32","","","","Mainly Clear"
"2016-08-05 17:00","2016","08","05","17:00","27.4","","14.6","","45","","29","","23","","32.2","","96.39","","31","","","","NA"
"2016-08-05 18:00","2016","08","05","18:00","25.6","","13.7","","47","","32","","21","","32.2","","96.44","","29","","","","NA"
"2016-08-05 19:00","2016","08","05","19:00","23.8","","14.1","","54","","32","","18","","32.2","","96.49","","27","","","","Mainly Clear"
"2016-08-05 20:00","2016","08","05","20:00","21.0","","14.7","","67","","30","","9","","32.2","","96.55","","25","","","","NA"
"2016-08-05 21:00","2016","08","05","21:00","19.5","","14.4","","72","","30","","6","","24.1","","96.62","","","","","","NA"
"2016-08-05 22:00","2016","08","05","22:00","18.0","","14.2","","78","","29","","13","","24.1","","96.66","","","","","","Mainly Clear"
"2016-08-05 23:00","2016","08","05","23:00","17.7","","14.1","","79","","29","","9","","24.1","","96.69","","","","","","NA"
"2016-08-06 00:00","2016","08","06","00:00","16.3","","13.4","","83","","28","","6","","24.1","","96.70","","","","","","NA"
"2016-08-06 01:00","2016","08","06","01:00","16.2","","13.7","","85","","27","","8","","24.1","","96.72","","","","","","Mainly Clear"
"2016-08-06 02:00","2016","08","06","02:00","15.3","","13.7","","90","","29","","9","","24.1","","96.73","","","","","","NA"
"2016-08-06 03:00","2016","08","06","03:00","16.6","","13.6","","82","","33","","14","","24.1","","96.76","","","","","","NA"
"2016-08-06 04:00","2016","08","06","04:00","15.9","","13.2","","84","","33","","9","","24.1","","96.77","","","","","","Mostly Cloudy"
"2016-08-06 05:00","2016","08","06","05:00","14.0","","12.4","","90","","32","","8","","24.1","","96.84","","","","","","NA"
"2016-08-06 06:00","2016","08","06","06:00","13.9","","12.5","","91","","30","","8","","32.2","","96.89","","","","","","NA"
"2016-08-06 07:00","2016","08","06","07:00","16.3","","13.6","","84","","30","","10","","32.2","","96.91","","","","","","Clear"
"2016-08-06 08:00","2016","08","06","08:00","19.0","","14.5","","75","","30","","13","","32.2","","96.93","","","","","","NA"
"2016-08-06 09:00","2016","08","06","09:00","20.7","","13.8","","64","","32","","18","","32.2","","96.93","","","","","","NA"
"2016-08-06 10:00","2016","08","06","10:00","21.3","","12.3","","56","","31","","17","","32.2","","96.93","","","","","","Mainly Clear"
"2016-08-06 11:00","2016","08","06","11:00","22.3","","12.1","","52","","31","","15","","32.2","","96.94","","25","","","","NA"
"2016-08-06 12:00","2016","08","06","12:00","22.0","","11.8","","52","","29","","18","","32.2","","96.94","","","","","","NA"
"2016-08-06 13:00","2016","08","06","13:00","23.6","","12.4","","49","","30","","12","","32.2","","96.92","","26","","","","Mostly Cloudy"
"2016-08-06 14:00","2016","08","06","14:00","21.9","","13.7","","59","","33","","11","","32.2","","96.93","","25","","","","NA"
"2016-08-06 15:00","2016","08","06","15:00","22.5","","14.2","","59","","36","","14","","32.2","","96.91","","26","","","","NA"
"2016-08-06 16:00","2016","08","06","16:00","21.1","","15.9","","72","","36","","7","","32.2","","96.92","","26","","","","Mostly Cloudy"
"2016-08-06 17:00","2016","08","06","17:00","21.0","","15.0","","68","","2","","7","","32.2","","96.91","","25","","","","NA"
"2016-08-06 18:00","2016","08","06","18:00","18.5","","15.8","","84","","32","","15","","24.1","","96.97","","","","","","Rain Showers"
"2016-08-06 19:00","2016","08","06","19:00","17.1","","15.8","","92","","28","","4","","32.2","","96.96","","","","","","Mostly Cloudy"
"2016-08-06 20:00","2016","08","06","20:00","16.8","","15.5","","92","","26","","6","","24.1","","96.98","","","","","","NA"
"2016-08-06 21:00","2016","08","06","21:00","16.3","","15.5","","95","","29","","13","","24.1","","97.01","","","","","","NA"
"2016-08-06 22:00","2016","08","06","22:00","15.6","","15.1","","97","","28","","8","","24.1","","97.04","","","","","","Mainly Clear"
"2016-08-06 23:00","2016","08","06","23:00","15.1","","14.8","","98","","28","","8","","24.1","","97.05","","","","","","NA"
"2016-08-07 00:00","2016","08","07","00:00","15.5","","15.0","","97","","30","","8","","24.1","","97.09","","","","","","NA"
"2016-08-07 01:00","2016","08","07","01:00","15.1","","14.6","","97","","28","","6","","24.1","","97.13","","","","","","Cloudy"
"2016-08-07 02:00","2016","08","07","02:00","14.5","","13.4","","93","","30","","9","","24.1","","97.18","","","","","","NA"
"2016-08-07 03:00","2016","08","07","03:00","14.2","","12.6","","90","","31","","8","","24.1","","97.22","","","","","","NA"
"2016-08-07 04:00","2016","08","07","04:00","13.2","","11.9","","92","","30","","4","","24.1","","97.26","","","","","","Mainly Clear"
"2016-08-07 05:00","2016","08","07","05:00","13.1","","11.8","","92","","33","","10","","32.2","","97.32","","","","","","NA"
"2016-08-07 06:00","2016","08","07","06:00","13.2","","12.1","","93","","32","","10","","32.2","","97.36","","","","","","NA"
"2016-08-07 07:00","2016","08","07","07:00","14.9","","13.0","","88","","30","","11","","32.2","","97.41","","","","","","Mainly Clear"
"2016-08-07 08:00","2016","08","07","08:00","16.9","","12.5","","75","","32","","14","","32.2","","97.43","","","","","","NA"
"2016-08-07 09:00","2016","08","07","09:00","18.5","","12.1","","66","","33","","21","","32.2","","97.45","","","","","","NA"
"2016-08-07 10:00","2016","08","07","10:00","19.5","","12.6","","64","","32","","15","","32.2","","97.48","","","","","","Mostly Cloudy"
"2016-08-07 11:00","2016","08","07","11:00","20.1","","11.4","","57","","35","","19","","32.2","","97.51","","","","","","NA"
"2016-08-07 12:00","2016","08","07","12:00","21.3","","11.2","","52","","32","","18","","32.2","","97.51","","","","","","NA"
"2016-08-07 13:00","2016","08","07","13:00","23.3","","11.2","","46","","31","","16","","32.2","","97.53","","25","","","","Mostly Cloudy"
"2016-08-07 14:00","2016","08","07","14:00","22.9","","10.8","","46","","27","","13","","32.2","","97.54","","25","","","","NA"
"2016-08-07 15:00","2016","08","07","15:00","23.1","","10.0","","43","","28","","12","","32.2","","97.51","","","","","","NA"
"2016-08-07 16:00","2016","08","07","16:00","23.5","","9.3","","40","","32","","18","","32.2","","97.50","","","","","","Mostly Cloudy"
"2016-08-07 17:00","2016","08","07","17:00","24.5","","9.5","","38","","32","","14","","32.2","","97.49","","26","","","","NA"
"2016-08-07 18:00","2016","08","07","18:00","23.9","","10.0","","41","","32","","8","","32.2","","97.49","","25","","","","NA"
"2016-08-07 19:00","2016","08","07","19:00","22.1","","11.9","","52","","29","","5","","32.2","","97.49","","","","","","Mainly Clear"
"2016-08-07 20:00","2016","08","07","20:00","20.3","","10.8","","54","","30","","4","","32.2","","97.51","","","","","","NA"
"2016-08-07 21:00","2016","08","07","21:00","19.1","","10.5","","57","","28","","6","","24.1","","97.56","","","","","","NA"
"2016-08-07 22:00","2016","08","07","22:00","17.8","","11.2","","65","","30","","8","","24.1","","97.55","","","","","","Clear"
"2016-08-07 23:00","2016","08","07","23:00","15.6","","11.8","","78","","30","","9","","24.1","","97.57","","","","","","NA"
"2016-08-08 00:00","2016","08","08","00:00","14.3","","11.7","","84","","30","","8","","24.1","","97.60","","","","","","NA"
"2016-08-08 01:00","2016","08","08","01:00","13.4","","10.8","","84","","31","","8","","24.1","","97.63","","","","","","Clear"
"2016-08-08 02:00","2016","08","08","02:00","13.3","","10.7","","84","","31","","8","","24.1","","97.66","","","","","","NA"
"2016-08-08 03:00","2016","08","08","03:00","13.6","","10.8","","83","","31","","7","","24.1","","97.67","","","","","","NA"
"2016-08-08 04:00","2016","08","08","04:00","14.0","","10.6","","80","","31","","8","","24.1","","97.72","","","","","","Clear"
"2016-08-08 05:00","2016","08","08","05:00","12.7","","10.4","","86","","32","","9","","24.1","","97.75","","","","","","NA"
"2016-08-08 06:00","2016","08","08","06:00","14.0","","11.4","","84","","36","","9","","32.2","","97.78","","","","","","NA"
"2016-08-08 07:00","2016","08","08","07:00","15.2","","11.8","","80","","31","","8","","32.2","","97.83","","","","","","Clear"
"2016-08-08 08:00","2016","08","08","08:00","18.3","","13.7","","74","","32","","7","","32.2","","97.85","","","","","","NA"
"2016-08-08 09:00","2016","08","08","09:00","21.1","","12.6","","58","","33","","8","","32.2","","97.87","","","","","","NA"
"2016-08-08 10:00","2016","08","08","10:00","23.5","","13.5","","53","","28","","9","","32.2","","97.87","","27","","","","Mainly Clear"
"2016-08-08 11:00","2016","08","08","11:00","24.5","","12.3","","46","","27","","10","","32.2","","97.88","","27","","","","NA"
"2016-08-08 12:00","2016","08","08","12:00","25.7","","11.3","","40","","27","","8","","32.2","","97.85","","28","","","","NA"
"2016-08-08 13:00","2016","08","08","13:00","26.4","","10.4","","36","","30","","4","","32.2","","97.82","","28","","","","Mainly Clear"
"2016-08-08 14:00","2016","08","08","14:00","27.0","","8.2","","30","","20","","11","","32.2","","97.79","","27","","","","NA"
"2016-08-08 15:00","2016","08","08","15:00","27.5","","8.2","","29","","31","","13","","32.2","","97.76","","28","","","","NA"
"2016-08-08 16:00","2016","08","08","16:00","27.2","","8.9","","31","","23","","9","","32.2","","97.74","","28","","","","Mainly Clear"
"2016-08-08 17:00","2016","08","08","17:00","27.2","","8.4","","30","","22","","10","","32.2","","97.73","","28","","","","NA"
"2016-08-08 18:00","2016","08","08","18:00","26.5","","8.7","","32","","23","","5","","32.2","","97.70","","27","","","","NA"
"2016-08-08 19:00","2016","08","08","19:00","22.6","","11.5","","49","","22","","11","","32.2","","97.72","","25","","","","Mostly Cloudy"
"2016-08-08 20:00","2016","08","08","20:00","20.3","","10.5","","53","","22","","9","","32.2","","97.74","","","","","","NA"
"2016-08-08 21:00","2016","08","08","21:00","19.4","","9.1","","51","","23","","7","","24.1","","97.77","","","","","","NA"
"2016-08-08 22:00","2016","08","08","22:00","19.4","","8.2","","48","","24","","10","","24.1","","97.78","","","","","","Mainly Clear"
"2016-08-08 23:00","2016","08","08","23:00","19.0","","8.5","","50","","24","","9","","24.1","","97.75","","","","","","NA"
"2016-08-09 00:00","2016","08","09","00:00","17.9","","8.3","","53","","23","","8","","24.1","","97.75","","","","","","NA"
"2016-08-09 01:00","2016","08","09","01:00","17.1","","10.1","","63","","20","","7","","24.1","","97.76","","","","","","Mainly Clear"
"2016-08-09 02:00","2016","08","09","02:00","14.9","","10.0","","72","","16","","11","","24.1","","97.78","","","","","","NA"
"2016-08-09 03:00","2016","08","09","03:00","14.4","","9.7","","73","","16","","16","","24.1","","97.77","","","","","","NA"
"2016-08-09 04:00","2016","08","09","04:00","14.4","","12.1","","86","","22","","11","","24.1","","97.81","","","","","","Mainly Clear"
"2016-08-09 05:00","2016","08","09","05:00","12.8","","11.4","","91","","22","","9","","32.2","","97.85","","","","","","NA"
"2016-08-09 06:00","2016","08","09","06:00","14.8","","11.6","","81","","22","","7","","32.2","","97.84","","","","","","NA"
"2016-08-09 07:00","2016","08","09","07:00","17.6","","13.0","","74","","21","","4","","32.2","","97.84","","","","","","Mostly Cloudy"
"2016-08-09 08:00","2016","08","09","08:00","19.0","","15.1","","78","","23","","10","","32.2","","97.85","","","","","","NA"
"2016-08-09 09:00","2016","08","09","09:00","21.9","","14.9","","64","","21","","21","","32.2","","97.81","","26","","","","NA"
"2016-08-09 10:00","2016","08","09","10:00","24.2","","15.3","","57","","21","","18","","32.2","","97.73","","28","","","","Mainly Clear"
"2016-08-09 11:00","2016","08","09","11:00","25.8","","14.8","","50","","22","","23","","32.2","","97.68","","30","","","","NA"
"2016-08-09 12:00","2016","08","09","12:00","27.0","","12.5","","40","","22","","24","","32.2","","97.62","","30","","","","NA"
"2016-08-09 13:00","2016","08","09","13:00","27.9","","11.3","","35","","23","","19","","32.2","","97.57","","30","","","","Mostly Cloudy"
"2016-08-09 14:00","2016","08","09","14:00","28.7","","10.2","","31","","21","","23","","32.2","","97.49","","30","","","","NA"
"2016-08-09 15:00","2016","08","09","15:00","27.9","","10.4","","33","","21","","31","","32.2","","97.48","","29","","","","NA"
"2016-08-09 16:00","2016","08","09","16:00","28.2","","9.3","","30","","23","","28","","32.2","","97.45","","29","","","","Mostly Cloudy"
"2016-08-09 17:00","2016","08","09","17:00","27.3","","11.6","","37","","21","","26","","32.2","","97.40","","29","","","","NA"
"2016-08-09 18:00","2016","08","09","18:00","26.2","","12.1","","41","","21","","37","","32.2","","97.37","","29","","","","NA"
"2016-08-09 19:00","2016","08","09","19:00","24.4","","13.2","","49","","21","","16","","32.2","","97.37","","27","","","","Mainly Clear"
"2016-08-09 20:00","2016","08","09","20:00","22.4","","12.5","","53","","20","","17","","32.2","","97.39","","25","","","","NA"
"2016-08-09 21:00","2016","08","09","21:00","21.7","","11.3","","51","","20","","16","","24.1","","97.44","","","","","","NA"
"2016-08-09 22:00","2016","08","09","22:00","21.1","","11.8","","55","","20","","13","","24.1","","97.45","","","","","","Mostly Cloudy"
"2016-08-09 23:00","2016","08","09","23:00","19.8","","12.4","","62","","19","","12","","24.1","","97.45","","","","","","NA"
"2016-08-10 00:00","2016","08","10","00:00","19.2","","13.7","","70","","19","","14","","24.1","","97.47","","","","","","NA"
"2016-08-10 01:00","2016","08","10","01:00","18.8","","14.3","","75","","20","","11","","24.1","","97.46","","","","","","Mainly Clear"
"2016-08-10 02:00","2016","08","10","02:00","18.4","","14.7","","79","","19","","14","","24.1","","97.41","","","","","","NA"
"2016-08-10 03:00","2016","08","10","03:00","18.1","","15.2","","83","","23","","6","","24.1","","97.42","","","","","","NA"
"2016-08-10 04:00","2016","08","10","04:00","16.0","","14.4","","90","","26","","5","","24.1","","97.43","","","","","","Mainly Clear"
"2016-08-10 05:00","2016","08","10","05:00","16.1","","14.5","","90","","21","","8","","32.2","","97.44","","","","","","NA"
"2016-08-10 06:00","2016","08","10","06:00","16.7","","15.2","","91","","22","","8","","32.2","","97.44","","","","","","NA"
"2016-08-10 07:00","2016","08","10","07:00","19.1","","16.7","","86","","23","","5","","32.2","","97.49","","","","","","Clear"
"2016-08-10 08:00","2016","08","10","08:00","23.1","","18.3","","74","","24","","9","","32.2","","97.52","","29","","","","NA"
"2016-08-10 09:00","2016","08","10","09:00","25.1","","18.4","","66","","24","","11","","32.2","","97.53","","31","","","","NA"
"2016-08-10 10:00","2016","08","10","10:00","26.1","","19.4","","66","","27","","5","","32.2","","97.56","","33","","","","Mostly Cloudy"
"2016-08-10 11:00","2016","08","10","11:00","28.1","","19.5","","59","","23","","14","","32.2","","97.55","","35","","","","NA"
"2016-08-10 12:00","2016","08","10","12:00","29.3","","19.2","","54","","24","","17","","32.2","","97.55","","36","","","","NA"
"2016-08-10 13:00","2016","08","10","13:00","29.6","","18.6","","51","","27","","14","","32.2","","97.51","","36","","","","Mostly Cloudy"
"2016-08-10 14:00","2016","08","10","14:00","24.8","","21.8","","83","","35","","16","","32.2","","97.55","","34","","","","NA"
"2016-08-10 15:00","2016","08","10","15:00","28.3","","22.0","","68","","5","","14","","32.2","","97.54","","38","","","","NA"
"2016-08-10 16:00","2016","08","10","16:00","26.0","","20.2","","70","","4","","10","","32.2","","97.54","","34","","","","Mostly Cloudy"
"2016-08-10 17:00","2016","08","10","17:00","25.7","","19.7","","69","","1","","13","","32.2","","97.56","","33","","","","NA"
"2016-08-10 18:00","2016","08","10","18:00","24.8","","18.8","","69","","1","","12","","32.2","","97.57","","31","","","","NA"
"2016-08-10 19:00","2016","08","10","19:00","23.9","","19.3","","75","","2","","8","","32.2","","97.58","","31","","","","Mostly Cloudy"
"2016-08-10 20:00","2016","08","10","20:00","23.3","","18.3","","73","","36","","12","","32.2","","97.63","","30","","","","NA"
"2016-08-10 21:00","2016","08","10","21:00","22.3","","17.7","","75","","36","","7","","24.1","","97.65","","28","","","","NA"
"2016-08-10 22:00","2016","08","10","22:00","21.1","","17.2","","78","","35","","8","","24.1","","97.68","","27","","","","Mostly Cloudy"
"2016-08-10 23:00","2016","08","10","23:00","19.9","","17.3","","85","","30","","7","","24.1","","97.73","","","","","","NA"
"2016-08-11 00:00","2016","08","11","00:00","19.7","","17.0","","84","","33","","3","","24.1","","97.75","","","","","","NA"
"2016-08-11 01:00","2016","08","11","01:00","19.0","","16.5","","85","","1","","6","","24.1","","97.70","","","","","","Mostly Cloudy"
"2016-08-11 02:00","2016","08","11","02:00","17.9","","15.6","","86","","2","","10","","24.1","","97.72","","","","","","NA"
"2016-08-11 03:00","2016","08","11","03:00","17.1","","15.6","","91","","4","","10","","24.1","","97.71","","","","","","NA"
"2016-08-11 04:00","2016","08","11","04:00","17.3","","15.2","","87","","4","","10","","24.1","","97.69","","","","","","Mainly Clear"
"2016-08-11 05:00","2016","08","11","05:00","17.1","","14.8","","86","","3","","14","","32.2","","97.73","","","","","","NA"
"2016-08-11 06:00","2016","08","11","06:00","17.6","","14.9","","84","","4","","12","","32.2","","97.76","","","","","","NA"
"2016-08-11 07:00","2016","08","11","07:00","17.6","","14.5","","82","","5","","9","","32.2","","97.73","","","","","","Mainly Clear"
"2016-08-11 08:00","2016","08","11","08:00","20.2","","15.1","","72","","7","","12","","32.2","","97.70","","","","","","NA"
"2016-08-11 09:00","2016","08","11","09:00","22.5","","16.4","","68","","13","","12","","32.2","","97.65","","27","","","","NA"
"2016-08-11 10:00","2016","08","11","10:00","24.6","","17.2","","63","","13","","10","","32.2","","97.57","","30","","","","Mainly Clear"
"2016-08-11 11:00","2016","08","11","11:00","26.0","","17.3","","58","","14","","6","","32.2","","97.56","","31","","","","NA"
"2016-08-11 12:00","2016","08","11","12:00","28.4","","18.7","","55","","22","","14","","32.2","","97.50","","35","","","","NA"
"2016-08-11 13:00","2016","08","11","13:00","29.4","","19.0","","53","","27","","10","","32.2","","97.40","","36","","","","Cloudy"
"2016-08-11 14:00","2016","08","11","14:00","29.3","","19.2","","54","","27","","7","","32.2","","97.28","","36","","","","NA"
"2016-08-11 15:00","2016","08","11","15:00","28.2","","20.1","","61","","2","","10","","32.2","","97.21","","36","","","","NA"
"2016-08-11 16:00","2016","08","11","16:00","29.0","","19.8","","57","","21","","16","","24.1","","97.16","","36","","","","Cloudy"
"2016-08-11 17:00","2016","08","11","17:00","28.4","","18.4","","54","","20","","18","","32.2","","97.08","","35","","","","NA"
"2016-08-11 18:00","2016","08","11","18:00","27.0","","19.8","","64","","21","","13","","32.2","","97.05","","34","","","","NA"
"2016-08-11 19:00","2016","08","11","19:00","26.1","","19.6","","67","","20","","14","","32.2","","97.04","","33","","","","Cloudy"
"2016-08-11 20:00","2016","08","11","20:00","25.2","","19.7","","71","","19","","11","","32.2","","97.04","","33","","","","NA"
"2016-08-11 21:00","2016","08","11","21:00","22.1","","19.1","","83","","2","","20","","24.1","","97.06","","29","","","","NA"
"2016-08-11 22:00","2016","08","11","22:00","19.6","","17.1","","85","","3","","23","","16.1","","97.04","","","","","","Rain Showers"
"2016-08-11 23:00","2016","08","11","23:00","18.6","","17.1","","91","","3","","19","","16.1","","96.98","","","","","","Rain Showers"
"2016-08-12 00:00","2016","08","12","00:00","18.1","","17.1","","94","","5","","22","","16.1","","96.88","","","","","","Rain Showers"
"2016-08-12 01:00","2016","08","12","01:00","17.4","","16.9","","97","","4","","26","","9.7","","96.85","","","","","","Rain Showers,Fog"
"2016-08-12 02:00","2016","08","12","02:00","16.9","","16.4","","97","","4","","27","","4.0","","96.80","","","","","","Rain Showers,Fog"
"2016-08-12 03:00","2016","08","12","03:00","16.6","","16.1","","97","","6","","22","","3.2","","96.77","","","","","","Rain Showers,Fog"
"2016-08-12 04:00","2016","08","12","04:00","16.3","","15.8","","97","","3","","31","","16.1","","96.75","","","","","","Cloudy"
"2016-08-12 05:00","2016","08","12","05:00","16.1","","15.6","","97","","4","","25","","8.1","","96.78","","","","","","Rain Showers,Fog"
"2016-08-12 06:00","2016","08","12","06:00","16.2","","15.7","","97","","4","","23","","12.9","","96.77","","","","","","Rain Showers,Fog"
"2016-08-12 07:00","2016","08","12","07:00","16.3","","15.8","","97","","4","","23","","4.8","","96.84","","","","","","Rain Showers,Fog"
"2016-08-12 08:00","2016","08","12","08:00","15.8","","15.2","","96","","4","","29","","19.3","","96.87","","","","","","Rain Showers"
"2016-08-12 09:00","2016","08","12","09:00","16.0","","15.5","","97","","3","","20","","4.8","","96.92","","","","","","Rain Showers,Fog"
"2016-08-12 10:00","2016","08","12","10:00","16.2","","15.6","","96","","3","","26","","24.1","","96.95","","","","","","Rain Showers"
"2016-08-12 11:00","2016","08","12","11:00","15.8","","15.0","","95","","3","","28","","32.2","","97.03","","","","","","Rain Showers"
"2016-08-12 12:00","2016","08","12","12:00","16.0","","14.9","","93","","4","","32","","32.2","","97.07","","","","","","NA"
"2016-08-12 13:00","2016","08","12","13:00","17.2","","15.6","","90","","4","","32","","32.2","","97.07","","","","","","Cloudy"
"2016-08-12 14:00","2016","08","12","14:00","17.3","","15.2","","87","","4","","27","","32.2","","97.11","","","","","","NA"
"2016-08-12 15:00","2016","08","12","15:00","17.7","","15.0","","84","","3","","28","","32.2","","97.10","","","","","","NA"
"2016-08-12 16:00","2016","08","12","16:00","18.1","","14.8","","81","","3","","25","","32.2","","97.14","","","","","","Cloudy"
"2016-08-12 17:00","2016","08","12","17:00","18.6","","14.4","","76","","3","","22","","32.2","","97.20","","","","","","NA"
"2016-08-12 18:00","2016","08","12","18:00","18.8","","13.9","","73","","3","","24","","32.2","","97.22","","","","","","NA"
"2016-08-12 19:00","2016","08","12","19:00","18.3","","13.9","","75","","4","","24","","32.2","","97.19","","","","","","Mostly Cloudy"
"2016-08-12 20:00","2016","08","12","20:00","18.0","","13.2","","73","","4","","23","","32.2","","97.22","","","","","","NA"
"2016-08-12 21:00","2016","08","12","21:00","17.8","","13.0","","73","","5","","18","","24.1","","97.26","","","","","","NA"
"2016-08-12 22:00","2016","08","12","22:00","17.7","","12.7","","72","","5","","18","","24.1","","97.28","","","","","","Cloudy"
"2016-08-12 23:00","2016","08","12","23:00","17.2","","13.2","","77","","4","","18","","24.1","","97.27","","","","","","NA"
"2016-08-13 00:00","2016","08","13","00:00","16.9","","12.9","","77","","4","","16","","24.1","","97.26","","","","","","NA"
"2016-08-13 01:00","2016","08","13","01:00","16.5","","12.7","","78","","5","","15","","24.1","","97.21","","","","","","Mostly Cloudy"
"2016-08-13 02:00","2016","08","13","02:00","16.4","","12.6","","78","","5","","17","","24.1","","97.16","","","","","","NA"
"2016-08-13 03:00","2016","08","13","03:00","16.2","","12.2","","77","","4","","17","","24.1","","97.14","","","","","","NA"
"2016-08-13 04:00","2016","08","13","04:00","15.9","","12.3","","79","","4","","17","","24.1","","97.11","","","","","","Cloudy"
"2016-08-13 05:00","2016","08","13","05:00","15.6","","12.0","","79","","4","","23","","32.2","","97.08","","","","","","NA"
"2016-08-13 06:00","2016","08","13","06:00","15.2","","11.8","","80","","5","","17","","32.2","","97.08","","","","","","NA"
"2016-08-13 07:00","2016","08","13","07:00","15.2","","12.0","","81","","4","","20","","32.2","","97.09","","","","","","Mostly Cloudy"
"2016-08-13 08:00","2016","08","13","08:00","14.0","","12.9","","93","","5","","22","","8.1","","97.04","","","","","","Rain Showers,Fog"
"2016-08-13 09:00","2016","08","13","09:00","14.1","","13.5","","96","","5","","22","","8.1","","96.95","","","","","","Rain Showers,Fog"
"2016-08-13 10:00","2016","08","13","10:00","14.7","","14.2","","97","","4","","21","","16.1","","96.91","","","","","","Rain"
"2016-08-13 11:00","2016","08","13","11:00","15.1","","14.6","","97","","5","","18","","8.1","","96.91","","","","","","Rain"
"2016-08-13 12:00","2016","08","13","12:00","15.6","","15.1","","97","","5","","18","","8.1","","96.80","","","","","","Rain"
"2016-08-13 13:00","2016","08","13","13:00","15.7","","15.2","","97","","5","","21","","8.1","","96.74","","","","","","Rain"
"2016-08-13 14:00","2016","08","13","14:00","16.2","","15.7","","97","","4","","28","","12.9","","96.65","","","","","","Rain"
"2016-08-13 15:00","2016","08","13","15:00","16.5","","15.9","","96","","5","","28","","9.7","","96.60","","","","","","Rain,Fog"
"2016-08-13 16:00","2016","08","13","16:00","16.8","","16.5","","98","","4","","19","","3.2","","96.63","","","","","","Rain,Fog"
"2016-08-13 17:00","2016","08","13","17:00","16.6","","16.1","","97","","6","","24","","3.2","","96.58","","","","","","Rain,Fog"
"2016-08-13 18:00","2016","08","13","18:00","15.9","","15.6","","98","","3","","21","","3.2","","96.62","","","","","","Drizzle,Fog"
"2016-08-13 19:00","2016","08","13","19:00","15.7","","15.4","","98","","3","","16","","1.6","","96.66","","","","","","Drizzle,Fog"
"2016-08-13 20:00","2016","08","13","20:00","15.1","","14.8","","98","","35","","14","","2.4","","96.74","","","","","","Drizzle,Fog"
"2016-08-13 21:00","2016","08","13","21:00","14.7","","14.2","","97","","36","","18","","8.1","","96.77","","","","","","Drizzle,Fog"
"2016-08-13 22:00","2016","08","13","22:00","14.9","","14.3","","96","","2","","24","","24.1","","96.77","","","","","","Cloudy"
"2016-08-13 23:00","2016","08","13","23:00","14.9","","14.0","","94","","2","","20","","24.1","","96.77","","","","","","NA"
"2016-08-14 00:00","2016","08","14","00:00","14.7","","14.1","","96","","36","","13","","24.1","","96.83","","","","","","NA"
"2016-08-14 01:00","2016","08","14","01:00","14.5","","13.7","","95","","36","","11","","24.1","","96.86","","","","","","Cloudy"
"2016-08-14 02:00","2016","08","14","02:00","14.0","","13.5","","97","","1","","14","","8.1","","96.90","","","","","","Drizzle,Fog"
"2016-08-14 03:00","2016","08","14","03:00","14.0","","13.5","","97","","35","","13","","24.1","","96.96","","","","","","Drizzle"
"2016-08-14 04:00","2016","08","14","04:00","13.8","","13.3","","97","","33","","9","","24.1","","97.01","","","","","","Cloudy"
"2016-08-14 05:00","2016","08","14","05:00","13.7","","13.1","","96","","33","","12","","24.1","","97.06","","","","","","NA"
"2016-08-14 06:00","2016","08","14","06:00","13.7","","12.9","","95","","32","","9","","32.2","","97.18","","","","","","NA"
"2016-08-14 07:00","2016","08","14","07:00","14.2","","13.3","","94","","33","","11","","32.2","","97.27","","","","","","Mostly Cloudy"
"2016-08-14 08:00","2016","08","14","08:00","14.7","","13.1","","90","","35","","14","","32.2","","97.33","","","","","","NA"
"2016-08-14 09:00","2016","08","14","09:00","16.2","","13.5","","84","","4","","12","","32.2","","97.37","","","","","","NA"
"2016-08-14 10:00","2016","08","14","10:00","17.6","","13.8","","78","","34","","6","","32.2","","97.39","","","","","","Mostly Cloudy"
"2016-08-14 11:00","2016","08","14","11:00","18.5","","12.8","","69","","2","","15","","32.2","","97.45","","","","","","NA"
"2016-08-14 12:00","2016","08","14","12:00","20.1","","14.1","","68","","7","","12","","32.2","","97.43","","","","","","NA"
"2016-08-14 13:00","2016","08","14","13:00","20.6","","12.7","","60","","32","","5","","32.2","","97.45","","","","","","Mostly Cloudy"
"2016-08-14 14:00","2016","08","14","14:00","20.8","","13.4","","62","","10","","5","","32.2","","97.47","","","","","","NA"
"2016-08-14 15:00","2016","08","14","15:00","21.9","","13.1","","57","","21","","10","","32.2","","97.48","","25","","","","NA"
"2016-08-14 16:00","2016","08","14","16:00","22.6","","14.1","","58","","21","","7","","32.2","","97.48","","26","","","","Mostly Cloudy"
"2016-08-14 17:00","2016","08","14","17:00","22.5","","14.0","","58","","20","","10","","32.2","","97.51","","26","","","","NA"
"2016-08-14 18:00","2016","08","14","18:00","21.5","","13.8","","61","","20","","13","","32.2","","97.52","","25","","","","NA"
"2016-08-14 19:00","2016","08","14","19:00","20.1","","15.0","","72","","18","","15","","32.2","","97.57","","","","","","Mainly Clear"
"2016-08-14 20:00","2016","08","14","20:00","18.4","","15.1","","81","","19","","15","","24.1","","97.65","","","","","","NA"
"2016-08-14 21:00","2016","08","14","21:00","17.5","","14.6","","83","","21","","15","","24.1","","97.71","","","","","","NA"
"2016-08-14 22:00","2016","08","14","22:00","16.2","","14.6","","90","","21","","11","","24.1","","97.73","","","","","","Mainly Clear"
"2016-08-14 23:00","2016","08","14","23:00","16.2","","14.9","","92","","21","","13","","24.1","","97.78","","","","","","NA"
"2016-08-15 00:00","2016","08","15","00:00","16.0","","15.2","","95","","21","","12","","24.1","","97.78","","","","","","NA"
"2016-08-15 01:00","2016","08","15","01:00","14.9","","14.4","","97","","21","","10","","24.1","","97.76","","","","","","Clear"
"2016-08-15 02:00","2016","08","15","02:00","14.9","","14.6","","98","","27","","4","","24.1","","97.78","","","","","","NA"
"2016-08-15 03:00","2016","08","15","03:00","14.6","","14.5","","99","","23","","7","","24.1","","97.83","","","","","","NA"
"2016-08-15 04:00","2016","08","15","04:00","14.8","","14.7","","99","","25","","5","","24.1","","97.87","","","","","","Mainly Clear"
"2016-08-15 05:00","2016","08","15","05:00","15.8","","15.5","","98","","24","","4","","24.1","","97.90","","","","","","NA"
"2016-08-15 06:00","2016","08","15","06:00","15.8","","15.5","","98","","22","","6","","24.1","","97.95","","","","","","NA"
"2016-08-15 07:00","2016","08","15","07:00","16.9","","16.6","","98","","24","","6","","24.1","","98.00","","","","","","Mainly Clear"
"2016-08-15 08:00","2016","08","15","08:00","19.1","","17.1","","88","","25","","12","","32.2","","98.02","","","","","","NA"
"2016-08-15 09:00","2016","08","15","09:00","19.4","","17.2","","87","","25","","10","","32.2","","98.00","","","","","","NA"
"2016-08-15 10:00","2016","08","15","10:00","21.2","","18.1","","82","","24","","10","","32.2","","98.02","","27","","","","Mostly Cloudy"
"2016-08-15 11:00","2016","08","15","11:00","23.0","","17.3","","70","","28","","12","","32.2","","98.04","","28","","","","NA"
"2016-08-15 12:00","2016","08","15","12:00","24.3","","17.4","","65","","29","","7","","32.2","","97.99","","30","","","","NA"
"2016-08-15 13:00","2016","08","15","13:00","24.2","","17.6","","66","","21","","18","","32.2","","97.98","","30","","","","Mostly Cloudy"
"2016-08-15 14:00","2016","08","15","14:00","24.3","","17.9","","67","","20","","16","","32.2","","97.94","","30","","","","NA"
"2016-08-15 15:00","2016","08","15","15:00","24.8","","17.2","","62","","22","","18","","32.2","","97.88","","30","","","","NA"
"2016-08-15 16:00","2016","08","15","16:00","24.4","","17.8","","66","","19","","16","","32.2","","97.86","","30","","","","Mostly Cloudy"
"2016-08-15 17:00","2016","08","15","17:00","19.2","","18.1","","93","","29","","10","","4.8","","97.93","","","","","","Rain Showers,Fog"
"2016-08-15 18:00","2016","08","15","18:00","20.1","","18.4","","90","","24","","7","","32.2","","97.86","","26","","","","NA"
"2016-08-15 19:00","2016","08","15","19:00","20.5","","18.8","","90","","24","","5","","32.2","","97.89","","27","","","","Mostly Cloudy"
"2016-08-15 20:00","2016","08","15","20:00","20.0","","19.0","","94","","17","","13","","24.1","","97.89","","27","","","","NA"
"2016-08-15 21:00","2016","08","15","21:00","19.1","","17.1","","88","","20","","14","","24.1","","97.95","","","","","","NA"
"2016-08-15 22:00","2016","08","15","22:00","18.1","","16.8","","92","","26","","3","","24.1","","97.96","","","","","","Mainly Clear"
"2016-08-15 23:00","2016","08","15","23:00","18.3","","16.8","","91","","19","","11","","24.1","","97.91","","","","","","NA"
"2016-08-16 00:00","2016","08","16","00:00","18.5","","17.0","","91","","18","","12","","24.1","","97.92","","","","","","NA"
"2016-08-16 01:00","2016","08","16","01:00","18.4","","17.8","","96","","20","","9","","24.1","","97.87","","","","","","Mainly Clear"
"2016-08-16 02:00","2016","08","16","02:00","18.2","","17.6","","96","","17","","5","","24.1","","97.83","","","","","","NA"
"2016-08-16 03:00","2016","08","16","03:00","17.5","","17.0","","97","","14","","3","","24.1","","97.82","","","","","","NA"
"2016-08-16 04:00","2016","08","16","04:00","17.5","","17.2","","98","","11","","7","","24.1","","97.78","","","","","","Mostly Cloudy"
"2016-08-16 05:00","2016","08","16","05:00","17.5","","17.0","","97","","9","","6","","24.1","","97.73","","","","","","NA"
"2016-08-16 06:00","2016","08","16","06:00","17.1","","16.8","","98","","10","","8","","16.1","","97.77","","","","","","NA"
"2016-08-16 07:00","2016","08","16","07:00","17.7","","17.1","","96","","9","","12","","16.1","","97.73","","","","","","Cloudy"
"2016-08-16 08:00","2016","08","16","08:00","17.7","","16.9","","95","","10","","13","","24.1","","97.67","","","","","","NA"
"2016-08-16 09:00","2016","08","16","09:00","18.1","","17.0","","93","","12","","16","","32.2","","97.63","","","","","","NA"
"2016-08-16 10:00","2016","08","16","10:00","18.6","","16.8","","89","","8","","13","","32.2","","97.57","","","","","","Cloudy"
"2016-08-16 11:00","2016","08","16","11:00","18.7","","17.2","","91","","10","","14","","24.1","","97.54","","","","","","Rain"
"2016-08-16 12:00","2016","08","16","12:00","18.6","","17.8","","95","","7","","11","","24.1","","97.52","","","","","","Rain"
"2016-08-16 13:00","2016","08","16","13:00","19.0","","18.2","","95","","6","","13","","24.1","","97.54","","","","","","Mostly Cloudy"
"2016-08-16 14:00","2016","08","16","14:00","18.1","","16.8","","92","","9","","18","","24.1","","97.38","","","","","","Rain"
"2016-08-16 15:00","2016","08","16","15:00","21.0","","17.3","","79","","8","","12","","32.2","","97.44","","26","","","","NA"
"2016-08-16 16:00","2016","08","16","16:00","21.1","","15.3","","69","","7","","12","","32.2","","97.47","","25","","","","Mainly Clear"
"2016-08-16 17:00","2016","08","16","17:00","21.2","","14.7","","66","","8","","16","","32.2","","97.46","","25","","","","NA"
"2016-08-16 18:00","2016","08","16","18:00","20.8","","15.2","","70","","10","","5","","32.2","","97.45","","25","","","","NA"
"2016-08-16 19:00","2016","08","16","19:00","19.6","","15.5","","77","","29","","4","","32.2","","97.47","","","","","","Mainly Clear"
"2016-08-16 20:00","2016","08","16","20:00","18.1","","15.0","","82","","26","","7","","24.1","","97.52","","","","","","NA"
"2016-08-16 21:00","2016","08","16","21:00","17.2","","14.7","","85","","16","","9","","24.1","","97.54","","","","","","NA"
"2016-08-16 22:00","2016","08","16","22:00","16.7","","14.9","","89","","18","","13","","24.1","","97.54","","","","","","Mainly Clear"
"2016-08-16 23:00","2016","08","16","23:00","15.3","","13.9","","91","","24","","7","","24.1","","97.56","","","","","","NA"
"2016-08-17 00:00","2016","08","17","00:00","14.8","","14.0","","95","","21","","11","","24.1","","97.64","","","","","","NA"
"2016-08-17 01:00","2016","08","17","01:00","15.3","","14.0","","92","","21","","9","","24.1","","97.61","","","","","","Mostly Cloudy"
"2016-08-17 02:00","2016","08","17","02:00","15.4","","14.5","","94","","23","","11","","24.1","","97.60","","","","","","NA"
"2016-08-17 03:00","2016","08","17","03:00","15.8","","14.9","","94","","23","","11","","24.1","","97.61","","","","","","NA"
"2016-08-17 04:00","2016","08","17","04:00","15.7","","15.1","","96","","22","","8","","24.1","","97.59","","","","","","Mostly Cloudy"
"2016-08-17 05:00","2016","08","17","05:00","16.6","","16.1","","97","","21","","12","","32.2","","97.62","","","","","","NA"
"2016-08-17 06:00","2016","08","17","06:00","16.8","","16.2","","96","","19","","11","","32.2","","97.60","","","","","","NA"
"2016-08-17 07:00","2016","08","17","07:00","17.2","","16.2","","94","","20","","13","","32.2","","97.62","","","","","","Mostly Cloudy"
"2016-08-17 08:00","2016","08","17","08:00","18.9","","17.1","","89","","21","","17","","32.2","","97.61","","","","","","NA"
"2016-08-17 09:00","2016","08","17","09:00","20.5","","17.6","","83","","22","","19","","32.2","","97.61","","26","","","","NA"
"2016-08-17 10:00","2016","08","17","10:00","20.8","","17.5","","81","","23","","14","","32.2","","97.60","","26","","","","Mostly Cloudy"
"2016-08-17 11:00","2016","08","17","11:00","22.3","","17.9","","76","","22","","14","","24.1","","97.57","","28","","","","NA"
"2016-08-17 12:00","2016","08","17","12:00","22.2","","17.6","","75","","23","","14","","24.1","","97.53","","28","","","","NA"
"2016-08-17 13:00","2016","08","17","13:00","22.4","","17.8","","75","","23","","17","","24.1","","97.48","","28","","","","Cloudy"
"2016-08-17 14:00","2016","08","17","14:00","22.8","","18.6","","77","","21","","16","","24.1","","97.45","","29","","","","NA"
"2016-08-17 15:00","2016","08","17","15:00","23.4","","18.4","","73","","22","","17","","32.2","","97.39","","30","","","","NA"
"2016-08-17 16:00","2016","08","17","16:00","23.5","","18.7","","74","","21","","19","","32.2","","97.37","","30","","","","Mostly Cloudy"
"2016-08-17 17:00","2016","08","17","17:00","23.9","","18.6","","72","","21","","14","","32.2","","97.34","","30","","","","NA"
"2016-08-17 18:00","2016","08","17","18:00","23.2","","17.7","","71","","24","","12","","32.2","","97.32","","29","","","","NA"
"2016-08-17 19:00","2016","08","17","19:00","21.8","","18.3","","80","","22","","9","","32.2","","97.34","","28","","","","Mainly Clear"
"2016-08-17 20:00","2016","08","17","20:00","19.4","","17.7","","90","","22","","10","","32.2","","97.39","","","","","","NA"
"2016-08-17 21:00","2016","08","17","21:00","19.0","","17.7","","92","","22","","8","","24.1","","97.45","","","","","","NA"
"2016-08-17 22:00","2016","08","17","22:00","18.3","","17.7","","96","","21","","8","","24.1","","97.45","","","","","","Mainly Clear"
"2016-08-17 23:00","2016","08","17","23:00","17.7","","17.2","","97","","22","","10","","24.1","","97.44","","","","","","NA"
"2016-08-18 00:00","2016","08","18","00:00","17.6","","17.3","","98","","26","","5","","24.1","","97.48","","","","","","NA"
"2016-08-18 01:00","2016","08","18","01:00","17.3","","17.1","","99","","25","","4","","24.1","","97.49","","","","","","Mainly Clear"
"2016-08-18 02:00","2016","08","18","02:00","17.2","","17.0","","99","","28","","4","","1.6","","97.50","","","","","","Fog"
"2016-08-18 03:00","2016","08","18","03:00","16.0","","15.9","","99","","29","","6","","0.2","","97.50","","","","","","Fog"
"2016-08-18 04:00","2016","08","18","04:00","14.7","","14.6","","99","","32","","7","","1.6","","97.53","","","","","","Fog"
"2016-08-18 05:00","2016","08","18","05:00","15.8","","15.7","","99","","2","","10","","16.1","","97.57","","","","","","NA"
"2016-08-18 06:00","2016","08","18","06:00","16.0","","15.9","","99","","2","","9","","24.1","","97.60","","","","","","NA"
"2016-08-18 07:00","2016","08","18","07:00","18.0","","17.7","","98","","2","","7","","24.1","","97.65","","","","","","Clear"
"2016-08-18 08:00","2016","08","18","08:00","20.0","","18.0","","88","","8","","10","","24.1","","97.65","","26","","","","NA"
"2016-08-18 09:00","2016","08","18","09:00","21.1","","18.2","","83","","12","","8","","32.2","","97.66","","27","","","","NA"
"2016-08-18 10:00","2016","08","18","10:00","21.8","","17.5","","76","","17","","10","","32.2","","97.65","","27","","","","Mainly Clear"
"2016-08-18 11:00","2016","08","18","11:00","23.7","","16.4","","63","","19","","5","","32.2","","97.60","","29","","","","NA"
"2016-08-18 12:00","2016","08","18","12:00","24.1","","16.2","","61","","21","","8","","32.2","","97.53","","29","","","","NA"
"2016-08-18 13:00","2016","08","18","13:00","26.4","","17.1","","56","","22","","9","","32.2","","97.52","","32","","","","Mainly Clear"
"2016-08-18 14:00","2016","08","18","14:00","26.5","","15.7","","51","","24","","7","","32.2","","97.52","","31","","","","NA"
"2016-08-18 15:00","2016","08","18","15:00","27.8","","15.7","","47","","23","","16","","32.2","","97.46","","32","","","","NA"
"2016-08-18 16:00","2016","08","18","16:00","27.9","","15.4","","46","","20","","20","","32.2","","97.38","","32","","","","Mainly Clear"
"2016-08-18 17:00","2016","08","18","17:00","26.2","","16.0","","53","","22","","19","","32.2","","97.42","","31","","","","NA"
"2016-08-18 18:00","2016","08","18","18:00","25.4","","16.2","","56","","21","","21","","32.2","","97.37","","30","","","","NA"
"2016-08-18 19:00","2016","08","18","19:00","23.1","","15.8","","63","","20","","14","","32.2","","97.33","","28","","","","Mainly Clear"
"2016-08-18 20:00","2016","08","18","20:00","21.0","","15.6","","71","","20","","14","","24.1","","97.34","","25","","","","NA"
"2016-08-18 21:00","2016","08","18","21:00","19.7","","15.6","","77","","21","","13","","24.1","","97.38","","","","","","NA"
"2016-08-18 22:00","2016","08","18","22:00","18.8","","16.6","","87","","21","","13","","24.1","","97.38","","","","","","Clear"
"2016-08-18 23:00","2016","08","18","23:00","18.2","","17.1","","93","","22","","11","","24.1","","97.36","","","","","","NA"
"2016-08-19 00:00","2016","08","19","00:00","17.4","","16.9","","97","","23","","7","","24.1","","97.36","","","","","","NA"
"2016-08-19 01:00","2016","08","19","01:00","17.1","","16.8","","98","","22","","9","","24.1","","97.35","","","","","","Clear"
"2016-08-19 02:00","2016","08","19","02:00","17.3","","16.5","","95","","19","","9","","24.1","","97.33","","","","","","NA"
"2016-08-19 03:00","2016","08","19","03:00","16.9","","16.4","","97","","17","","12","","24.1","","97.33","","","","","","NA"
"2016-08-19 04:00","2016","08","19","04:00","17.5","","17.3","","99","","17","","15","","0.4","","97.28","","","","","","Fog"
"2016-08-19 05:00","2016","08","19","05:00","18.5","","18.3","","99","","19","","16","","0.2","","97.28","","","","","","Fog"
"2016-08-19 06:00","2016","08","19","06:00","18.7","","18.5","","99","","19","","13","","1.0","","97.30","","","","","","Fog"
"2016-08-19 07:00","2016","08","19","07:00","19.1","","18.9","","99","","17","","16","","1.2","","97.20","","","","","","Fog"
"2016-08-19 08:00","2016","08","19","08:00","20.8","","20.0","","95","","19","","17","","16.1","","97.19","","28","","","","NA"
"2016-08-19 09:00","2016","08","19","09:00","21.8","","19.6","","87","","22","","13","","24.1","","97.23","","29","","","","NA"
"2016-08-19 10:00","2016","08","19","10:00","25.0","","19.5","","71","","21","","21","","32.2","","97.22","","32","","","","Mostly Cloudy"
"2016-08-19 11:00","2016","08","19","11:00","25.6","","19.1","","67","","21","","23","","32.2","","97.15","","32","","","","NA"
"2016-08-19 12:00","2016","08","19","12:00","26.4","","18.7","","62","","21","","22","","32.2","","97.10","","33","","","","NA"
"2016-08-19 13:00","2016","08","19","13:00","27.3","","18.5","","58","","20","","24","","32.2","","97.07","","34","","","","Mostly Cloudy"
"2016-08-19 14:00","2016","08","19","14:00","27.1","","17.7","","56","","20","","25","","32.2","","97.02","","33","","","","NA"
"2016-08-19 15:00","2016","08","19","15:00","21.4","","20.1","","92","","24","","13","","24.1","","97.02","","29","","","","Thunderstorms,Rain Showers"
"2016-08-19 16:00","2016","08","19","16:00","23.2","","20.6","","85","","21","","26","","32.2","","97.00","","31","","","","Cloudy"
"2016-08-19 17:00","2016","08","19","17:00","23.2","","20.4","","84","","18","","18","","32.2","","96.96","","31","","","","NA"
"2016-08-19 18:00","2016","08","19","18:00","22.5","","20.6","","89","","17","","18","","24.1","","96.91","","31","","","","NA"
"2016-08-19 19:00","2016","08","19","19:00","22.5","","20.6","","89","","18","","19","","24.1","","96.95","","31","","","","Cloudy"
"2016-08-19 20:00","2016","08","19","20:00","21.7","","20.0","","90","","18","","16","","24.1","","96.93","","29","","","","NA"
"2016-08-19 21:00","2016","08","19","21:00","20.7","","19.7","","94","","18","","10","","24.1","","96.92","","28","","","","NA"
"2016-08-19 22:00","2016","08","19","22:00","20.8","","19.3","","91","","17","","10","","24.1","","96.85","","28","","","","Mostly Cloudy"
"2016-08-19 23:00","2016","08","19","23:00","20.4","","19.3","","93","","16","","12","","24.1","","96.82","","27","","","","NA"
"2016-08-20 00:00","2016","08","20","00:00","20.6","","19.1","","91","","19","","14","","24.1","","96.81","","27","","","","Rain Showers"
"2016-08-20 01:00","2016","08","20","01:00","19.9","","19.3","","96","","20","","14","","16.1","","96.81","","","","","","Cloudy"
"2016-08-20 02:00","2016","08","20","02:00","19.6","","19.3","","98","","19","","10","","4.8","","96.72","","","","","","Rain Showers,Fog"
"2016-08-20 03:00","2016","08","20","03:00","19.5","","19.0","","97","","17","","13","","2.4","","96.69","","","","","","Rain Showers,Fog"
"2016-08-20 04:00","2016","08","20","04:00","19.6","","19.4","","99","","20","","14","","3.2","","96.66","","","","","","Fog"
"2016-08-20 05:00","2016","08","20","05:00","19.6","","19.3","","98","","21","","14","","8.1","","96.67","","","","","","Fog"
"2016-08-20 06:00","2016","08","20","06:00","19.6","","19.1","","97","","22","","16","","19.3","","96.70","","","","","","NA"
"2016-08-20 07:00","2016","08","20","07:00","19.8","","19.0","","95","","23","","14","","19.3","","96.71","","","","","","Cloudy"
"2016-08-20 08:00","2016","08","20","08:00","20.5","","19.0","","91","","25","","13","","19.3","","96.69","","27","","","","NA"
"2016-08-20 09:00","2016","08","20","09:00","21.4","","18.4","","83","","25","","13","","24.1","","96.67","","28","","","","NA"
"2016-08-20 10:00","2016","08","20","10:00","23.0","","19.2","","79","","21","","16","","24.1","","96.65","","30","","","","Mostly Cloudy"
"2016-08-20 11:00","2016","08","20","11:00","23.3","","19.7","","80","","20","","20","","24.1","","96.63","","31","","","","NA"
"2016-08-20 12:00","2016","08","20","12:00","23.7","","19.5","","77","","23","","14","","32.2","","96.59","","31","","","","NA"
"2016-08-20 13:00","2016","08","20","13:00","26.5","","19.8","","66","","22","","19","","32.2","","96.52","","34","","","","Mostly Cloudy"
"2016-08-20 14:00","2016","08","20","14:00","25.9","","19.2","","66","","20","","24","","32.2","","96.49","","33","","","","NA"
"2016-08-20 15:00","2016","08","20","15:00","25.2","","19.7","","71","","19","","21","","32.2","","96.47","","33","","","","NA"
"2016-08-20 16:00","2016","08","20","16:00","23.9","","18.9","","73","","19","","25","","32.2","","96.44","","31","","","","Cloudy"
"2016-08-20 17:00","2016","08","20","17:00","23.4","","18.2","","72","","17","","17","","32.2","","96.40","","30","","","","NA"
"2016-08-20 18:00","2016","08","20","18:00","23.1","","18.5","","75","","14","","17","","32.2","","96.28","","29","","","","NA"
"2016-08-20 19:00","2016","08","20","19:00","21.6","","19.2","","86","","14","","16","","12.9","","96.19","","29","","","","Rain Showers"
"2016-08-20 20:00","2016","08","20","20:00","20.8","","19.7","","93","","15","","21","","24.1","","96.10","","28","","","","Rain Showers"
"2016-08-20 21:00","2016","08","20","21:00","20.2","","19.4","","95","","14","","19","","24.1","","95.97","","27","","","","Rain Showers"
"2016-08-20 22:00","2016","08","20","22:00","20.5","","19.5","","94","","16","","23","","24.1","","95.82","","28","","","","Rain Showers"
"2016-08-20 23:00","2016","08","20","23:00","20.8","","20.2","","96","","16","","26","","12.9","","95.69","","29","","","","Moderate Rain Showers"
"2016-08-21 00:00","2016","08","21","00:00","20.3","","19.3","","94","","20","","34","","24.1","","95.65","","27","","","","Thunderstorms,Rain Showers"
"2016-08-21 01:00","2016","08","21","01:00","20.4","","19.6","","95","","20","","30","","24.1","","95.62","","28","","","","Rain Showers"
"2016-08-21 02:00","2016","08","21","02:00","20.0","","18.9","","93","","22","","18","","24.1","","95.55","","27","","","","Rain Showers"
"2016-08-21 03:00","2016","08","21","03:00","19.9","","19.1","","95","","21","","19","","24.1","","95.56","","","","","","NA"
"2016-08-21 04:00","2016","08","21","04:00","19.4","","18.6","","95","","20","","17","","24.1","","95.55","","","","","","Cloudy"
"2016-08-21 05:00","2016","08","21","05:00","19.2","","18.6","","96","","19","","19","","24.1","","95.54","","","","","","NA"
"2016-08-21 06:00","2016","08","21","06:00","18.9","","17.8","","93","","21","","22","","32.2","","95.59","","","","","","Rain Showers"
"2016-08-21 07:00","2016","08","21","07:00","18.6","","17.1","","91","","22","","21","","32.2","","95.64","","","","","","Mostly Cloudy"
"2016-08-21 08:00","2016","08","21","08:00","18.5","","15.8","","84","","22","","30","","32.2","","95.67","","","","","","NA"
"2016-08-21 09:00","2016","08","21","09:00","19.3","","16.0","","81","","21","","36","","32.2","","95.69","","","","","","Rain Showers"
"2016-08-21 10:00","2016","08","21","10:00","18.5","","16.2","","86","","22","","32","","9.7","","95.75","","","","","","Rain Showers,Fog"
"2016-08-21 11:00","2016","08","21","11:00","20.2","","14.9","","71","","23","","26","","32.2","","95.76","","","","","","NA"
"2016-08-21 12:00","2016","08","21","12:00","19.8","","14.0","","69","","23","","25","","32.2","","95.86","","","","","","Rain Showers"
"2016-08-21 13:00","2016","08","21","13:00","15.7","","12.7","","82","","30","","31","","4.8","","96.09","","","","","","Rain Showers,Fog"
"2016-08-21 14:00","2016","08","21","14:00","14.5","","10.6","","77","","29","","25","","32.2","","96.29","","","","","","Rain Showers"
"2016-08-21 15:00","2016","08","21","15:00","14.4","","9.7","","73","","31","","31","","32.2","","96.45","","","","","","NA"
"2016-08-21 16:00","2016","08","21","16:00","13.5","","8.6","","72","","31","","36","","24.1","","96.61","","","","","","Rain Showers"
"2016-08-21 17:00","2016","08","21","17:00","13.9","","9.0","","72","","35","","23","","32.2","","96.80","","","","","","NA"
"2016-08-21 18:00","2016","08","21","18:00","11.7","","10.0","","89","","31","","21","","32.2","","96.96","","","","","","Rain Showers"
"2016-08-21 19:00","2016","08","21","19:00","11.8","","8.9","","82","","33","","10","","32.2","","97.04","","","","","","Mainly Clear"
"2016-08-21 20:00","2016","08","21","20:00","10.1","","8.1","","87","","34","","6","","32.2","","97.11","","","","","","NA"
"2016-08-21 21:00","2016","08","21","21:00","10.1","","8.1","","87","","29","","5","","24.1","","97.18","","","","","","NA"
"2016-08-21 22:00","2016","08","21","22:00","9.2","","8.5","","95","","24","","7","","24.1","","97.23","","","","","","Clear"
"2016-08-21 23:00","2016","08","21","23:00","9.1","","8.4","","95","","22","","8","","24.1","","97.28","","","","","","NA"
"2016-08-22 00:00","2016","08","22","00:00","8.6","","7.7","","94","","22","","8","","24.1","","97.32","","","","","","NA"
"2016-08-22 01:00","2016","08","22","01:00","8.5","","7.8","","95","","24","","7","","24.1","","97.35","","","","","","Mainly Clear"
"2016-08-22 02:00","2016","08","22","02:00","8.6","","8.0","","96","","26","","9","","24.1","","97.36","","","","","","NA"
"2016-08-22 03:00","2016","08","22","03:00","7.6","","7.0","","96","","28","","8","","24.1","","97.39","","","","","","NA"
"2016-08-22 04:00","2016","08","22","04:00","7.2","","6.9","","98","","28","","8","","24.1","","97.42","","","","","","Mainly Clear"
"2016-08-22 05:00","2016","08","22","05:00","7.8","","7.2","","96","","24","","8","","32.2","","97.48","","","","","","NA"
"2016-08-22 06:00","2016","08","22","06:00","9.1","","8.2","","94","","24","","8","","32.2","","97.54","","","","","","NA"
"2016-08-22 07:00","2016","08","22","07:00","9.8","","8.9","","94","","24","","9","","32.2","","97.61","","","","","","Mainly Clear"
"2016-08-22 08:00","2016","08","22","08:00","12.9","","10.1","","83","","25","","13","","32.2","","97.66","","","","","","NA"
"2016-08-22 09:00","2016","08","22","09:00","15.1","","11.0","","76","","29","","14","","32.2","","97.70","","","","","","NA"
"2016-08-22 10:00","2016","08","22","10:00","17.6","","11.3","","66","","25","","14","","32.2","","97.73","","","","","","Mostly Cloudy"
"2016-08-22 11:00","2016","08","22","11:00","18.6","","10.3","","58","","27","","13","","32.2","","97.75","","","","","","NA"
"2016-08-22 12:00","2016","08","22","12:00","19.1","","9.1","","52","","31","","18","","32.2","","97.75","","","","","","NA"
"2016-08-22 13:00","2016","08","22","13:00","20.5","","8.6","","46","","28","","17","","32.2","","97.74","","","","","","Mostly Cloudy"
"2016-08-22 14:00","2016","08","22","14:00","21.4","","10.4","","49","","27","","11","","32.2","","97.74","","","","","","NA"
"2016-08-22 15:00","2016","08","22","15:00","20.8","","9.8","","49","","24","","18","","32.2","","97.74","","","","","","NA"
"2016-08-22 16:00","2016","08","22","16:00","21.1","","10.1","","49","","24","","15","","32.2","","97.72","","","","","","Mostly Cloudy"
"2016-08-22 17:00","2016","08","22","17:00","20.9","","10.8","","52","","26","","16","","32.2","","97.72","","","","","","NA"
"2016-08-22 18:00","2016","08","22","18:00","19.5","","10.3","","55","","24","","18","","32.2","","97.73","","","","","","NA"
"2016-08-22 19:00","2016","08","22","19:00","17.5","","10.0","","61","","24","","12","","32.2","","97.75","","","","","","Mostly Cloudy"
"2016-08-22 20:00","2016","08","22","20:00","15.8","","10.2","","69","","22","","9","","24.1","","97.80","","","","","","NA"
"2016-08-22 21:00","2016","08","22","21:00","14.8","","9.9","","72","","22","","9","","24.1","","97.83","","","","","","NA"
"2016-08-22 22:00","2016","08","22","22:00","14.6","","9.7","","72","","22","","12","","24.1","","97.83","","","","","","Mainly Clear"
"2016-08-22 23:00","2016","08","22","23:00","13.6","","9.9","","78","","22","","11","","24.1","","97.88","","","","","","NA"
"2016-08-23 00:00","2016","08","23","00:00","14.2","","11.0","","81","","20","","12","","24.1","","97.87","","","","","","NA"
"2016-08-23 01:00","2016","08","23","01:00","13.3","","10.3","","82","","20","","13","","24.1","","97.89","","","","","","Mainly Clear"
"2016-08-23 02:00","2016","08","23","02:00","13.7","","10.7","","82","","20","","14","","24.1","","97.85","","","","","","NA"
"2016-08-23 03:00","2016","08","23","03:00","13.6","","11.5","","87","","20","","16","","24.1","","97.83","","","","","","NA"
"2016-08-23 04:00","2016","08","23","04:00","13.0","","11.9","","93","","21","","12","","24.1","","97.85","","","","","","Mainly Clear"
"2016-08-23 05:00","2016","08","23","05:00","13.3","","12.7","","96","","21","","12","","24.1","","97.84","","","","","","NA"
"2016-08-23 06:00","2016","08","23","06:00","14.2","","13.4","","95","","21","","13","","32.2","","97.84","","","","","","NA"
"2016-08-23 07:00","2016","08","23","07:00","15.4","","14.3","","93","","22","","12","","32.2","","97.81","","","","","","Mostly Cloudy"
"2016-08-23 08:00","2016","08","23","08:00","18.6","","14.9","","79","","23","","21","","32.2","","97.85","","","","","","NA"
"2016-08-23 09:00","2016","08","23","09:00","19.3","","15.4","","78","","23","","18","","32.2","","97.86","","","","","","NA"
"2016-08-23 10:00","2016","08","23","10:00","20.1","","16.0","","77","","25","","19","","32.2","","97.85","","25","","","","Cloudy"
"2016-08-23 11:00","2016","08","23","11:00","21.0","","16.1","","73","","23","","17","","32.2","","97.85","","26","","","","NA"
"2016-08-23 12:00","2016","08","23","12:00","22.1","","16.5","","70","","26","","17","","32.2","","97.84","","27","","","","NA"
"2016-08-23 13:00","2016","08","23","13:00","22.4","","16.3","","68","","25","","22","","32.2","","97.84","","27","","","","Mostly Cloudy"
"2016-08-23 14:00","2016","08","23","14:00","23.6","","16.0","","62","","25","","22","","32.2","","97.83","","28","","","","NA"
"2016-08-23 15:00","2016","08","23","15:00","24.9","","16.7","","60","","25","","26","","32.2","","97.78","","30","","","","NA"
"2016-08-23 16:00","2016","08","23","16:00","23.9","","17.0","","65","","24","","20","","32.2","","97.78","","29","","","","Mostly Cloudy"
"2016-08-23 17:00","2016","08","23","17:00","23.9","","16.6","","63","","23","","23","","32.2","","97.78","","29","","","","NA"
"2016-08-23 18:00","2016","08","23","18:00","23.6","","17.5","","68","","22","","21","","32.2","","97.77","","29","","","","NA"
"2016-08-23 19:00","2016","08","23","19:00","21.9","","16.9","","73","","22","","18","","32.2","","97.82","","27","","","","Mostly Cloudy"
"2016-08-23 20:00","2016","08","23","20:00","20.1","","17.4","","84","","20","","17","","24.1","","97.86","","26","","","","NA"
"2016-08-23 21:00","2016","08","23","21:00","19.0","","17.2","","89","","21","","15","","24.1","","97.89","","","","","","NA"
"2016-08-23 22:00","2016","08","23","22:00","18.3","","16.5","","89","","20","","15","","24.1","","97.89","","","","","","Mainly Clear"
"2016-08-23 23:00","2016","08","23","23:00","17.7","","16.2","","91","","21","","14","","24.1","","97.83","","","","","","NA"
"2016-08-24 00:00","2016","08","24","00:00","17.4","","16.8","","96","","19","","12","","24.1","","97.78","","","","","","NA"
"2016-08-24 01:00","2016","08","24","01:00","17.0","","16.5","","97","","19","","12","","24.1","","97.74","","","","","","Clear"
"2016-08-24 02:00","2016","08","24","02:00","16.6","","16.3","","98","","19","","9","","24.1","","97.77","","","","","","NA"
"2016-08-24 03:00","2016","08","24","03:00","16.0","","15.9","","99","","17","","9","","3.2","","97.78","","","","","","Fog"
"2016-08-24 04:00","2016","08","24","04:00","15.5","","15.4","","99","","17","","9","","0.8","","97.78","","","","","","Fog"
"2016-08-24 05:00","2016","08","24","05:00","16.1","","15.8","","98","","21","","10","","19.3","","97.80","","","","","","NA"
"2016-08-24 06:00","2016","08","24","06:00","15.8","","15.7","","99","","20","","13","","16.1","","97.83","","","","","","NA"
"2016-08-24 07:00","2016","08","24","07:00","16.4","","16.2","","99","","19","","10","","16.1","","97.83","","","","","","Mostly Cloudy"
"2016-08-24 08:00","2016","08","24","08:00","19.2","","17.6","","90","","19","","18","","24.1","","97.77","","","","","","NA"
"2016-08-24 09:00","2016","08","24","09:00","21.0","","18.1","","83","","21","","22","","32.2","","97.70","","27","","","","NA"
"2016-08-24 10:00","2016","08","24","10:00","22.8","","18.0","","74","","19","","23","","32.2","","97.62","","29","","","","Mostly Cloudy"
"2016-08-24 11:00","2016","08","24","11:00","22.7","","16.6","","68","","20","","23","","32.2","","97.56","","28","","","","NA"
"2016-08-24 12:00","2016","08","24","12:00","22.5","","17.1","","71","","19","","26","","32.2","","97.55","","28","","","","NA"
"2016-08-24 13:00","2016","08","24","13:00","22.1","","16.5","","70","","20","","31","","32.2","","97.48","","27","","","","Cloudy"
"2016-08-24 14:00","2016","08","24","14:00","21.1","","17.2","","78","","20","","23","","4.8","","97.43","","27","","","","Rain Showers,Fog"
"2016-08-24 15:00","2016","08","24","15:00","18.3","","17.0","","92","","20","","13","","16.1","","97.37","","","","","","Rain Showers"
"2016-08-24 16:00","2016","08","24","16:00","18.1","","17.5","","96","","15","","10","","4.8","","97.30","","","","","","Rain Showers,Fog"
"2016-08-24 17:00","2016","08","24","17:00","18.8","","18.0","","95","","17","","23","","4.8","","97.19","","","","","","Rain Showers,Fog"
"2016-08-24 18:00","2016","08","24","18:00","18.7","","17.9","","95","","17","","23","","12.9","","97.13","","","","","","NA"
"2016-08-24 19:00","2016","08","24","19:00","18.8","","18.2","","96","","18","","19","","16.1","","97.09","","","","","","Rain Showers"
"2016-08-24 20:00","2016","08","24","20:00","19.1","","18.5","","96","","19","","18","","12.9","","97.07","","","","","","Rain Showers"
"2016-08-24 21:00","2016","08","24","21:00","19.5","","19.0","","97","","21","","16","","12.9","","97.06","","","","","","Rain Showers"
"2016-08-24 22:00","2016","08","24","22:00","19.6","","19.3","","98","","20","","12","","12.9","","97.02","","","","","","Rain Showers"
"2016-08-24 23:00","2016","08","24","23:00","19.6","","19.3","","98","","20","","10","","9.7","","96.95","","","","","","Rain Showers,Fog"
"2016-08-25 00:00","2016","08","25","00:00","19.8","","19.5","","98","","22","","13","","9.7","","96.94","","","","","","Rain Showers,Fog"
"2016-08-25 01:00","2016","08","25","01:00","19.8","","19.5","","98","","23","","10","","16.1","","96.91","","","","","","Cloudy"
"2016-08-25 02:00","2016","08","25","02:00","19.9","","19.6","","98","","22","","13","","16.1","","96.89","","","","","","NA"
"2016-08-25 03:00","2016","08","25","03:00","19.9","","19.6","","98","","22","","13","","12.9","","96.89","","","","","","NA"
"2016-08-25 04:00","2016","08","25","04:00","19.7","","19.4","","98","","23","","8","","12.9","","96.90","","","","","","Mostly Cloudy"
"2016-08-25 05:00","2016","08","25","05:00","19.5","","19.2","","98","","23","","10","","24.1","","96.97","","","","","","NA"
"2016-08-25 06:00","2016","08","25","06:00","18.7","","17.9","","95","","26","","11","","24.1","","97.02","","","","","","NA"
"2016-08-25 07:00","2016","08","25","07:00","18.8","","17.8","","94","","25","","9","","24.1","","97.06","","","","","","Mostly Cloudy"
"2016-08-25 08:00","2016","08","25","08:00","19.4","","17.9","","91","","28","","12","","32.2","","97.09","","","","","","NA"
"2016-08-25 09:00","2016","08","25","09:00","20.4","","18.0","","86","","27","","12","","32.2","","97.12","","26","","","","NA"
"2016-08-25 10:00","2016","08","25","10:00","19.6","","17.1","","85","","27","","12","","32.2","","97.14","","","","","","Cloudy"
"2016-08-25 11:00","2016","08","25","11:00","20.8","","17.7","","82","","22","","5","","32.2","","97.14","","27","","","","NA"
"2016-08-25 12:00","2016","08","25","12:00","22.5","","18.1","","76","","27","","13","","32.2","","97.14","","29","","","","NA"
"2016-08-25 13:00","2016","08","25","13:00","23.9","","19.3","","75","","23","","16","","24.1","","97.12","","31","","","","Mostly Cloudy"
"2016-08-25 14:00","2016","08","25","14:00","24.3","","18.4","","69","","25","","15","","32.2","","97.08","","31","","","","NA"
"2016-08-25 15:00","2016","08","25","15:00","26.2","","19.2","","65","","23","","17","","32.2","","97.05","","33","","","","NA"
"2016-08-25 16:00","2016","08","25","16:00","26.1","","17.6","","59","","24","","17","","32.2","","97.02","","32","","","","Mostly Cloudy"
"2016-08-25 17:00","2016","08","25","17:00","25.4","","18.2","","64","","22","","17","","32.2","","97.04","","32","","","","NA"
"2016-08-25 18:00","2016","08","25","18:00","23.5","","17.6","","69","","23","","14","","32.2","","97.04","","29","","","","NA"
"2016-08-25 19:00","2016","08","25","19:00","21.9","","17.8","","77","","22","","14","","32.2","","97.05","","28","","","","Mainly Clear"
"2016-08-25 20:00","2016","08","25","20:00","20.1","","17.2","","83","","22","","14","","24.1","","97.10","","26","","","","NA"
"2016-08-25 21:00","2016","08","25","21:00","19.7","","17.3","","86","","25","","14","","24.1","","97.15","","","","","","NA"
"2016-08-25 22:00","2016","08","25","22:00","19.0","","14.7","","76","","28","","14","","24.1","","97.18","","","","","","Clear"
"2016-08-25 23:00","2016","08","25","23:00","17.0","","14.1","","83","","28","","11","","24.1","","97.20","","","","","","NA"
"2016-08-26 00:00","2016","08","26","00:00","15.8","","14.0","","89","","23","","4","","24.1","","97.25","","","","","","NA"
"2016-08-26 01:00","2016","08","26","01:00","14.9","","13.6","","92","","28","","7","","24.1","","97.30","","","","","","Clear"
"2016-08-26 02:00","2016","08","26","02:00","15.1","","13.3","","89","","28","","5","","24.1","","97.31","","","","","","NA"
"2016-08-26 03:00","2016","08","26","03:00","14.9","","13.3","","90","","28","","8","","24.1","","97.32","","","","","","NA"
"2016-08-26 04:00","2016","08","26","04:00","14.9","","13.0","","88","","24","","7","","22.5","","97.34","","","","","","Mainly Clear"
"2016-08-26 05:00","2016","08","26","05:00","14.7","","13.3","","91","","22","","4","","32.2","","97.39","","","","","","NA"
"2016-08-26 06:00","2016","08","26","06:00","13.9","","12.5","","91","","23","","5","","32.2","","97.46","","","","","","NA"
"2016-08-26 07:00","2016","08","26","07:00","15.4","","13.5","","88","","22","","7","","32.2","","97.47","","","","","","Mainly Clear"
"2016-08-26 08:00","2016","08","26","08:00","17.0","","13.6","","80","","30","","12","","32.2","","97.51","","","","","","NA"
"2016-08-26 09:00","2016","08","26","09:00","19.7","","14.4","","71","","30","","13","","32.2","","97.57","","","","","","NA"
"2016-08-26 10:00","2016","08","26","10:00","21.1","","14.1","","64","","31","","16","","32.2","","97.62","","25","","","","Mainly Clear"
"2016-08-26 11:00","2016","08","26","11:00","21.6","","13.4","","59","","28","","8","","32.2","","97.67","","25","","","","NA"
"2016-08-26 12:00","2016","08","26","12:00","23.1","","13.4","","54","","25","","14","","32.2","","97.63","","26","","","","NA"
"2016-08-26 13:00","2016","08","26","13:00","22.9","","13.3","","54","","31","","10","","32.2","","97.65","","26","","","","Mostly Cloudy"
"2016-08-26 14:00","2016","08","26","14:00","22.6","","13.5","","56","","28","","12","","32.2","","97.65","","26","","","","NA"
"2016-08-26 15:00","2016","08","26","15:00","23.7","","13.4","","52","","33","","16","","32.2","","97.68","","27","","","","NA"
"2016-08-26 16:00","2016","08","26","16:00","23.2","","13.8","","55","","32","","16","","32.2","","97.70","","26","","","","Mostly Cloudy"
"2016-08-26 17:00","2016","08","26","17:00","22.8","","13.7","","56","","1","","9","","32.2","","97.73","","26","","","","NA"
"2016-08-26 18:00","2016","08","26","18:00","20.9","","14.6","","67","","3","","9","","32.2","","97.75","","25","","","","NA"
"2016-08-26 19:00","2016","08","26","19:00","19.2","","15.1","","77","","2","","9","","32.2","","97.79","","","","","","Mostly Cloudy"
"2016-08-26 20:00","2016","08","26","20:00","19.0","","14.9","","77","","3","","9","","24.1","","97.86","","","","","","NA"
"2016-08-26 21:00","2016","08","26","21:00","17.9","","15.2","","84","","1","","8","","24.1","","97.90","","","","","","NA"
"2016-08-26 22:00","2016","08","26","22:00","17.3","","14.4","","83","","3","","8","","24.1","","97.95","","","","","","Mainly Clear"
"2016-08-26 23:00","2016","08","26","23:00","16.9","","14.2","","84","","6","","7","","24.1","","97.99","","","","","","NA"
"2016-08-27 00:00","2016","08","27","00:00","16.3","","13.8","","85","","8","","9","","24.1","","98.04","","","","","","NA"
"2016-08-27 01:00","2016","08","27","01:00","15.4","","13.8","","90","","7","","10","","24.1","","98.07","","","","","","Mostly Cloudy"
"2016-08-27 02:00","2016","08","27","02:00","14.9","","13.5","","91","","6","","12","","24.1","","98.06","","","","","","NA"
"2016-08-27 03:00","2016","08","27","03:00","14.9","","13.6","","92","","6","","11","","24.1","","98.07","","","","","","NA"
"2016-08-27 04:00","2016","08","27","04:00","14.7","","13.4","","92","","6","","12","","24.1","","98.08","","","","","","Mostly Cloudy"
"2016-08-27 05:00","2016","08","27","05:00","14.3","","13.4","","94","","6","","9","","24.1","","98.13","","","","","","NA"
"2016-08-27 06:00","2016","08","27","06:00","14.3","","13.4","","94","","7","","12","","32.2","","98.15","","","","","","NA"
"2016-08-27 07:00","2016","08","27","07:00","16.2","","14.2","","88","","8","","10","","32.2","","98.16","","","","","","Mostly Cloudy"
"2016-08-27 08:00","2016","08","27","08:00","17.7","","14.8","","83","","11","","16","","32.2","","98.18","","","","","","NA"
"2016-08-27 09:00","2016","08","27","09:00","18.4","","15.3","","82","","15","","8","","32.2","","98.21","","","","","","NA"
"2016-08-27 10:00","2016","08","27","10:00","20.1","","16.0","","77","","16","","7","","32.2","","98.21","","25","","","","Mostly Cloudy"
"2016-08-27 11:00","2016","08","27","11:00","20.9","","15.3","","70","","19","","7","","32.2","","98.18","","25","","","","NA"
"2016-08-27 12:00","2016","08","27","12:00","21.7","","15.4","","67","","23","","7","","32.2","","98.15","","26","","","","NA"
"2016-08-27 13:00","2016","08","27","13:00","21.8","","14.1","","61","","19","","4","","32.2","","98.11","","25","","","","Cloudy"
"2016-08-27 14:00","2016","08","27","14:00","21.3","","15.0","","67","","23","","5","","32.2","","98.10","","25","","","","Rain Showers"
"2016-08-27 15:00","2016","08","27","15:00","21.2","","16.0","","72","","18","","7","","32.2","","98.08","","26","","","","Rain Showers"
"2016-08-27 16:00","2016","08","27","16:00","20.2","","17.1","","82","","17","","11","","24.1","","98.06","","26","","","","Rain Showers"
"2016-08-27 17:00","2016","08","27","17:00","18.4","","16.4","","88","","17","","16","","32.2","","98.04","","","","","","Rain"
"2016-08-27 18:00","2016","08","27","18:00","18.1","","17.3","","95","","17","","16","","32.2","","98.02","","","","","","NA"
"2016-08-27 19:00","2016","08","27","19:00","17.4","","16.6","","95","","16","","12","","24.1","","98.05","","","","","","Rain"
"2016-08-27 20:00","2016","08","27","20:00","17.4","","16.8","","96","","17","","7","","24.1","","98.07","","","","","","Rain"
"2016-08-27 21:00","2016","08","27","21:00","17.0","","16.5","","97","","9","","9","","8.1","","98.02","","","","","","Drizzle,Fog"
"2016-08-27 22:00","2016","08","27","22:00","16.7","","16.2","","97","","12","","13","","24.1","","97.95","","","","","","Cloudy"
"2016-08-27 23:00","2016","08","27","23:00","16.8","","16.0","","95","","11","","11","","24.1","","97.92","","","","","","NA"
"2016-08-28 00:00","2016","08","28","00:00","16.6","","16.0","","96","","13","","14","","12.9","","97.89","","","","","","Rain"
"2016-08-28 01:00","2016","08","28","01:00","16.5","","16.0","","97","","10","","12","","24.1","","97.78","","","","","","Rain"
"2016-08-28 02:00","2016","08","28","02:00","16.6","","16.0","","96","","12","","14","","24.1","","97.72","","","","","","NA"
"2016-08-28 03:00","2016","08","28","03:00","17.0","","16.4","","96","","14","","17","","24.1","","97.70","","","","","","NA"
"2016-08-28 04:00","2016","08","28","04:00","17.0","","16.4","","96","","15","","17","","24.1","","97.67","","","","","","Cloudy"
"2016-08-28 05:00","2016","08","28","05:00","17.6","","17.1","","97","","19","","14","","16.1","","97.65","","","","","","NA"
"2016-08-28 06:00","2016","08","28","06:00","18.0","","17.7","","98","","18","","17","","1.6","","97.66","","","","","","Fog"
"2016-08-28 07:00","2016","08","28","07:00","18.5","","18.3","","99","","20","","14","","1.6","","97.66","","","","","","Fog"
"2016-08-28 08:00","2016","08","28","08:00","19.2","","19.0","","99","","24","","11","","1.6","","97.67","","","","","","Drizzle"
"2016-08-28 09:00","2016","08","28","09:00","19.7","","19.1","","96","","28","","15","","24.1","","97.68","","","","","","NA"
"2016-08-28 10:00","2016","08","28","10:00","20.7","","19.2","","91","","27","","16","","32.2","","97.73","","28","","","","Mostly Cloudy"
"2016-08-28 11:00","2016","08","28","11:00","22.0","","18.5","","80","","26","","17","","32.2","","97.74","","28","","","","NA"
"2016-08-28 12:00","2016","08","28","12:00","24.2","","17.6","","66","","27","","26","","32.2","","97.75","","30","","","","NA"
"2016-08-28 13:00","2016","08","28","13:00","22.9","","18.3","","75","","29","","22","","32.2","","97.79","","29","","","","Mostly Cloudy"
"2016-08-28 14:00","2016","08","28","14:00","23.1","","16.5","","66","","30","","22","","32.2","","97.82","","28","","","","NA"
"2016-08-28 15:00","2016","08","28","15:00","24.7","","16.0","","58","","32","","17","","32.2","","97.81","","29","","","","NA"
"2016-08-28 16:00","2016","08","28","16:00","23.8","","15.2","","58","","30","","17","","32.2","","97.81","","28","","","","Mainly Clear"
"2016-08-28 17:00","2016","08","28","17:00","23.4","","14.5","","57","","32","","13","","32.2","","97.83","","27","","","","NA"
"2016-08-28 18:00","2016","08","28","18:00","22.8","","15.0","","61","","33","","11","","32.2","","97.86","","27","","","","NA"
"2016-08-28 19:00","2016","08","28","19:00","20.4","","15.3","","72","","36","","8","","32.2","","97.92","","25","","","","Mostly Cloudy"
"2016-08-28 20:00","2016","08","28","20:00","19.3","","15.6","","79","","31","","7","","24.1","","97.99","","","","","","NA"
"2016-08-28 21:00","2016","08","28","21:00","18.4","","15.1","","81","","35","","13","","24.1","","98.05","","","","","","NA"
"2016-08-28 22:00","2016","08","28","22:00","17.5","","15.0","","85","","34","","9","","24.1","","98.11","","","","","","Mostly Cloudy"
"2016-08-28 23:00","2016","08","28","23:00","16.6","","14.6","","88","","35","","3","","24.1","","98.16","","","","","","NA"
"2016-08-29 00:00","2016","08","29","00:00","14.9","","14.1","","95","","34","","7","","24.1","","98.19","","","","","","NA"
"2016-08-29 01:00","2016","08","29","01:00","14.3","","13.5","","95","","33","","7","","24.1","","98.20","","","","","","Mainly Clear"
"2016-08-29 02:00","2016","08","29","02:00","14.0","","13.4","","96","","35","","8","","24.1","","98.26","","","","","","NA"
"2016-08-29 03:00","2016","08","29","03:00","13.4","","12.9","","97","","35","","10","","24.1","","98.28","","","","","","NA"
"2016-08-29 04:00","2016","08","29","04:00","12.7","","12.2","","97","","35","","8","","24.1","","98.34","","","","","","Clear"
"2016-08-29 05:00","2016","08","29","05:00","12.8","","12.3","","97","","1","","10","","24.1","","98.36","","","","","","NA"
"2016-08-29 06:00","2016","08","29","06:00","12.9","","12.4","","97","","36","","10","","32.2","","98.41","","","","","","NA"
"2016-08-29 07:00","2016","08","29","07:00","14.2","","13.3","","94","","36","","9","","32.2","","98.43","","","","","","Mainly Clear"
"2016-08-29 08:00","2016","08","29","08:00","16.3","","14.0","","86","","2","","12","","32.2","","98.47","","","","","","NA"
"2016-08-29 09:00","2016","08","29","09:00","17.9","","13.5","","75","","3","","8","","32.2","","98.51","","","","","","NA"
"2016-08-29 10:00","2016","08","29","10:00","18.9","","13.2","","69","","36","","1","","32.2","","98.53","","","","","","Mostly Cloudy"
"2016-08-29 11:00","2016","08","29","11:00","20.4","","12.7","","61","","5","","6","","32.2","","98.52","","","","","","NA"
"2016-08-29 12:00","2016","08","29","12:00","21.1","","12.9","","59","","4","","10","","32.2","","98.48","","","","","","NA"
"2016-08-29 13:00","2016","08","29","13:00","22.1","","11.6","","51","","35","","7","","32.2","","98.44","","","","","","Mainly Clear"
"2016-08-29 14:00","2016","08","29","14:00","22.8","","11.7","","49","","31","","7","","32.2","","98.39","","25","","","","NA"
"2016-08-29 15:00","2016","08","29","15:00","23.1","","11.3","","47","","26","","8","","32.2","","98.28","","25","","","","NA"
"2016-08-29 16:00","2016","08","29","16:00","23.3","","12.2","","49","","10","","8","","32.2","","98.21","","26","","","","Mainly Clear"
"2016-08-29 17:00","2016","08","29","17:00","22.7","","11.3","","48","","21","","10","","32.2","","98.18","","25","","","","NA"
"2016-08-29 18:00","2016","08","29","18:00","21.2","","13.0","","59","","23","","4","","32.2","","98.18","","","","","","NA"
"2016-08-29 19:00","2016","08","29","19:00","20.0","","13.6","","66","","20","","7","","32.2","","98.11","","","","","","Mostly Cloudy"
"2016-08-29 20:00","2016","08","29","20:00","17.9","","14.3","","79","","22","","8","","24.1","","98.15","","","","","","NA"
"2016-08-29 21:00","2016","08","29","21:00","16.7","","13.7","","82","","22","","9","","24.1","","98.13","","","","","","NA"
"2016-08-29 22:00","2016","08","29","22:00","17.2","","13.8","","80","","24","","8","","24.1","","98.08","","","","","","Mostly Cloudy"
"2016-08-29 23:00","2016","08","29","23:00","16.8","","13.4","","80","","21","","8","","24.1","","98.02","","","","","","NA"
"2016-08-30 00:00","2016","08","30","00:00","17.0","","13.8","","81","","23","","7","","24.1","","98.00","","","","","","NA"
"2016-08-30 01:00","2016","08","30","01:00","16.8","","13.9","","83","","22","","10","","24.1","","97.97","","","","","","Cloudy"
"2016-08-30 02:00","2016","08","30","02:00","17.0","","14.0","","82","","21","","9","","24.1","","97.93","","","","","","NA"
"2016-08-30 03:00","2016","08","30","03:00","16.2","","13.5","","84","","21","","11","","24.1","","97.92","","","","","","NA"
"2016-08-30 04:00","2016","08","30","04:00","15.8","","13.7","","87","","21","","9","","24.1","","97.86","","","","","","Cloudy"
"2016-08-30 05:00","2016","08","30","05:00","15.9","","14.3","","90","","20","","11","","16.1","","97.82","","","","","","Rain Showers"
"2016-08-30 06:00","2016","08","30","06:00","16.4","","15.6","","95","","","","","M","32.2","","97.74","","","","","","Thunderstorms,Rain Showers"
"2016-08-30 07:00","2016","08","30","07:00","16.4","","15.9","","97","","1","","17","","24.1","","97.83","","","","","","Thunderstorms,Rain Showers"
"2016-08-30 08:00","2016","08","30","08:00","18.2","","17.7","","97","","21","","13","","32.2","","97.69","","","","","","NA"
"2016-08-30 09:00","2016","08","30","09:00","18.8","","17.7","","93","","21","","8","","24.1","","97.66","","","","","","NA"
"2016-08-30 10:00","2016","08","30","10:00","19.5","","18.5","","94","","21","","13","","4.8","","97.65","","","","","","Drizzle,Fog"
"2016-08-30 11:00","2016","08","30","11:00","20.2","","18.9","","92","","23","","13","","4.8","","97.58","","27","","","","Fog"
"2016-08-30 12:00","2016","08","30","12:00","20.8","","19.1","","90","","25","","11","","24.1","","97.55","","28","","","","NA"
"2016-08-30 13:00","2016","08","30","13:00","22.5","","19.5","","83","","26","","15","","24.1","","97.47","","30","","","","Mostly Cloudy"
"2016-08-30 14:00","2016","08","30","14:00","24.3","","19.5","","74","","26","","10","","32.2","","97.43","","31","","","","NA"
"2016-08-30 15:00","2016","08","30","15:00","23.8","","19.6","","77","","28","","13","","32.2","","97.37","","31","","","","Thunderstorms,Rain Showers"
"2016-08-30 16:00","2016","08","30","16:00","20.6","","18.9","","90","","17","","10","","32.2","","97.33","","27","","","","Thunderstorms,Rain Showers"
"2016-08-30 17:00","2016","08","30","17:00","22.1","","19.9","","87","","26","","8","","24.1","","97.36","","30","","","","Thunderstorms"
"2016-08-30 18:00","2016","08","30","18:00","21.8","","19.4","","86","","21","","12","","24.1","","97.28","","29","","","","NA"
"2016-08-30 19:00","2016","08","30","19:00","20.3","","17.7","","85","","25","","10","","32.2","","97.29","","26","","","","Mostly Cloudy"
"2016-08-30 20:00","2016","08","30","20:00","18.6","","17.5","","93","","30","","8","","24.1","","97.29","","","","","","NA"
"2016-08-30 21:00","2016","08","30","21:00","17.7","","17.1","","96","","31","","12","","24.1","","97.32","","","","","","NA"
"2016-08-30 22:00","2016","08","30","22:00","18.1","","17.6","","97","","28","","10","","24.1","","97.31","","","","","","Mainly Clear"
"2016-08-30 23:00","2016","08","30","23:00","17.1","","16.9","","99","","33","","11","","16.1","","97.30","","","","","","NA"
"2016-08-31 00:00","2016","08","31","00:00","16.3","","16.1","","99","","33","","11","","19.3","","97.32","","","","","","NA"
"2016-08-31 01:00","2016","08","31","01:00","16.9","","14.9","","88","","35","","14","","24.1","","97.34","","","","","","Mainly Clear"
"2016-08-31 02:00","2016","08","31","02:00","16.7","","13.8","","83","","2","","19","","24.1","","97.34","","","","","","NA"
"2016-08-31 03:00","2016","08","31","03:00","15.4","","13.5","","88","","35","","14","","24.1","","97.37","","","","","","NA"
"2016-08-31 04:00","2016","08","31","04:00","15.2","","12.9","","86","","36","","15","","24.1","","97.38","","","","","","Mainly Clear"
"2016-08-31 05:00","2016","08","31","05:00","14.2","","12.1","","87","","35","","16","","24.1","","97.39","","","","","","NA"
"2016-08-31 06:00","2016","08","31","06:00","13.7","","12.1","","90","","34","","14","","24.1","","97.43","","","","","","NA"
"2016-08-31 07:00","2016","08","31","07:00","15.0","","12.0","","82","","36","","12","","32.2","","97.46","","","","","","Mainly Clear"
"2016-08-31 08:00","2016","08","31","08:00","16.3","","12.3","","77","","35","","17","","32.2","","97.46","","","","","","NA"
"2016-08-31 09:00","2016","08","31","09:00","17.9","","11.8","","67","","36","","16","","32.2","","97.46","","","","","","NA"
"2016-08-31 10:00","2016","08","31","10:00","19.1","","11.7","","62","","35","","15","","32.2","","97.47","","","","","","Mainly Clear"
"2016-08-31 11:00","2016","08","31","11:00","20.2","","11.3","","56","","35","","18","","32.2","","97.45","","","","","","NA"
"2016-08-31 12:00","2016","08","31","12:00","19.8","","11.9","","60","","35","","12","","32.2","","97.44","","","","","","NA"
"2016-08-31 13:00","2016","08","31","13:00","19.7","","11.1","","57","","33","","25","","32.2","","97.43","","","","","","Mostly Cloudy"
"2016-08-31 14:00","2016","08","31","14:00","20.9","","10.5","","51","","33","","24","","32.2","","97.41","","","","","","NA"
"2016-08-31 15:00","2016","08","31","15:00","19.6","","11.0","","57","","32","","19","","32.2","","97.40","","","","","","NA"
"2016-08-31 16:00","2016","08","31","16:00","19.5","","11.6","","60","","30","","17","","32.2","","97.38","","","","","","Mostly Cloudy"
"2016-08-31 17:00","2016","08","31","17:00","19.4","","10.2","","55","","32","","17","","32.2","","97.39","","","","","","NA"
"2016-08-31 18:00","2016","08","31","18:00","19.1","","11.5","","61","","1","","16","","32.2","","97.43","","","","","","NA"
"2016-08-31 19:00","2016","08","31","19:00","16.9","","11.9","","72","","34","","15","","32.2","","97.46","","","","","","Mostly Cloudy"
"2016-08-31 20:00","2016","08","31","20:00","15.9","","11.1","","73","","34","","16","","24.1","","97.52","","","","","","NA"
"2016-08-31 21:00","2016","08","31","21:00","15.5","","11.7","","78","","35","","10","","24.1","","97.55","","","","","","NA"
"2016-08-31 22:00","2016","08","31","22:00","13.6","","11.2","","85","","34","","14","","24.1","","97.54","","","","","","Mainly Clear"
"2016-08-31 23:00","2016","08","31","23:00","13.1","","11.2","","88","","35","","11","","24.1","","97.57","","","","","","NA"
