"Station Name","SUDBURY A"
"Province","ONTARIO"
"Current Station Operator","NAV Canada"
"Latitude","46.63"
"Longitude","-80.80"
"Elevation","348.40"
"Climate Identifier","6068153"
"WMO Identifier","71730"
"TC Identifier","YSB"
"All times are specified in Local Standard Time (LST). Add 1 hour to adjust for Daylight Saving Time where and when it is observed."

"Legend"
"E","Estimated"
"M","Missing"
"NA","Not Available"

"Date/Time","Year","Month","Day","Time","Temp (°C)","Temp Flag","Dew Point Temp (°C)","Dew Point Temp Flag","Rel Hum (%)","Rel Hum Flag","Wind Dir (10s deg)","Wind Dir Flag","Wind Spd (km/h)","Wind Spd Flag","Visibility (km)","Visibility Flag","Stn Press (kPa)","Stn Press Flag","Hmdx","Hmdx Flag","Wind Chill","Wind Chill Flag","Weather"
"2018-11-01 00:00","2018","11","01","00:00","1.8","","-0.6","","84","","24","","9","","24.1","","96.96","","","","","","NA"
"2018-11-01 01:00","2018","11","01","01:00","2.4","","-1.0","","78","","27","","9","","24.1","","96.96","","","","","","Mostly Cloudy"
"2018-11-01 02:00","2018","11","01","02:00","1.8","","-0.8","","83","","23","","8","","24.1","","96.98","","","","","","NA"
"2018-11-01 03:00","2018","11","01","03:00","1.3","","-0.9","","85","","23","","3","","24.1","","96.97","","","","","","NA"
"2018-11-01 04:00","2018","11","01","04:00","0.6","","-0.9","","90","","27","","5","","24.1","","96.99","","","","","","Mainly Clear"
"2018-11-01 05:00","2018","11","01","05:00","0.7","","-0.7","","90","","23","","8","","24.1","","97.02","","","","","","NA"
"2018-11-01 06:00","2018","11","01","06:00","-0.2","","-0.9","","94","","24","","5","","24.1","","97.06","","","","-2","","NA"
"2018-11-01 07:00","2018","11","01","07:00","0.1","","-1.0","","92","","27","","9","","32.2","","97.06","","","","","","Mostly Cloudy"
"2018-11-01 08:00","2018","11","01","08:00","-0.1","","-0.9","","94","","24","","6","","32.2","","97.13","","","","-2","","NA"
"2018-11-01 09:00","2018","11","01","09:00","1.3","","-0.4","","88","","26","","7","","32.2","","97.13","","","","","","NA"
"2018-11-01 10:00","2018","11","01","10:00","2.0","","0.1","","87","","29","","10","","32.2","","97.08","","","","","","Mostly Cloudy"
"2018-11-01 11:00","2018","11","01","11:00","3.6","","0.8","","82","","31","","13","","32.2","","97.10","","","","","","NA"
"2018-11-01 12:00","2018","11","01","12:00","5.4","","-2.0","","59","","30","","13","","32.2","","97.00","","","","","","NA"
"2018-11-01 13:00","2018","11","01","13:00","5.3","","-2.5","","57","","30","","12","","32.2","","96.99","","","","","","Cloudy"
"2018-11-01 14:00","2018","11","01","14:00","5.1","","-3.1","","55","","32","","9","","32.2","","97.00","","","","","","NA"
"2018-11-01 15:00","2018","11","01","15:00","5.3","","-2.3","","58","","29","","7","","32.2","","96.98","","","","","","NA"
"2018-11-01 16:00","2018","11","01","16:00","4.8","","-1.2","","65","","2","","5","","32.2","","97.00","","","","","","Cloudy"
"2018-11-01 17:00","2018","11","01","17:00","3.7","","-1.2","","71","","3","","8","","32.2","","96.98","","","","","","NA"
"2018-11-01 18:00","2018","11","01","18:00","2.5","","-1.2","","77","","4","","8","","24.1","","96.97","","","","","","NA"
"2018-11-01 19:00","2018","11","01","19:00","1.9","","-0.6","","83","","4","","11","","24.1","","96.93","","","","","","Mostly Cloudy"
"2018-11-01 20:00","2018","11","01","20:00","1.7","","-0.6","","85","","3","","8","","24.1","","96.98","","","","","","NA"
"2018-11-01 21:00","2018","11","01","21:00","2.0","","-0.8","","82","","4","","14","","24.1","","97.01","","","","","","NA"
"2018-11-01 22:00","2018","11","01","22:00","2.3","","-1.0","","78","","2","","18","","24.1","","96.89","","","","","","Mostly Cloudy"
"2018-11-01 23:00","2018","11","01","23:00","2.0","","-1.1","","80","","3","","19","","24.1","","96.82","","","","","","NA"
"2018-11-02 00:00","2018","11","02","00:00","1.6","","-1.3","","81","","4","","21","","24.1","","96.82","","","","","","NA"
"2018-11-02 01:00","2018","11","02","01:00","0.9","","-1.2","","85","","5","","21","","24.1","","96.78","","","","","","Mostly Cloudy"
"2018-11-02 02:00","2018","11","02","02:00","0.9","","-0.8","","88","","3","","27","","24.1","","96.69","","","","","","NA"
"2018-11-02 03:00","2018","11","02","03:00","0.8","","-0.6","","91","","3","","28","","24.1","","96.65","","","","","","NA"
"2018-11-02 04:00","2018","11","02","04:00","1.0","","-0.5","","90","","2","","23","","24.1","","96.88","","","","","","Cloudy"
"2018-11-02 05:00","2018","11","02","05:00","1.0","","-0.6","","89","","3","","25","","24.1","","96.82","","","","","","NA"
"2018-11-02 06:00","2018","11","02","06:00","1.1","","-0.4","","90","","3","","28","","24.1","","96.81","","","","","","NA"
"2018-11-02 07:00","2018","11","02","07:00","0.8","","-0.8","","89","","3","","27","","32.2","","96.83","","","","","","Cloudy"
"2018-11-02 08:00","2018","11","02","08:00","0.6","","-1.0","","89","","3","","24","","32.2","","96.85","","","","","","NA"
"2018-11-02 09:00","2018","11","02","09:00","0.7","","-1.4","","86","","4","","30","","32.2","","96.83","","","","","","NA"
"2018-11-02 10:00","2018","11","02","10:00","0.7","","-1.3","","86","","4","","31","","32.2","","96.85","","","","","","Cloudy"
"2018-11-02 11:00","2018","11","02","11:00","1.4","","-1.1","","84","","4","","27","","16.1","","96.89","","","","","","Snow"
"2018-11-02 12:00","2018","11","02","12:00","1.4","","-0.4","","87","","5","","22","","12.9","","96.89","","","","","","Snow"
"2018-11-02 13:00","2018","11","02","13:00","1.9","","-1.7","","77","","3","","25","","24.1","","96.91","","","","","","Snow"
"2018-11-02 14:00","2018","11","02","14:00","1.9","","-1.7","","77","","3","","22","","32.2","","96.92","","","","","","NA"
"2018-11-02 15:00","2018","11","02","15:00","1.8","","-2.5","","73","","2","","27","","32.2","","96.89","","","","","","NA"
"2018-11-02 16:00","2018","11","02","16:00","1.7","","-2.9","","72","","2","","26","","32.2","","96.87","","","","","","Mostly Cloudy"
"2018-11-02 17:00","2018","11","02","17:00","1.4","","-3.2","","72","","3","","23","","32.2","","96.91","","","","","","NA"
"2018-11-02 18:00","2018","11","02","18:00","1.3","","-3.2","","72","","4","","21","","24.1","","96.97","","","","","","NA"
"2018-11-02 19:00","2018","11","02","19:00","1.2","","-3.1","","73","","2","","20","","24.1","","97.00","","","","","","Cloudy"
"2018-11-02 20:00","2018","11","02","20:00","0.8","","-3.5","","73","","1","","18","","24.1","","97.03","","","","","","NA"
"2018-11-02 21:00","2018","11","02","21:00","0.6","","-3.5","","75","","3","","21","","24.1","","97.02","","","","","","NA"
"2018-11-02 22:00","2018","11","02","22:00","0.2","","-3.5","","76","","2","","19","","24.1","","97.00","","","","","","Cloudy"
"2018-11-02 23:00","2018","11","02","23:00","-0.1","","-3.4","","78","","2","","18","","24.1","","96.96","","","","-5","","NA"
"2018-11-03 00:00","2018","11","03","00:00","-0.5","","-3.8","","79","","36","","14","","24.1","","96.90","","","","-5","","NA"
"2018-11-03 01:00","2018","11","03","01:00","-0.5","","-3.8","","78","","35","","12","","24.1","","96.86","","","","-4","","Cloudy"
"2018-11-03 02:00","2018","11","03","02:00","-0.5","","-3.8","","78","","36","","16","","24.1","","96.82","","","","-5","","NA"
"2018-11-03 03:00","2018","11","03","03:00","-0.6","","-3.8","","79","","34","","16","","24.1","","96.84","","","","-5","","Snow"
"2018-11-03 04:00","2018","11","03","04:00","-0.7","","-3.6","","81","","35","","18","","24.1","","96.90","","","","-6","","Cloudy"
"2018-11-03 05:00","2018","11","03","05:00","-0.8","","-3.7","","81","","35","","17","","24.1","","96.89","","","","-6","","NA"
"2018-11-03 06:00","2018","11","03","06:00","-0.7","","-3.8","","80","","34","","22","","24.1","","96.87","","","","-6","","NA"
"2018-11-03 07:00","2018","11","03","07:00","-0.9","","-3.9","","80","","34","","18","","32.2","","96.86","","","","-6","","Cloudy"
"2018-11-03 08:00","2018","11","03","08:00","-0.5","","-3.8","","79","","35","","19","","32.2","","96.91","","","","-6","","NA"
"2018-11-03 09:00","2018","11","03","09:00","-0.2","","-3.6","","78","","33","","22","","32.2","","96.94","","","","-6","","NA"
"2018-11-03 10:00","2018","11","03","10:00","0.6","","-3.2","","76","","34","","21","","32.2","","96.97","","","","","","Cloudy"
"2018-11-03 11:00","2018","11","03","11:00","1.6","","-3.4","","70","","33","","20","","24.1","","97.07","","","","","","NA"
"2018-11-03 12:00","2018","11","03","12:00","1.7","","-4.1","","65","","33","","26","","32.2","","97.11","","","","","","NA"
"2018-11-03 13:00","2018","11","03","13:00","1.5","","-4.2","","66","","34","","23","","32.2","","97.19","","","","","","Cloudy"
"2018-11-03 14:00","2018","11","03","14:00","1.4","","-5.0","","63","","32","","20","","32.2","","97.27","","","","","","NA"
"2018-11-03 15:00","2018","11","03","15:00","0.8","","-5.2","","64","","32","","28","","32.2","","97.39","","","","","","NA"
"2018-11-03 16:00","2018","11","03","16:00","0.3","","-6.3","","61","","33","","21","","32.2","","97.54","","","","","","Cloudy"
"2018-11-03 17:00","2018","11","03","17:00","0.1","","-6.8","","60","","31","","27","","32.2","","97.69","","","","","","NA"
"2018-11-03 18:00","2018","11","03","18:00","0.0","","-6.2","","63","","32","","18","","24.1","","97.81","","","","-5","","NA"
"2018-11-03 19:00","2018","11","03","19:00","-0.2","","-6.4","","63","","33","","20","","24.1","","97.94","","","","-5","","Cloudy"
"2018-11-03 20:00","2018","11","03","20:00","-0.3","","-6.5","","63","","32","","17","","24.1","","98.05","","","","-5","","NA"
"2018-11-03 21:00","2018","11","03","21:00","-0.3","","-6.7","","62","","34","","14","","24.1","","98.10","","","","-5","","NA"
"2018-11-03 22:00","2018","11","03","22:00","-0.3","","-6.7","","62","","31","","9","","24.1","","98.24","","","","-3","","Cloudy"
"2018-11-03 23:00","2018","11","03","23:00","-1.4","","-7.3","","64","","28","","5","","24.1","","98.32","","","","-3","","NA"
"2018-11-04 00:00","2018","11","04","00:00","-2.0","","-7.2","","68","","27","","8","","24.1","","98.36","","","","-5","","NA"
"2018-11-04 01:00","2018","11","04","01:00","-2.5","","-7.4","","69","","26","","9","","24.1","","98.46","","","","-6","","Mostly Cloudy"
"2018-11-04 02:00","2018","11","04","02:00","-2.9","","-7.1","","73","","26","","10","","24.1","","98.56","","","","-7","","NA"
"2018-11-04 03:00","2018","11","04","03:00","-3.0","","-7.0","","75","","24","","7","","24.1","","98.63","","","","-6","","NA"
"2018-11-04 04:00","2018","11","04","04:00","-3.1","","-7.0","","74","","27","","6","","24.1","","98.68","","","","-6","","Clear"
"2018-11-04 05:00","2018","11","04","05:00","-4.0","","-6.7","","82","","23","","9","","24.1","","98.77","","","","-8","","NA"
"2018-11-04 06:00","2018","11","04","06:00","-4.3","","-6.5","","84","","23","","9","","24.1","","98.81","","","","-8","","NA"
"2018-11-04 07:00","2018","11","04","07:00","-4.4","","-6.5","","85","","24","","8","","32.2","","98.88","","","","-8","","Mainly Clear"
"2018-11-04 08:00","2018","11","04","08:00","-3.8","","-5.9","","85","","22","","7","","32.2","","98.92","","","","-7","","NA"
"2018-11-04 09:00","2018","11","04","09:00","-0.4","","-5.0","","71","","21","","9","","32.2","","98.95","","","","-4","","NA"
"2018-11-04 10:00","2018","11","04","10:00","1.8","","-6.2","","55","","20","","16","","32.2","","98.96","","","","","","Mostly Cloudy"
"2018-11-04 11:00","2018","11","04","11:00","2.9","","-6.9","","48","","16","","16","","32.2","","98.97","","","","","","NA"
"2018-11-04 12:00","2018","11","04","12:00","3.9","","-6.8","","46","","18","","13","","32.2","","98.89","","","","","","NA"
"2018-11-04 13:00","2018","11","04","13:00","5.0","","-7.8","","39","","14","","13","","32.2","","98.78","","","","","","Mainly Clear"
"2018-11-04 14:00","2018","11","04","14:00","5.2","","-8.4","","37","","14","","18","","32.2","","98.71","","","","","","NA"
"2018-11-04 15:00","2018","11","04","15:00","4.9","","-7.4","","41","","13","","21","","32.2","","98.66","","","","","","NA"
"2018-11-04 16:00","2018","11","04","16:00","3.7","","-7.0","","46","","12","","18","","32.2","","98.60","","","","","","Mostly Cloudy"
"2018-11-04 17:00","2018","11","04","17:00","2.6","","-6.3","","52","","11","","14","","32.2","","98.56","","","","","","NA"
"2018-11-04 18:00","2018","11","04","18:00","2.5","","-6.0","","54","","11","","21","","24.1","","98.52","","","","","","NA"
"2018-11-04 19:00","2018","11","04","19:00","2.3","","-5.3","","57","","12","","21","","24.1","","98.49","","","","","","Cloudy"
"2018-11-04 20:00","2018","11","04","20:00","2.4","","-4.5","","61","","13","","19","","24.1","","98.47","","","","","","NA"
"2018-11-04 21:00","2018","11","04","21:00","2.4","","-4.2","","62","","12","","20","","24.1","","98.41","","","","","","NA"
"2018-11-04 22:00","2018","11","04","22:00","2.3","","-4.0","","63","","12","","22","","24.1","","98.32","","","","","","Cloudy"
"2018-11-04 23:00","2018","11","04","23:00","1.6","","-3.3","","70","","12","","29","","24.1","","98.17","","","","","","Snow"
"2018-11-05 00:00","2018","11","05","00:00","1.9","","-3.8","","66","","12","","19","","24.1","","98.11","","","","","","NA"
"2018-11-05 01:00","2018","11","05","01:00","1.8","","-3.5","","68","","12","","26","","24.1","","98.02","","","","","","Cloudy"
"2018-11-05 02:00","2018","11","05","02:00","1.6","","-3.4","","69","","11","","22","","24.1","","97.93","","","","","","NA"
"2018-11-05 03:00","2018","11","05","03:00","1.6","","-3.5","","69","","11","","18","","24.1","","97.89","","","","","","NA"
"2018-11-05 04:00","2018","11","05","04:00","1.6","","-3.3","","70","","12","","20","","19.3","","97.83","","","","","","Snow"
"2018-11-05 05:00","2018","11","05","05:00","0.2","","-1.0","","91","","12","","21","","9.7","","97.77","","","","","","Snow"
"2018-11-05 06:00","2018","11","05","06:00","0.0","","-0.5","","96","","11","","21","","8.1","","97.63","","","","-5","","Snow"
"2018-11-05 07:00","2018","11","05","07:00","0.5","","-0.1","","96","","12","","21","","9.7","","97.55","","","","","","Snow"
"2018-11-05 08:00","2018","11","05","08:00","0.6","","0.2","","97","","12","","20","","9.7","","97.49","","","","","","Rain,Fog"
"2018-11-05 09:00","2018","11","05","09:00","1.0","","0.6","","97","","11","","23","","4.8","","97.43","","","","","","Rain,Fog"
"2018-11-05 10:00","2018","11","05","10:00","1.8","","1.5","","97","","13","","17","","4.8","","97.39","","","","","","Rain,Fog"
"2018-11-05 11:00","2018","11","05","11:00","2.8","","2.4","","97","","13","","21","","4.0","","97.35","","","","","","Rain,Fog"
"2018-11-05 12:00","2018","11","05","12:00","3.3","","2.9","","98","","13","","19","","2.4","","97.27","","","","","","Drizzle,Fog"
"2018-11-05 13:00","2018","11","05","13:00","3.8","","3.4","","98","","13","","18","","3.2","","97.21","","","","","","Drizzle,Fog"
"2018-11-05 14:00","2018","11","05","14:00","4.3","","4.0","","98","","12","","15","","0.4","","97.17","","","","","","Fog"
"2018-11-05 15:00","2018","11","05","15:00","5.6","","5.2","","98","","14","","15","","0.2","","97.17","","","","","","Fog"
"2018-11-05 16:00","2018","11","05","16:00","7.1","","6.8","","98","","17","","23","","6.4","","97.18","","","","","","Fog"
"2018-11-05 17:00","2018","11","05","17:00","7.2","","6.7","","97","","18","","17","","8.1","","97.19","","","","","","Rain,Fog"
"2018-11-05 18:00","2018","11","05","18:00","7.0","","6.6","","97","","17","","14","","8.1","","97.17","","","","","","Rain,Fog"
"2018-11-05 19:00","2018","11","05","19:00","6.9","","6.6","","98","","15","","17","","4.8","","97.13","","","","","","Fog"
"2018-11-05 20:00","2018","11","05","20:00","7.0","","6.7","","98","","17","","17","","4.8","","97.14","","","","","","Fog"
"2018-11-05 21:00","2018","11","05","21:00","7.1","","6.7","","98","","18","","19","","8.1","","97.18","","","","","","Fog"
"2018-11-05 22:00","2018","11","05","22:00","7.0","","6.6","","98","","18","","12","","4.8","","97.12","","","","","","Fog"
"2018-11-05 23:00","2018","11","05","23:00","6.8","","6.5","","98","","15","","11","","0.8","","97.01","","","","","","Fog"
"2018-11-06 00:00","2018","11","06","00:00","6.8","","6.5","","98","","16","","13","","0.8","","96.99","","","","","","Fog"
"2018-11-06 01:00","2018","11","06","01:00","6.7","","6.4","","98","","15","","11","","0.4","","96.95","","","","","","Fog"
"2018-11-06 02:00","2018","11","06","02:00","6.6","","6.3","","98","","15","","10","","0.2","","96.87","","","","","","Fog"
"2018-11-06 03:00","2018","11","06","03:00","6.4","","6.1","","98","","14","","8","","0.2","","96.81","","","","","","Fog"
"2018-11-06 04:00","2018","11","06","04:00","6.2","","6.0","","98","","11","","11","","0.4","","96.66","","","","","","Fog"
"2018-11-06 05:00","2018","11","06","05:00","6.3","","6.0","","98","","10","","10","","0.4","","96.48","","","","","","Fog"
"2018-11-06 06:00","2018","11","06","06:00","6.5","","6.3","","98","","11","","10","","0.4","","96.44","","","","","","Fog"
"2018-11-06 07:00","2018","11","06","07:00","6.8","","6.6","","98","","9","","13","","0.4","","96.28","","","","","","Rain,Fog"
"2018-11-06 08:00","2018","11","06","08:00","7.5","","7.2","","98","","10","","20","","0.8","","96.14","","","","","","Rain,Fog"
"2018-11-06 09:00","2018","11","06","09:00","7.7","","7.4","","98","","9","","23","","4.0","","95.92","","","","","","Rain,Fog"
"2018-11-06 10:00","2018","11","06","10:00","7.5","","7.2","","98","","10","","23","","19.3","","95.77","","","","","","Rain"
"2018-11-06 11:00","2018","11","06","11:00","7.3","","7.0","","98","","10","","21","","6.4","","95.63","","","","","","Rain,Fog"
"2018-11-06 12:00","2018","11","06","12:00","7.2","","6.8","","98","","8","","19","","6.4","","95.43","","","","","","Rain,Fog"
"2018-11-06 13:00","2018","11","06","13:00","7.0","","6.5","","97","","9","","21","","8.1","","95.26","","","","","","Rain,Fog"
"2018-11-06 14:00","2018","11","06","14:00","7.0","","6.5","","96","","9","","27","","4.0","","95.11","","","","","","Rain,Fog"
"2018-11-06 15:00","2018","11","06","15:00","6.4","","5.9","","97","","9","","18","","4.0","","95.02","","","","","","Rain,Fog"
"2018-11-06 16:00","2018","11","06","16:00","6.3","","5.9","","98","","7","","5","","1.6","","95.04","","","","","","Rain,Fog"
"2018-11-06 17:00","2018","11","06","17:00","6.1","","5.8","","98","","7","","5","","1.2","","95.04","","","","","","Rain,Fog"
"2018-11-06 18:00","2018","11","06","18:00","7.7","","7.3","","98","","20","","22","","8.1","","95.05","","","","","","Rain,Fog"
"2018-11-06 19:00","2018","11","06","19:00","6.1","","5.7","","97","","35","","15","","4.0","","95.12","","","","","","Rain,Fog"
"2018-11-06 20:00","2018","11","06","20:00","5.7","","5.3","","97","","33","","16","","24.1","","95.21","","","","","","Rain"
"2018-11-06 21:00","2018","11","06","21:00","5.6","","5.2","","97","","29","","14","","24.1","","95.35","","","","","","Rain"
"2018-11-06 22:00","2018","11","06","22:00","5.0","","4.1","","93","","29","","25","","24.1","","95.51","","","","","","Rain"
"2018-11-06 23:00","2018","11","06","23:00","4.3","","3.5","","95","","27","","21","","24.1","","95.67","","","","","","Rain"
"2018-11-07 00:00","2018","11","07","00:00","4.0","","3.0","","93","","27","","20","","24.1","","95.80","","","","","","NA"
"2018-11-07 01:00","2018","11","07","01:00","4.0","","3.0","","93","","24","","18","","24.1","","95.95","","","","","","Cloudy"
"2018-11-07 02:00","2018","11","07","02:00","4.0","","2.8","","92","","26","","16","","24.1","","96.03","","","","","","Rain"
"2018-11-07 03:00","2018","11","07","03:00","3.8","","3.2","","96","","25","","14","","24.1","","96.10","","","","","","Rain"
"2018-11-07 04:00","2018","11","07","04:00","3.3","","2.4","","94","","25","","16","","24.1","","96.14","","","","","","Rain"
"2018-11-07 05:00","2018","11","07","05:00","2.8","","2.1","","96","","24","","15","","24.1","","96.20","","","","","","Rain"
"2018-11-07 06:00","2018","11","07","06:00","2.8","","2.2","","96","","23","","15","","24.1","","96.23","","","","","","Rain,Snow"
"2018-11-07 07:00","2018","11","07","07:00","2.7","","2.1","","96","","23","","15","","9.7","","96.27","","","","","","Rain,Fog"
"2018-11-07 08:00","2018","11","07","08:00","2.9","","2.3","","96","","23","","17","","11.3","","96.31","","","","","","Rain"
"2018-11-07 09:00","2018","11","07","09:00","3.2","","2.5","","95","","23","","19","","19.3","","96.34","","","","","","NA"
"2018-11-07 10:00","2018","11","07","10:00","3.9","","3.0","","94","","23","","22","","24.1","","96.35","","","","","","Rain"
"2018-11-07 11:00","2018","11","07","11:00","4.1","","2.6","","90","","24","","21","","24.1","","96.37","","","","","","Rain"
"2018-11-07 12:00","2018","11","07","12:00","4.5","","2.9","","90","","24","","16","","32.2","","96.38","","","","","","Rain"
"2018-11-07 13:00","2018","11","07","13:00","4.6","","3.1","","90","","24","","17","","32.2","","96.38","","","","","","Rain"
"2018-11-07 14:00","2018","11","07","14:00","4.6","","2.3","","85","","24","","25","","32.2","","96.42","","","","","","NA"
"2018-11-07 15:00","2018","11","07","15:00","4.5","","1.4","","81","","24","","25","","24.1","","96.48","","","","","","NA"
"2018-11-07 16:00","2018","11","07","16:00","3.9","","2.0","","87","","24","","24","","24.1","","96.56","","","","","","Rain Showers"
"2018-11-07 17:00","2018","11","07","17:00","3.0","","2.0","","93","","26","","19","","32.2","","96.67","","","","","","Rain Showers"
"2018-11-07 18:00","2018","11","07","18:00","2.8","","1.9","","94","","26","","18","","24.1","","96.75","","","","","","Rain"
"2018-11-07 19:00","2018","11","07","19:00","2.5","","1.5","","92","","25","","18","","24.1","","96.85","","","","","","Rain"
"2018-11-07 20:00","2018","11","07","20:00","2.0","","0.6","","91","","26","","18","","24.1","","96.93","","","","","","Rain"
"2018-11-07 21:00","2018","11","07","21:00","1.7","","0.4","","91","","26","","17","","24.1","","97.00","","","","","","NA"
"2018-11-07 22:00","2018","11","07","22:00","1.4","","-0.2","","89","","26","","16","","24.1","","97.07","","","","","","Mostly Cloudy"
"2018-11-07 23:00","2018","11","07","23:00","1.1","","-0.4","","90","","26","","13","","24.1","","97.15","","","","","","Snow"
"2018-11-08 00:00","2018","11","08","00:00","0.5","","-0.6","","92","","24","","12","","24.1","","97.24","","","","","","Snow"
"2018-11-08 01:00","2018","11","08","01:00","0.2","","-0.7","","93","","25","","13","","24.1","","97.31","","","","","","Snow"
"2018-11-08 02:00","2018","11","08","02:00","-0.2","","-0.8","","95","","23","","9","","16.1","","97.40","","","","-3","","Snow"
"2018-11-08 03:00","2018","11","08","03:00","-0.3","","-0.9","","96","","24","","12","","16.1","","97.47","","","","-4","","Snow"
"2018-11-08 04:00","2018","11","08","04:00","-0.4","","-0.9","","96","","24","","10","","24.1","","97.52","","","","-4","","Snow"
"2018-11-08 05:00","2018","11","08","05:00","-0.5","","-1.0","","96","","28","","9","","24.1","","97.57","","","","-4","","Snow"
"2018-11-08 06:00","2018","11","08","06:00","-0.5","","-0.9","","97","","29","","8","","24.1","","97.65","","","","-3","","Snow"
"2018-11-08 07:00","2018","11","08","07:00","-0.6","","-1.0","","97","","29","","5","","24.1","","97.73","","","","-2","","Snow"
"2018-11-08 08:00","2018","11","08","08:00","-0.5","","-1.0","","97","","31","","7","","24.1","","97.85","","","","-3","","Snow Showers"
"2018-11-08 09:00","2018","11","08","09:00","-0.6","","-1.3","","94","","29","","7","","16.1","","97.94","","","","-3","","Snow Showers"
"2018-11-08 10:00","2018","11","08","10:00","0.7","","-1.8","","83","","32","","13","","32.2","","97.99","","","","","","Mostly Cloudy"
"2018-11-08 11:00","2018","11","08","11:00","0.9","","-3.7","","71","","31","","19","","32.2","","98.06","","","","","","NA"
"2018-11-08 12:00","2018","11","08","12:00","1.0","","-4.2","","68","","32","","18","","32.2","","98.10","","","","","","NA"
"2018-11-08 13:00","2018","11","08","13:00","0.4","","-4.0","","72","","31","","16","","32.2","","98.12","","","","","","Mostly Cloudy"
"2018-11-08 14:00","2018","11","08","14:00","0.4","","-4.5","","70","","30","","18","","32.2","","98.16","","","","","","NA"
"2018-11-08 15:00","2018","11","08","15:00","0.6","","-4.6","","68","","31","","15","","32.2","","98.20","","","","","","NA"
"2018-11-08 16:00","2018","11","08","16:00","0.3","","-4.4","","71","","32","","11","","32.2","","98.25","","","","","","Mostly Cloudy"
"2018-11-08 17:00","2018","11","08","17:00","-0.1","","-4.4","","73","","31","","11","","32.2","","98.28","","","","-4","","NA"
"2018-11-08 18:00","2018","11","08","18:00","-0.4","","-4.4","","75","","31","","8","","24.1","","98.36","","","","-3","","NA"
"2018-11-08 19:00","2018","11","08","19:00","-0.7","","-4.1","","78","","32","","7","","24.1","","98.42","","","","-3","","Cloudy"
"2018-11-08 20:00","2018","11","08","20:00","-1.2","","-4.0","","81","","30","","4","","24.1","","98.48","","","","-3","","NA"
"2018-11-08 21:00","2018","11","08","21:00","-1.2","","-4.0","","81","","30","","5","","24.1","","98.49","","","","-3","","NA"
"2018-11-08 22:00","2018","11","08","22:00","-1.3","","-4.1","","81","","32","","4","","24.1","","98.51","","","","-3","","Cloudy"
"2018-11-08 23:00","2018","11","08","23:00","-1.3","","-4.1","","81","","6","","5","","24.1","","98.52","","","","-3","","NA"
"2018-11-09 00:00","2018","11","09","00:00","-1.2","","-5.4","","73","","36","","1","","24.1","","98.51","","","","-2","","NA"
"2018-11-09 01:00","2018","11","09","01:00","-1.5","","-4.0","","83","","7","","12","","24.1","","98.46","","","","-6","","Cloudy"
"2018-11-09 02:00","2018","11","09","02:00","-1.6","","-4.0","","83","","7","","13","","24.1","","98.44","","","","-6","","NA"
"2018-11-09 03:00","2018","11","09","03:00","-1.7","","-4.2","","83","","10","","10","","24.1","","98.46","","","","-5","","NA"
"2018-11-09 04:00","2018","11","09","04:00","-1.9","","-5.2","","78","","11","","11","","24.1","","98.45","","","","-6","","Snow"
"2018-11-09 05:00","2018","11","09","05:00","-2.0","","-5.1","","80","","12","","10","","24.1","","98.41","","","","-6","","Snow"
"2018-11-09 06:00","2018","11","09","06:00","-2.2","","-6.0","","75","","10","","13","","24.1","","98.34","","","","-7","","NA"
"2018-11-09 07:00","2018","11","09","07:00","-2.4","","-6.1","","76","","8","","14","","24.1","","98.25","","","","-7","","Cloudy"
"2018-11-09 08:00","2018","11","09","08:00","-2.2","","-6.9","","70","","10","","18","","32.2","","98.23","","","","-8","","NA"
"2018-11-09 09:00","2018","11","09","09:00","-2.0","","-6.0","","74","","9","","18","","32.2","","98.19","","","","-7","","NA"
"2018-11-09 10:00","2018","11","09","10:00","-1.7","","-5.7","","74","","8","","22","","32.2","","98.10","","","","-8","","Cloudy"
"2018-11-09 11:00","2018","11","09","11:00","-1.8","","-4.7","","80","","8","","16","","2.4","","97.99","","","","-7","","Snow"
"2018-11-09 12:00","2018","11","09","12:00","-2.0","","-3.7","","88","","6","","21","","4.8","","97.85","","","","-8","","Snow"
"2018-11-09 13:00","2018","11","09","13:00","-1.8","","-3.0","","91","","6","","19","","1.2","","97.68","","","","-7","","Snow"
"2018-11-09 14:00","2018","11","09","14:00","-1.1","","-2.9","","88","","8","","18","","2.4","","97.52","","","","-6","","Snow"
"2018-11-09 15:00","2018","11","09","15:00","-1.3","","-2.5","","92","","7","","21","","3.2","","97.38","","","","-7","","Snow"
"2018-11-09 16:00","2018","11","09","16:00","-1.3","","-2.4","","92","","9","","23","","2.4","","97.24","","","","-7","","Snow"
"2018-11-09 17:00","2018","11","09","17:00","-1.8","","-2.7","","93","","8","","27","","1.2","","97.11","","","","-8","","Snow"
"2018-11-09 18:00","2018","11","09","18:00","-1.9","","-2.8","","94","","6","","23","","1.2","","96.96","","","","-8","","Snow"
"2018-11-09 19:00","2018","11","09","19:00","-1.9","","-2.8","","94","","6","","23","","1.2","","96.79","","","","-8","","Snow"
"2018-11-09 20:00","2018","11","09","20:00","-1.9","","-2.7","","94","","5","","22","","1.2","","96.64","","","","-8","","Snow"
"2018-11-09 21:00","2018","11","09","21:00","-1.8","","-2.5","","95","","5","","22","","1.2","","96.47","","","","-8","","Snow"
"2018-11-09 22:00","2018","11","09","22:00","-1.7","","-2.4","","95","","5","","22","","1.2","","96.32","","","","-8","","Snow"
"2018-11-09 23:00","2018","11","09","23:00","-1.7","","-2.3","","96","","5","","21","","1.2","","96.17","","","","-8","","Snow"
"2018-11-10 00:00","2018","11","10","00:00","-1.6","","-2.2","","96","","3","","18","","1.6","","96.05","","","","-7","","Snow"
"2018-11-10 01:00","2018","11","10","01:00","-1.7","","-2.4","","95","","2","","20","","1.6","","95.98","","","","-7","","Snow"
"2018-11-10 02:00","2018","11","10","02:00","-2.3","","-3.2","","94","","36","","18","","1.6","","95.94","","","","-8","","Snow"
"2018-11-10 03:00","2018","11","10","03:00","-2.7","","-4.0","","90","","35","","22","","4.8","","95.94","","","","-9","","Snow"
"2018-11-10 04:00","2018","11","10","04:00","-3.3","","-5.1","","88","","34","","27","","9.7","","95.98","","","","-10","","Snow"
"2018-11-10 05:00","2018","11","10","05:00","-4.2","","-6.5","","84","","33","","32","","6.4","","96.08","","","","-12","","Snow"
"2018-11-10 06:00","2018","11","10","06:00","-5.0","","-7.2","","85","","33","","26","","6.4","","96.19","","","","-12","","Snow"
"2018-11-10 07:00","2018","11","10","07:00","-5.5","","-7.8","","84","","33","","33","","4.0","","96.31","","","","-14","","Snow,Blowing Snow"
"2018-11-10 08:00","2018","11","10","08:00","-6.1","","-8.8","","82","","32","","27","","4.8","","96.48","","","","-14","","Snow,Blowing Snow"
"2018-11-10 09:00","2018","11","10","09:00","-6.2","","-9.5","","77","","32","","28","","16.1","","96.63","","","","-14","","Snow,Blowing Snow"
"2018-11-10 10:00","2018","11","10","10:00","-6.1","","-9.9","","75","","32","","30","","32.2","","96.77","","","","-14","","Snow,Blowing Snow"
"2018-11-10 11:00","2018","11","10","11:00","-6.1","","-10.2","","73","","32","","36","","32.2","","96.91","","","","-15","","Blowing Snow"
"2018-11-10 12:00","2018","11","10","12:00","-5.0","","-9.8","","69","","31","","36","","32.2","","97.03","","","","-14","","Blowing Snow"
"2018-11-10 13:00","2018","11","10","13:00","-5.0","","-10.0","","68","","31","","39","","32.2","","97.16","","","","-14","","Blowing Snow"
"2018-11-10 14:00","2018","11","10","14:00","-5.6","","-10.3","","69","","31","","36","","32.2","","97.32","","","","-14","","Blowing Snow"
"2018-11-10 15:00","2018","11","10","15:00","-5.7","","-10.3","","70","","32","","30","","32.2","","97.43","","","","-14","","Blowing Snow"
"2018-11-10 16:00","2018","11","10","16:00","-6.3","","-10.5","","72","","29","","28","","32.2","","97.58","","","","-14","","Blowing Snow"
"2018-11-10 17:00","2018","11","10","17:00","-7.1","","-11.1","","74","","30","","23","","16.1","","97.68","","","","-15","","Snow"
"2018-11-10 18:00","2018","11","10","18:00","-7.9","","-12.6","","69","","31","","19","","24.1","","97.77","","","","-15","","Snow"
"2018-11-10 19:00","2018","11","10","19:00","-8.0","","-12.6","","70","","30","","18","","24.1","","97.84","","","","-15","","Snow"
"2018-11-10 20:00","2018","11","10","20:00","-9.7","","-13.3","","75","","30","","14","","24.1","","97.88","","","","-16","","Snow"
"2018-11-10 21:00","2018","11","10","21:00","-10.6","","-13.0","","82","","28","","10","","24.1","","97.97","","","","-16","","NA"
"2018-11-10 22:00","2018","11","10","22:00","-11.2","","-13.4","","84","","29","","10","","24.1","","97.98","","","","-17","","Mainly Clear"
"2018-11-10 23:00","2018","11","10","23:00","-11.8","","-13.4","","88","","30","","8","","24.1","","97.99","","","","-17","","NA"
"2018-11-11 00:00","2018","11","11","00:00","-12.1","","-13.8","","87","","29","","8","","24.1","","98.04","","","","-17","","NA"
"2018-11-11 01:00","2018","11","11","01:00","-12.8","","-14.2","","89","","31","","4","","24.1","","98.10","","","","-15","","Mainly Clear"
"2018-11-11 02:00","2018","11","11","02:00","-12.8","","-14.2","","89","","28","","9","","24.1","","98.11","","","","-18","","Snow"
"2018-11-11 03:00","2018","11","11","03:00","-12.8","","-14.3","","88","","28","","5","","24.1","","98.11","","","","-16","","NA"
"2018-11-11 04:00","2018","11","11","04:00","-13.1","","-14.5","","89","","36","","3","","24.1","","98.13","","","","-15","","Mainly Clear"
"2018-11-11 05:00","2018","11","11","05:00","-13.6","","-15.2","","87","","26","","4","","24.1","","98.15","","","","-16","","NA"
"2018-11-11 06:00","2018","11","11","06:00","-13.2","","-14.7","","89","","25","","7","","24.1","","98.15","","","","-18","","NA"
"2018-11-11 07:00","2018","11","11","07:00","-13.9","","-15.5","","88","","24","","9","","24.1","","98.22","","","","-20","","Mostly Cloudy"
"2018-11-11 08:00","2018","11","11","08:00","-12.7","","-14.3","","88","","36","","1","","32.2","","98.21","","","","-13","","NA"
"2018-11-11 09:00","2018","11","11","09:00","-11.8","","-13.3","","88","","33","","3","","32.2","","98.23","","","","-14","","NA"
"2018-11-11 10:00","2018","11","11","10:00","-9.1","","-11.0","","86","","0","","1","","32.2","","98.21","","","","-10","","Mostly Cloudy"
"2018-11-11 11:00","2018","11","11","11:00","-7.2","","-10.4","","78","","7","","5","","32.2","","98.20","","","","-10","","NA"
"2018-11-11 12:00","2018","11","11","12:00","-6.4","","-10.8","","72","","15","","8","","32.2","","98.17","","","","-10","","Snow"
"2018-11-11 13:00","2018","11","11","13:00","-5.3","","-9.5","","73","","14","","8","","6.4","","98.14","","","","-9","","Snow"
"2018-11-11 14:00","2018","11","11","14:00","-5.0","","-8.7","","75","","15","","11","","8.1","","98.08","","","","-10","","Snow"
"2018-11-11 15:00","2018","11","11","15:00","-5.1","","-8.8","","75","","12","","13","","24.1","","98.06","","","","-10","","Snow"
"2018-11-11 16:00","2018","11","11","16:00","-5.4","","-7.9","","82","","12","","13","","8.1","","98.05","","","","-11","","Snow"
"2018-11-11 17:00","2018","11","11","17:00","-6.0","","-7.6","","88","","11","","13","","4.0","","98.04","","","","-11","","Snow"
"2018-11-11 18:00","2018","11","11","18:00","-6.4","","-7.7","","91","","11","","10","","4.8","","98.04","","","","-11","","Snow"
"2018-11-11 19:00","2018","11","11","19:00","-6.5","","-7.7","","91","","9","","16","","16.1","","98.02","","","","-13","","Snow"
"2018-11-11 20:00","2018","11","11","20:00","-6.1","","-7.4","","90","","9","","16","","4.0","","98.01","","","","-12","","Snow"
"2018-11-11 21:00","2018","11","11","21:00","-5.9","","-7.0","","92","","9","","13","","4.0","","97.99","","","","-11","","Snow"
"2018-11-11 22:00","2018","11","11","22:00","-5.8","","-6.8","","92","","10","","11","","4.0","","97.98","","","","-11","","Snow"
"2018-11-11 23:00","2018","11","11","23:00","-5.6","","-6.6","","93","","9","","9","","3.2","","97.97","","","","-10","","Snow"
"2018-11-12 00:00","2018","11","12","00:00","-7.3","","-8.2","","93","","10","","8","","9.7","","97.96","","","","-11","","Snow"
"2018-11-12 01:00","2018","11","12","01:00","-6.2","","-7.0","","94","","12","","9","","4.8","","97.97","","","","-10","","Snow"
"2018-11-12 02:00","2018","11","12","02:00","-5.2","","-6.0","","94","","13","","10","","6.4","","97.98","","","","-10","","Snow"
"2018-11-12 03:00","2018","11","12","03:00","-5.6","","-6.4","","94","","16","","5","","24.1","","98.01","","","","-8","","Snow"
"2018-11-12 04:00","2018","11","12","04:00","-6.1","","-6.8","","95","","20","","5","","16.1","","97.99","","","","-9","","Cloudy"
"2018-11-12 05:00","2018","11","12","05:00","-5.8","","-6.5","","95","","22","","5","","16.1","","98.02","","","","-8","","NA"
"2018-11-12 06:00","2018","11","12","06:00","-5.8","","-6.5","","95","","25","","7","","24.1","","98.04","","","","-9","","NA"
"2018-11-12 07:00","2018","11","12","07:00","-5.8","","-6.5","","95","","23","","7","","16.1","","98.03","","","","-9","","Snow"
"2018-11-12 08:00","2018","11","12","08:00","-5.4","","-6.1","","95","","24","","6","","4.8","","98.05","","","","-8","","Snow"
"2018-11-12 09:00","2018","11","12","09:00","-4.5","","-5.2","","95","","22","","7","","4.8","","98.06","","","","-8","","Snow"
"2018-11-12 10:00","2018","11","12","10:00","-3.3","","-4.0","","95","","21","","10","","4.8","","98.08","","","","-7","","Snow"
"2018-11-12 11:00","2018","11","12","11:00","-2.5","","-4.0","","90","","22","","9","","4.8","","98.07","","","","-6","","Snow"
"2018-11-12 12:00","2018","11","12","12:00","-1.9","","-3.4","","90","","22","","13","","4.0","","98.05","","","","-6","","Snow"
"2018-11-12 13:00","2018","11","12","13:00","-1.8","","-3.5","","88","","23","","10","","4.8","","97.99","","","","-5","","Snow"
"2018-11-12 14:00","2018","11","12","14:00","-1.5","","-4.1","","83","","22","","11","","24.1","","97.96","","","","-5","","Snow"
"2018-11-12 15:00","2018","11","12","15:00","-1.5","","-4.2","","82","","25","","12","","32.2","","97.96","","","","-6","","Snow"
"2018-11-12 16:00","2018","11","12","16:00","-1.7","","-4.2","","83","","22","","13","","32.2","","97.97","","","","-6","","Snow"
"2018-11-12 17:00","2018","11","12","17:00","-2.0","","-4.1","","85","","23","","8","","32.2","","97.99","","","","-5","","NA"
"2018-11-12 18:00","2018","11","12","18:00","-2.1","","-3.9","","87","","22","","13","","24.1","","97.99","","","","-7","","Snow"
"2018-11-12 19:00","2018","11","12","19:00","-2.2","","-3.9","","88","","21","","12","","24.1","","97.98","","","","-6","","Cloudy"
"2018-11-12 20:00","2018","11","12","20:00","-2.1","","-5.0","","81","","24","","12","","24.1","","97.97","","","","-6","","Snow"
"2018-11-12 21:00","2018","11","12","21:00","-2.6","","-6.1","","77","","27","","13","","24.1","","97.93","","","","-7","","NA"
"2018-11-12 22:00","2018","11","12","22:00","-3.5","","-6.6","","79","","27","","12","","24.1","","97.94","","","","-8","","Mostly Cloudy"
"2018-11-12 23:00","2018","11","12","23:00","-4.3","","-8.1","","75","","31","","23","","24.1","","97.95","","","","-11","","NA"
"2018-11-13 00:00","2018","11","13","00:00","-5.6","","-9.2","","76","","31","","18","","24.1","","97.98","","","","-12","","NA"
"2018-11-13 01:00","2018","11","13","01:00","-5.8","","-9.3","","76","","32","","12","","24.1","","98.02","","","","-11","","Cloudy"
"2018-11-13 02:00","2018","11","13","02:00","-6.7","","-11.8","","67","","35","","9","","24.1","","98.02","","","","-11","","NA"
"2018-11-13 03:00","2018","11","13","03:00","-8.2","","-13.1","","68","","33","","10","","24.1","","98.01","","","","-13","","NA"
"2018-11-13 04:00","2018","11","13","04:00","-8.9","","-13.2","","71","","35","","7","","24.1","","97.98","","","","-13","","Mostly Cloudy"
"2018-11-13 05:00","2018","11","13","05:00","-10.3","","-13.7","","77","","35","","12","","24.1","","97.94","","","","-16","","NA"
"2018-11-13 06:00","2018","11","13","06:00","-10.0","","-13.2","","78","","34","","13","","24.1","","97.95","","","","-16","","NA"
"2018-11-13 07:00","2018","11","13","07:00","-9.3","","-12.2","","80","","1","","20","","24.1","","97.89","","","","-17","","Mostly Cloudy"
"2018-11-13 08:00","2018","11","13","08:00","-8.8","","-11.8","","79","","35","","8","","32.2","","97.93","","","","-13","","NA"
"2018-11-13 09:00","2018","11","13","09:00","-9.6","","-12.5","","80","","30","","14","","32.2","","97.97","","","","-16","","NA"
"2018-11-13 10:00","2018","11","13","10:00","-9.4","","-12.7","","77","","30","","9","","32.2","","97.91","","","","-14","","Mostly Cloudy"
"2018-11-13 11:00","2018","11","13","11:00","-8.1","","-13.1","","68","","36","","2","","32.2","","97.87","","","","-9","","NA"
"2018-11-13 12:00","2018","11","13","12:00","-7.7","","-13.8","","62","","30","","12","","32.2","","97.82","","","","-13","","NA"
"2018-11-13 13:00","2018","11","13","13:00","-7.2","","-13.1","","63","","31","","12","","32.2","","97.75","","","","-13","","Snow"
"2018-11-13 14:00","2018","11","13","14:00","-6.8","","-13.1","","61","","32","","18","","32.2","","97.73","","","","-13","","NA"
"2018-11-13 15:00","2018","11","13","15:00","-7.3","","-12.6","","66","","31","","15","","9.7","","97.71","","","","-13","","Snow"
"2018-11-13 16:00","2018","11","13","16:00","-7.9","","-12.6","","69","","33","","19","","24.1","","97.69","","","","-15","","Snow"
"2018-11-13 17:00","2018","11","13","17:00","-8.6","","-12.6","","73","","30","","19","","12.9","","97.75","","","","-16","","Snow"
"2018-11-13 18:00","2018","11","13","18:00","-9.9","","-15.8","","62","","30","","31","","24.1","","97.82","","","","-20","","Snow"
"2018-11-13 19:00","2018","11","13","19:00","-11.5","","-16.7","","66","","31","","18","","24.1","","97.93","","","","-19","","Snow"
"2018-11-13 20:00","2018","11","13","20:00","-13.0","","-18.5","","63","","32","","13","","24.1","","97.99","","","","-20","","Snow"
"2018-11-13 21:00","2018","11","13","21:00","-14.4","","-18.4","","72","","28","","7","","24.1","","98.02","","","","-19","","NA"
"2018-11-13 22:00","2018","11","13","22:00","-15.0","","-18.3","","76","","29","","7","","24.1","","98.04","","","","-20","","Mainly Clear"
"2018-11-13 23:00","2018","11","13","23:00","-15.3","","-18.7","","76","","25","","5","","24.1","","98.10","","","","-19","","NA"
"2018-11-14 00:00","2018","11","14","00:00","-16.2","","-19.0","","79","","31","","6","","24.1","","98.14","","","","-21","","NA"
"2018-11-14 01:00","2018","11","14","01:00","-16.7","","-19.1","","82","","29","","8","","24.1","","98.15","","","","-22","","Mainly Clear"
"2018-11-14 02:00","2018","11","14","02:00","-16.6","","-19.0","","82","","25","","5","","24.1","","98.19","","","","-20","","NA"
"2018-11-14 03:00","2018","11","14","03:00","-18.0","","-19.9","","85","","31","","10","","24.1","","98.23","","","","-25","","NA"
"2018-11-14 04:00","2018","11","14","04:00","-18.3","","-20.2","","85","","30","","11","","24.1","","98.26","","","","-26","","Mainly Clear"
"2018-11-14 05:00","2018","11","14","05:00","-17.8","","-20.1","","82","","30","","11","","24.1","","98.33","","","","-25","","NA"
"2018-11-14 06:00","2018","11","14","06:00","-17.6","","-20.1","","81","","28","","11","","24.1","","98.47","","","","-25","","NA"
"2018-11-14 07:00","2018","11","14","07:00","-16.8","","-19.8","","78","","30","","9","","24.1","","98.62","","","","-23","","Mostly Cloudy"
"2018-11-14 08:00","2018","11","14","08:00","-17.3","","-20.3","","78","","30","","8","","32.2","","98.74","","","","-23","","NA"
"2018-11-14 09:00","2018","11","14","09:00","-14.8","","-19.5","","68","","30","","13","","32.2","","98.82","","","","-22","","NA"
"2018-11-14 10:00","2018","11","14","10:00","-13.1","","-19.4","","60","","29","","14","","32.2","","98.90","","","","-20","","Mainly Clear"
"2018-11-14 11:00","2018","11","14","11:00","-11.5","","-20.8","","47","","30","","18","","32.2","","98.95","","","","-19","","NA"
"2018-11-14 12:00","2018","11","14","12:00","-10.6","","-20.8","","44","","30","","14","","32.2","","98.93","","","","-17","","NA"
"2018-11-14 13:00","2018","11","14","13:00","-9.9","","-19.7","","45","","28","","15","","32.2","","98.94","","","","-17","","Mainly Clear"
"2018-11-14 14:00","2018","11","14","14:00","-9.4","","-19.5","","44","","28","","12","","32.2","","99.00","","","","-15","","NA"
"2018-11-14 15:00","2018","11","14","15:00","-9.1","","-19.2","","44","","32","","10","","32.2","","99.04","","","","-14","","NA"
"2018-11-14 16:00","2018","11","14","16:00","-9.0","","-18.9","","45","","27","","9","","32.2","","99.02","","","","-14","","Mainly Clear"
"2018-11-14 17:00","2018","11","14","17:00","-9.9","","-18.3","","51","","28","","5","","32.2","","99.06","","","","-13","","NA"
"2018-11-14 18:00","2018","11","14","18:00","-9.9","","-18.2","","51","","36","","2","","24.1","","99.08","","","","-11","","NA"
"2018-11-14 19:00","2018","11","14","19:00","-11.9","","-18.5","","58","","16","","9","","24.1","","99.03","","","","-17","","Clear"
"2018-11-14 20:00","2018","11","14","20:00","-12.2","","-18.4","","60","","16","","13","","24.1","","99.04","","","","-19","","NA"
"2018-11-14 21:00","2018","11","14","21:00","-12.4","","-18.2","","62","","16","","14","","24.1","","99.07","","","","-19","","NA"
"2018-11-14 22:00","2018","11","14","22:00","-12.3","","-18.4","","61","","17","","18","","24.1","","99.04","","","","-20","","Clear"
"2018-11-14 23:00","2018","11","14","23:00","-12.7","","-18.1","","64","","15","","15","","24.1","","98.95","","","","-20","","NA"
"2018-11-15 00:00","2018","11","15","00:00","-13.0","","-18.4","","64","","15","","18","","24.1","","98.93","","","","-21","","NA"
"2018-11-15 01:00","2018","11","15","01:00","-13.0","","-18.5","","64","","15","","15","","24.1","","98.86","","","","-20","","Mainly Clear"
"2018-11-15 02:00","2018","11","15","02:00","-13.2","","-18.4","","65","","15","","20","","24.1","","98.81","","","","-22","","NA"
"2018-11-15 03:00","2018","11","15","03:00","-12.7","","-17.3","","69","","15","","19","","24.1","","98.80","","","","-21","","NA"
"2018-11-15 04:00","2018","11","15","04:00","-11.8","","-16.6","","67","","15","","22","","24.1","","98.75","","","","-21","","Cloudy"
"2018-11-15 05:00","2018","11","15","05:00","-11.3","","-16.3","","67","","14","","19","","24.1","","98.70","","","","-19","","NA"
"2018-11-15 06:00","2018","11","15","06:00","-11.5","","-16.3","","68","","14","","24","","24.1","","98.63","","","","-21","","NA"
"2018-11-15 07:00","2018","11","15","07:00","-11.0","","-15.3","","71","","14","","23","","24.1","","98.56","","","","-20","","Cloudy"
"2018-11-15 08:00","2018","11","15","08:00","-10.5","","-14.4","","73","","14","","22","","32.2","","98.50","","","","-19","","NA"
"2018-11-15 09:00","2018","11","15","09:00","-9.8","","-12.8","","79","","14","","26","","32.2","","98.47","","","","-19","","NA"
"2018-11-15 10:00","2018","11","15","10:00","-8.7","","-11.3","","81","","14","","22","","32.2","","98.37","","","","-17","","Cloudy"
"2018-11-15 11:00","2018","11","15","11:00","-7.3","","-10.2","","80","","13","","22","","32.2","","98.28","","","","-15","","NA"
"2018-11-15 12:00","2018","11","15","12:00","-6.2","","-9.4","","78","","15","","24","","32.2","","98.17","","","","-14","","NA"
"2018-11-15 13:00","2018","11","15","13:00","-5.6","","-9.0","","78","","14","","23","","32.2","","97.98","","","","-13","","Cloudy"
"2018-11-15 14:00","2018","11","15","14:00","-4.6","","-8.3","","76","","15","","22","","32.2","","97.86","","","","-11","","NA"
"2018-11-15 15:00","2018","11","15","15:00","-3.4","","-7.7","","72","","16","","24","","24.1","","97.81","","","","-10","","NA"
"2018-11-15 16:00","2018","11","15","16:00","-3.8","","-7.3","","76","","15","","26","","32.2","","97.74","","","","-11","","Cloudy"
"2018-11-15 17:00","2018","11","15","17:00","-4.1","","-7.7","","76","","14","","18","","24.1","","97.61","","","","-10","","NA"
"2018-11-15 18:00","2018","11","15","18:00","-4.4","","-7.6","","78","","14","","18","","24.1","","97.54","","","","-10","","NA"
"2018-11-15 19:00","2018","11","15","19:00","-4.4","","-7.3","","80","","14","","14","","24.1","","97.43","","","","-10","","Cloudy"
"2018-11-15 20:00","2018","11","15","20:00","-4.6","","-7.3","","82","","13","","17","","24.1","","97.35","","","","-10","","NA"
"2018-11-15 21:00","2018","11","15","21:00","-4.8","","-7.7","","81","","13","","21","","24.1","","97.27","","","","-11","","NA"
"2018-11-15 22:00","2018","11","15","22:00","-4.8","","-7.7","","80","","12","","19","","24.1","","97.17","","","","-11","","Cloudy"
"2018-11-15 23:00","2018","11","15","23:00","-5.2","","-6.6","","90","","12","","16","","4.0","","97.02","","","","-11","","Snow"
"2018-11-16 00:00","2018","11","16","00:00","-5.0","","-6.2","","92","","12","","17","","3.2","","96.93","","","","-11","","Snow"
"2018-11-16 01:00","2018","11","16","01:00","-5.1","","-6.3","","92","","10","","14","","2.4","","96.85","","","","-10","","Snow"
"2018-11-16 02:00","2018","11","16","02:00","-5.8","","-7.0","","91","","11","","16","","2.4","","96.74","","","","-12","","Snow"
"2018-11-16 03:00","2018","11","16","03:00","-5.8","","-7.0","","92","","10","","16","","4.8","","96.65","","","","-12","","Snow"
"2018-11-16 04:00","2018","11","16","04:00","-5.8","","-6.9","","92","","10","","12","","2.4","","96.54","","","","-11","","Snow"
"2018-11-16 05:00","2018","11","16","05:00","-5.7","","-6.8","","92","","10","","12","","4.0","","96.48","","","","-11","","Snow"
"2018-11-16 06:00","2018","11","16","06:00","-5.7","","-6.8","","92","","9","","13","","4.0","","96.43","","","","-11","","Snow"
"2018-11-16 07:00","2018","11","16","07:00","-5.8","","-7.0","","91","","7","","15","","4.8","","96.34","","","","-12","","Snow"
"2018-11-16 08:00","2018","11","16","08:00","-6.0","","-7.2","","91","","8","","14","","3.2","","96.29","","","","-12","","Snow"
"2018-11-16 09:00","2018","11","16","09:00","-6.0","","-7.1","","92","","5","","8","","1.6","","96.26","","","","-10","","Snow"
"2018-11-16 10:00","2018","11","16","10:00","-5.7","","-6.9","","91","","6","","10","","2.4","","96.19","","","","-10","","Snow"
"2018-11-16 11:00","2018","11","16","11:00","-5.2","","-6.5","","90","","4","","7","","3.2","","96.16","","","","-8","","Snow"
"2018-11-16 12:00","2018","11","16","12:00","-4.6","","-6.0","","90","","36","","2","","4.8","","96.11","","","","-5","","Snow"
"2018-11-16 13:00","2018","11","16","13:00","-3.9","","-5.4","","89","","36","","1","","24.1","","96.08","","","","-4","","Snow"
"2018-11-16 14:00","2018","11","16","14:00","-2.9","","-5.1","","85","","31","","5","","32.2","","96.08","","","","-5","","NA"
"2018-11-16 15:00","2018","11","16","15:00","-2.4","","-4.4","","86","","26","","5","","32.2","","96.12","","","","-4","","NA"
"2018-11-16 16:00","2018","11","16","16:00","-2.4","","-4.1","","88","","24","","9","","24.1","","96.16","","","","-6","","Cloudy"
"2018-11-16 17:00","2018","11","16","17:00","-2.4","","-3.5","","92","","26","","5","","8.1","","96.22","","","","-4","","Snow"
"2018-11-16 18:00","2018","11","16","18:00","-2.3","","-3.1","","94","","25","","6","","24.1","","96.29","","","","-5","","Snow"
"2018-11-16 19:00","2018","11","16","19:00","-1.9","","-2.5","","95","","25","","10","","24.1","","96.33","","","","-6","","Snow"
"2018-11-16 20:00","2018","11","16","20:00","-1.1","","-1.8","","95","","26","","9","","24.1","","96.40","","","","-4","","Snow"
"2018-11-16 21:00","2018","11","16","21:00","-0.6","","-1.6","","94","","27","","9","","24.1","","96.46","","","","-4","","Snow"
"2018-11-16 22:00","2018","11","16","22:00"
"2018-11-16 23:00","2018","11","16","23:00","-0.5","","-1.4","","93","","25","","10","","24.1","","96.59","","","","-4","","Snow"
"2018-11-17 00:00","2018","11","17","00:00","-0.8","","-1.9","","92","","28","","15","","8.1","","96.68","","","","-5","","Snow"
"2018-11-17 01:00","2018","11","17","01:00","-1.3","","-3.7","","84","","32","","21","","11.3","","96.80","","","","-7","","Snow"
"2018-11-17 02:00","2018","11","17","02:00","-3.6","","-6.4","","81","","32","","28","","16.1","","96.91","","","","-11","","Snow"
"2018-11-17 03:00","2018","11","17","03:00","-4.5","","-7.8","","78","","34","","27","","24.1","","97.06","","","","-12","","Snow"
"2018-11-17 04:00","2018","11","17","04:00","-5.0","","-8.1","","79","","34","","18","","24.1","","97.17","","","","-11","","Snow"
"2018-11-17 05:00","2018","11","17","05:00","-5.3","","-8.4","","79","","32","","18","","24.1","","97.29","","","","-12","","Snow"
"2018-11-17 06:00","2018","11","17","06:00","-6.0","","-9.5","","76","","34","","19","","24.1","","97.44","","","","-13","","Snow"
"2018-11-17 07:00","2018","11","17","07:00","-7.8","","-10.5","","81","","33","","12","","32.2","","97.56","","","","-13","","Mainly Clear"
"2018-11-17 08:00","2018","11","17","08:00","-7.4","","-9.9","","82","","33","","9","","32.2","","97.68","","","","-12","","NA"
"2018-11-17 09:00","2018","11","17","09:00","-7.0","","-11.3","","72","","33","","14","","32.2","","97.77","","","","-13","","NA"
"2018-11-17 10:00","2018","11","17","10:00","-6.7","","-11.9","","67","","33","","22","","32.2","","97.86","","","","-14","","Mostly Cloudy"
"2018-11-17 11:00","2018","11","17","11:00","-6.1","","-11.4","","66","","31","","16","","32.2","","97.92","","","","-12","","NA"
"2018-11-17 12:00","2018","11","17","12:00","-6.1","","-11.7","","65","","30","","17","","32.2","","97.93","","","","-12","","NA"
"2018-11-17 13:00","2018","11","17","13:00","-6.0","","-12.6","","60","","28","","18","","32.2","","97.92","","","","-12","","Mostly Cloudy"
"2018-11-17 14:00","2018","11","17","14:00","-6.5","","-12.3","","64","","29","","13","","32.2","","97.97","","","","-12","","NA"
"2018-11-17 15:00","2018","11","17","15:00","-6.6","","-12.5","","63","","30","","19","","32.2","","98.00","","","","-13","","NA"
"2018-11-17 16:00","2018","11","17","16:00","-6.9","","-13.2","","61","","30","","17","","32.2","","98.06","","","","-13","","Mainly Clear"
"2018-11-17 17:00","2018","11","17","17:00","-9.2","","-13.6","","71","","33","","9","","32.2","","98.11","","","","-14","","NA"
"2018-11-17 18:00","2018","11","17","18:00","-10.7","","-14.5","","74","","32","","7","","24.1","","98.16","","","","-15","","NA"
"2018-11-17 19:00","2018","11","17","19:00","-10.4","","-13.5","","79","","34","","4","","24.1","","98.20","","","","-13","","Mainly Clear"
"2018-11-17 20:00","2018","11","17","20:00","-11.1","","-13.0","","86","","36","","1","","24.1","","98.24","","","","-12","","NA"
"2018-11-17 21:00","2018","11","17","21:00","-13.6","","-15.2","","88","","31","","4","","24.1","","98.26","","","","-16","","NA"
"2018-11-17 22:00","2018","11","17","22:00","-12.8","","-14.2","","89","","29","","7","","24.1","","98.24","","","","-17","","Clear"
"2018-11-17 23:00","2018","11","17","23:00","-12.5","","-14.1","","88","","26","","9","","24.1","","98.25","","","","-18","","NA"
"2018-11-18 00:00","2018","11","18","00:00","-13.9","","-15.5","","88","","29","","6","","24.1","","98.25","","","","-18","","NA"
"2018-11-18 01:00","2018","11","18","01:00","-15.2","","-16.6","","89","","30","","8","","24.1","","98.27","","","","-21","","Clear"
"2018-11-18 02:00","2018","11","18","02:00","-14.9","","-16.7","","87","","24","","10","","24.1","","98.28","","","","-21","","NA"
"2018-11-18 03:00","2018","11","18","03:00","-15.2","","-16.9","","87","","29","","7","","24.1","","98.25","","","","-20","","NA"
"2018-11-18 04:00","2018","11","18","04:00","-14.6","","-16.3","","87","","29","","4","","24.1","","98.18","","","","-17","","Mostly Cloudy"
"2018-11-18 05:00","2018","11","18","05:00","-13.4","","-15.4","","86","","17","","9","","24.1","","98.15","","","","-19","","NA"
"2018-11-18 06:00","2018","11","18","06:00","-14.0","","-15.8","","86","","18","","9","","24.1","","98.14","","","","-20","","Snow Showers"
"2018-11-18 07:00","2018","11","18","07:00","-13.1","","-14.9","","86","","16","","18","","16.1","","98.11","","","","-21","","Snow Showers"
"2018-11-18 08:00","2018","11","18","08:00","-13.7","","-15.5","","86","","19","","13","","32.2","","98.08","","","","-21","","NA"
"2018-11-18 09:00","2018","11","18","09:00","-12.3","","-14.1","","87","","17","","21","","32.2","","98.03","","","","-21","","Snow"
"2018-11-18 10:00","2018","11","18","10:00","-11.2","","-12.8","","88","","17","","15","","24.1","","97.96","","","","-18","","Snow Showers"
"2018-11-18 11:00","2018","11","18","11:00","-9.2","","-10.7","","89","","16","","21","","32.2","","97.87","","","","-17","","Snow Showers"
"2018-11-18 12:00","2018","11","18","12:00","-6.2","","-8.5","","84","","18","","24","","32.2","","97.76","","","","-14","","Snow Showers"
"2018-11-18 13:00","2018","11","18","13:00","-4.8","","-7.7","","81","","18","","28","","32.2","","97.61","","","","-12","","Snow Showers"
"2018-11-18 14:00","2018","11","18","14:00","-4.2","","-6.8","","82","","19","","24","","6.4","","97.53","","","","-11","","Snow Showers"
"2018-11-18 15:00","2018","11","18","15:00","-3.6","","-6.1","","83","","20","","22","","16.1","","97.47","","","","-10","","Snow Showers"
"2018-11-18 16:00","2018","11","18","16:00","-2.9","","-6.5","","76","","22","","19","","32.2","","97.43","","","","-9","","Snow Showers"
"2018-11-18 17:00","2018","11","18","17:00","-2.6","","-7.2","","71","","22","","18","","32.2","","97.44","","","","-8","","Snow"
"2018-11-18 18:00","2018","11","18","18:00","-2.7","","-7.2","","72","","23","","14","","24.1","","97.44","","","","-8","","Snow"
"2018-11-18 19:00","2018","11","18","19:00","-2.9","","-7.0","","73","","22","","18","","24.1","","97.46","","","","-9","","Snow"
"2018-11-18 20:00","2018","11","18","20:00","-2.6","","-7.0","","72","","23","","15","","24.1","","97.44","","","","-8","","NA"
"2018-11-18 21:00","2018","11","18","21:00","-2.7","","-7.9","","68","","25","","13","","24.1","","97.44","","","","-7","","Snow"
"2018-11-18 22:00","2018","11","18","22:00","-3.0","","-7.9","","69","","27","","14","","24.1","","97.43","","","","-8","","Snow"
"2018-11-18 23:00","2018","11","18","23:00","-3.5","","-7.5","","74","","23","","11","","24.1","","97.41","","","","-8","","Snow"
"2018-11-19 00:00","2018","11","19","00:00","-3.7","","-8.0","","72","","24","","8","","24.1","","97.41","","","","-7","","Snow"
"2018-11-19 01:00","2018","11","19","01:00","-4.2","","-8.5","","72","","31","","10","","24.1","","97.43","","","","-8","","Snow"
"2018-11-19 02:00","2018","11","19","02:00","-7.1","","-11.1","","73","","1","","18","","24.1","","97.50","","","","-14","","Snow"
"2018-11-19 03:00","2018","11","19","03:00","-7.7","","-10.1","","83","","36","","16","","24.1","","97.55","","","","-14","","Snow"
"2018-11-19 04:00","2018","11","19","04:00","-8.2","","-11.4","","78","","2","","17","","24.1","","97.59","","","","-15","","Snow"
"2018-11-19 05:00","2018","11","19","05:00","-8.7","","-11.8","","79","","5","","21","","3.2","","97.63","","","","-16","","Snow"
"2018-11-19 06:00","2018","11","19","06:00","-9.3","","-11.9","","82","","5","","22","","16.1","","97.65","","","","-17","","Snow"
"2018-11-19 07:00","2018","11","19","07:00","-10.2","","-12.8","","81","","5","","22","","24.1","","97.68","","","","-18","","Snow"
"2018-11-19 08:00","2018","11","19","08:00","-10.3","","-13.3","","79","","5","","21","","24.1","","97.71","","","","-18","","Snow"
"2018-11-19 09:00","2018","11","19","09:00","-10.4","","-13.4","","79","","5","","19","","8.1","","97.73","","","","-18","","Snow"
"2018-11-19 10:00","2018","11","19","10:00","-10.1","","-13.1","","79","","6","","18","","4.8","","97.73","","","","-18","","Snow"
"2018-11-19 11:00","2018","11","19","11:00","-9.8","","-12.8","","79","","5","","17","","4.8","","97.71","","","","-17","","Snow"
"2018-11-19 12:00","2018","11","19","12:00","-10.0","","-13.0","","79","","9","","13","","2.8","","97.70","","","","-16","","Snow"
"2018-11-19 13:00","2018","11","19","13:00","-10.2","","-13.1","","80","","6","","20","","2.8","","97.61","","","","-18","","Snow"
"2018-11-19 14:00","2018","11","19","14:00","-10.1","","-12.7","","81","","7","","17","","1.6","","97.59","","","","-17","","Snow"
"2018-11-19 15:00","2018","11","19","15:00","-10.1","","-13.1","","79","","5","","23","","4.0","","97.55","","","","-19","","Snow,Blowing Snow"
"2018-11-19 16:00","2018","11","19","16:00","-10.3","","-13.0","","81","","4","","20","","2.8","","97.52","","","","-18","","Snow,Blowing Snow"
"2018-11-19 17:00","2018","11","19","17:00","-10.6","","-12.7","","85","","5","","20","","2.0","","97.51","","","","-19","","Snow,Blowing Snow"
"2018-11-19 18:00","2018","11","19","18:00","-10.7","","-13.1","","83","","5","","21","","3.2","","97.57","","","","-19","","Snow,Blowing Snow"
"2018-11-19 19:00","2018","11","19","19:00","-11.0","","-13.3","","83","","5","","23","","4.8","","97.60","","","","-20","","Snow,Blowing Snow"
"2018-11-19 20:00","2018","11","19","20:00","-11.4","","-14.1","","81","","5","","23","","9.7","","97.58","","","","-20","","Snow,Blowing Snow"
"2018-11-19 21:00","2018","11","19","21:00","-11.7","","-14.8","","78","","5","","25","","16.1","","97.58","","","","-21","","Snow"
"2018-11-19 22:00","2018","11","19","22:00","-12.2","","-14.6","","83","","4","","28","","9.7","","97.56","","","","-22","","Snow"
"2018-11-19 23:00","2018","11","19","23:00","-12.7","","-15.0","","83","","4","","30","","16.1","","97.55","","","","-23","","Snow"
"2018-11-20 00:00","2018","11","20","00:00","-13.1","","-15.4","","83","","4","","32","","16.1","","97.58","","","","-24","","Snow"
"2018-11-20 01:00","2018","11","20","01:00","-13.8","","-15.9","","84","","4","","33","","16.1","","97.57","","","","-25","","Snow"
"2018-11-20 02:00","2018","11","20","02:00","-14.4","","-16.6","","84","","4","","31","","16.1","","97.60","","","","-25","","Snow"
"2018-11-20 03:00","2018","11","20","03:00","-14.3","","-16.5","","84","","3","","22","","9.7","","97.59","","","","-24","","Snow"
"2018-11-20 04:00","2018","11","20","04:00","-14.7","","-16.9","","83","","2","","25","","9.7","","97.59","","","","-25","","Snow"
"2018-11-20 05:00","2018","11","20","05:00","-15.7","","-17.9","","83","","1","","20","","2.4","","97.64","","","","-25","","Snow"
"2018-11-20 06:00","2018","11","20","06:00","-16.4","","-18.8","","82","","2","","25","","2.4","","97.64","","","","-27","","Snow"
"2018-11-20 07:00","2018","11","20","07:00","-16.6","","-18.9","","82","","1","","20","","1.6","","97.69","","","","-26","","Snow,Blowing Snow"
"2018-11-20 08:00","2018","11","20","08:00","-16.9","","-19.2","","82","","4","","21","","1.6","","97.71","","","","-27","","Snow,Blowing Snow"
"2018-11-20 09:00","2018","11","20","09:00","-16.2","","-18.9","","80","","5","","21","","1.6","","97.70","","","","-26","","Ice Crystals,Blowing Snow"
"2018-11-20 10:00","2018","11","20","10:00","-15.8","","-19.1","","76","","6","","16","","32.2","","97.69","","","","-24","","Mostly Cloudy"
"2018-11-20 11:00","2018","11","20","11:00","-15.2","","-18.7","","75","","5","","12","","24.1","","97.66","","","","-22","","NA"
"2018-11-20 12:00","2018","11","20","12:00","-14.5","","-18.5","","72","","7","","8","","24.1","","97.55","","","","-20","","NA"
"2018-11-20 13:00","2018","11","20","13:00","-13.9","","-18.4","","69","","36","","3","","24.1","","97.47","","","","-16","","Mainly Clear"
"2018-11-20 14:00","2018","11","20","14:00","-12.9","","-18.2","","65","","32","","4","","32.2","","97.43","","","","-16","","NA"
"2018-11-20 15:00","2018","11","20","15:00","-13.3","","-18.9","","63","","22","","8","","32.2","","97.35","","","","-18","","NA"
"2018-11-20 16:00","2018","11","20","16:00","-13.5","","-19.0","","64","","21","","10","","32.2","","97.33","","","","-19","","Cloudy"
"2018-11-20 17:00","2018","11","20","17:00","-13.8","","-18.1","","70","","19","","9","","32.2","","97.32","","","","-19","","NA"
"2018-11-20 18:00","2018","11","20","18:00","-13.3","","-17.9","","69","","18","","9","","24.1","","97.25","","","","-19","","NA"
"2018-11-20 19:00","2018","11","20","19:00","-13.3","","-16.8","","76","","18","","7","","16.1","","97.19","","","","-18","","Snow"
"2018-11-20 20:00","2018","11","20","20:00","-13.2","","-15.8","","81","","18","","12","","4.8","","97.16","","","","-20","","Snow"
"2018-11-20 21:00","2018","11","20","21:00","-13.3","","-15.3","","85","","12","","12","","3.2","","96.97","","","","-20","","Snow"
"2018-11-20 22:00","2018","11","20","22:00","-13.3","","-15.2","","85","","13","","18","","3.2","","96.84","","","","-22","","Snow"
"2018-11-20 23:00","2018","11","20","23:00","-13.1","","-15.0","","85","","9","","16","","2.4","","96.65","","","","-21","","Snow"
"2018-11-21 00:00","2018","11","21","00:00","-12.9","","-14.9","","85","","10","","13","","1.6","","96.59","","","","-20","","Snow"
"2018-11-21 01:00","2018","11","21","01:00","-12.8","","-14.7","","86","","35","","9","","1.6","","96.59","","","","-18","","Snow"
"2018-11-21 02:00","2018","11","21","02:00","-14.2","","-15.9","","87","","30","","4","","24.1","","96.57","","","","-17","","Snow"
"2018-11-21 03:00","2018","11","21","03:00","-12.9","","-14.7","","87","","15","","7","","8.1","","96.52","","","","-17","","Snow"
"2018-11-21 04:00","2018","11","21","04:00","-13.5","","-15.3","","87","","23","","7","","4.8","","96.56","","","","-18","","Snow"
"2018-11-21 05:00","2018","11","21","05:00","-14.5","","-16.3","","87","","31","","23","","24.1","","96.68","","","","-24","","Snow"
"2018-11-21 06:00","2018","11","21","06:00","-13.3","","-16.1","","80","","32","","32","","4.0","","96.92","","","","-24","","Snow,Blowing Snow"
"2018-11-21 07:00","2018","11","21","07:00","-15.8","","-19.9","","71","","33","","36","","24.1","","97.21","","","","-28","","Blowing Snow"
"2018-11-21 08:00","2018","11","21","08:00","-17.2","","-21.2","","71","","33","","16","","32.2","","97.47","","","","-26","","Blowing Snow"
"2018-11-21 09:00","2018","11","21","09:00","-17.8","","-22.5","","67","","34","","21","","32.2","","97.65","","","","-28","","Blowing Snow"
"2018-11-21 10:00","2018","11","21","10:00","-17.7","","-22.9","","65","","34","","29","","24.1","","97.77","","","","-29","","Blowing Snow"
"2018-11-21 11:00","2018","11","21","11:00","-16.7","","-23.0","","59","","34","","22","","24.1","","97.87","","","","-27","","NA"
"2018-11-21 12:00","2018","11","21","12:00","-16.4","","-22.5","","60","","32","","31","","32.2","","97.92","","","","-28","","Blowing Snow"
"2018-11-21 13:00","2018","11","21","13:00","-16.0","","-22.9","","56","","31","","21","","32.2","","98.01","","","","-26","","Blowing Snow"
"2018-11-21 14:00","2018","11","21","14:00","-16.0","","-22.9","","56","","32","","25","","32.2","","98.12","","","","-26","","Blowing Snow"
"2018-11-21 15:00","2018","11","21","15:00","-15.8","","-22.8","","56","","33","","23","","32.2","","98.23","","","","-26","","Blowing Snow"
"2018-11-21 16:00","2018","11","21","16:00","-15.9","","-22.4","","58","","33","","19","","32.2","","98.30","","","","-25","","Blowing Snow"
"2018-11-21 17:00","2018","11","21","17:00","-17.7","","-22.7","","66","","30","","13","","32.2","","98.38","","","","-26","","NA"
"2018-11-21 18:00","2018","11","21","18:00","-17.8","","-22.1","","69","","28","","8","","24.1","","98.47","","","","-24","","NA"
"2018-11-21 19:00","2018","11","21","19:00","-18.2","","-22.0","","72","","28","","11","","24.1","","98.54","","","","-25","","Clear"
"2018-11-21 20:00","2018","11","21","20:00","-19.0","","-22.3","","75","","29","","14","","24.1","","98.59","","","","-28","","NA"
"2018-11-21 21:00","2018","11","21","21:00","-20.2","","-22.9","","79","","30","","19","","24.1","","98.61","","","","-30","","NA"
"2018-11-21 22:00","2018","11","21","22:00","-19.9","","-22.5","","80","","31","","16","","24.1","","98.64","","","","-29","","Clear"
"2018-11-21 23:00","2018","11","21","23:00","-19.8","","-22.3","","81","","30","","16","","24.1","","98.65","","","","-29","","NA"
"2018-11-22 00:00","2018","11","22","00:00","-19.1","","-21.7","","80","","32","","16","","24.1","","98.72","","","","-28","","NA"
"2018-11-22 01:00","2018","11","22","01:00","-19.4","","-22.2","","78","","32","","16","","24.1","","98.76","","","","-29","","Mainly Clear"
"2018-11-22 02:00","2018","11","22","02:00","-19.2","","-22.3","","77","","34","","16","","24.1","","98.82","","","","-28","","NA"
"2018-11-22 03:00","2018","11","22","03:00","-19.3","","-22.5","","76","","33","","14","","24.1","","98.86","","","","-28","","NA"
"2018-11-22 04:00","2018","11","22","04:00","-19.6","","-22.7","","77","","34","","18","","24.1","","98.90","","","","-29","","Mainly Clear"
"2018-11-22 05:00","2018","11","22","05:00","-19.7","","-22.7","","78","","35","","15","","24.1","","98.98","","","","-29","","NA"
"2018-11-22 06:00","2018","11","22","06:00","-20.3","","-23.2","","78","","34","","13","","24.1","","99.04","","","","-29","","NA"
"2018-11-22 07:00","2018","11","22","07:00","-20.0","","-22.8","","79","","36","","22","","32.2","","99.08","","","","-31","","Mainly Clear"
"2018-11-22 08:00","2018","11","22","08:00","-19.6","","-22.0","","81","","35","","17","","32.2","","99.12","","","","-29","","NA"
"2018-11-22 09:00","2018","11","22","09:00","-20.2","","-22.8","","80","","29","","7","","32.2","","99.21","","","","-26","","NA"
"2018-11-22 10:00","2018","11","22","10:00","-17.2","","-20.7","","74","","28","","7","","32.2","","99.23","","","","-22","","Mainly Clear"
"2018-11-22 11:00","2018","11","22","11:00","-14.8","","-19.3","","69","","23","","4","","32.2","","99.27","","","","-18","","NA"
"2018-11-22 12:00","2018","11","22","12:00","-12.8","","-18.0","","66","","36","","2","","32.2","","99.22","","","","-14","","NA"
"2018-11-22 13:00","2018","11","22","13:00","-12.8","","-18.8","","61","","23","","9","","32.2","","99.18","","","","-18","","Mainly Clear"
"2018-11-22 14:00","2018","11","22","14:00","-12.3","","-18.3","","61","","21","","10","","32.2","","99.13","","","","-18","","NA"
"2018-11-22 15:00","2018","11","22","15:00","-12.7","","-18.8","","61","","20","","9","","32.2","","99.09","","","","-18","","NA"
"2018-11-22 16:00","2018","11","22","16:00","-12.5","","-18.7","","60","","16","","7","","32.2","","99.07","","","","-17","","Mainly Clear"
"2018-11-22 17:00","2018","11","22","17:00","-13.9","","-18.4","","69","","18","","7","","32.2","","99.03","","","","-19","","NA"
"2018-11-22 18:00","2018","11","22","18:00","-14.0","","-18.8","","68","","16","","14","","24.1","","98.98","","","","-21","","NA"
"2018-11-22 19:00","2018","11","22","19:00","-14.8","","-18.8","","72","","16","","16","","24.1","","98.96","","","","-23","","Clear"
"2018-11-22 20:00","2018","11","22","20:00","-15.9","","-19.2","","76","","16","","14","","24.1","","98.93","","","","-24","","NA"
"2018-11-22 21:00","2018","11","22","21:00","-15.9","","-18.6","","80","","14","","17","","24.1","","98.87","","","","-25","","NA"
"2018-11-22 22:00","2018","11","22","22:00","-15.7","","-18.7","","78","","14","","21","","24.1","","98.81","","","","-25","","Clear"
"2018-11-22 23:00","2018","11","22","23:00","-16.2","","-19.2","","78","","14","","21","","24.1","","98.72","","","","-26","","NA"
"2018-11-23 00:00","2018","11","23","00:00","-16.4","","-19.3","","78","","14","","22","","24.1","","98.66","","","","-26","","NA"
"2018-11-23 01:00","2018","11","23","01:00","-14.8","","-18.5","","74","","16","","23","","24.1","","98.60","","","","-25","","Mostly Cloudy"
"2018-11-23 02:00","2018","11","23","02:00","-13.0","","-16.9","","73","","15","","24","","24.1","","98.52","","","","-22","","NA"
"2018-11-23 03:00","2018","11","23","03:00","-12.0","","-15.8","","73","","15","","24","","24.1","","98.40","","","","-21","","NA"
"2018-11-23 04:00","2018","11","23","04:00","-11.2","","-15.0","","74","","15","","22","","24.1","","98.26","","","","-20","","Cloudy"
"2018-11-23 05:00","2018","11","23","05:00","-10.4","","-13.8","","77","","15","","24","","24.1","","98.19","","","","-19","","NA"
"2018-11-23 06:00","2018","11","23","06:00","-9.8","","-12.8","","79","","15","","21","","24.1","","98.08","","","","-18","","NA"
"2018-11-23 07:00","2018","11","23","07:00","-9.3","","-12.2","","80","","15","","24","","24.1","","97.98","","","","-18","","Cloudy"
"2018-11-23 08:00","2018","11","23","08:00","-8.5","","-11.7","","78","","16","","25","","32.2","","97.91","","","","-17","","NA"
"2018-11-23 09:00","2018","11","23","09:00","-8.0","","-11.3","","77","","16","","23","","32.2","","97.86","","","","-16","","NA"
"2018-11-23 10:00","2018","11","23","10:00","-7.2","","-10.7","","77","","15","","24","","32.2","","97.79","","","","-15","","Cloudy"
"2018-11-23 11:00","2018","11","23","11:00","-6.2","","-9.9","","75","","16","","25","","32.2","","97.71","","","","-14","","NA"
"2018-11-23 12:00","2018","11","23","12:00","-5.4","","-9.2","","75","","16","","21","","32.2","","97.60","","","","-12","","NA"
"2018-11-23 13:00","2018","11","23","13:00","-4.4","","-8.1","","75","","17","","22","","32.2","","97.51","","","","-11","","Cloudy"
"2018-11-23 14:00","2018","11","23","14:00","-3.1","","-6.3","","79","","17","","21","","32.2","","97.42","","","","-9","","NA"
"2018-11-23 15:00","2018","11","23","15:00","-1.0","","-3.1","","86","","19","","27","","32.2","","97.34","","","","-7","","NA"
"2018-11-23 16:00","2018","11","23","16:00","-0.5","","-2.5","","86","","18","","28","","32.2","","97.30","","","","-7","","Cloudy"
"2018-11-23 17:00","2018","11","23","17:00","0.2","","-1.8","","87","","19","","27","","24.1","","97.31","","","","","","NA"
"2018-11-23 18:00","2018","11","23","18:00","0.9","","-0.8","","88","","18","","26","","19.3","","97.26","","","","","","NA"
"2018-11-23 19:00","2018","11","23","19:00","1.2","","-0.3","","90","","18","","22","","19.3","","97.23","","","","","","Cloudy"
"2018-11-23 20:00","2018","11","23","20:00","-0.3","","-1.5","","91","","16","","18","","16.1","","97.22","","","","-5","","NA"
"2018-11-23 21:00","2018","11","23","21:00","-2.2","","-3.4","","91","","15","","20","","9.7","","97.19","","","","-8","","Fog"
"2018-11-23 22:00","2018","11","23","22:00","-2.5","","-3.8","","91","","15","","21","","9.7","","97.12","","","","-9","","Fog"
"2018-11-23 23:00","2018","11","23","23:00","-3.2","","-4.5","","91","","15","","22","","9.7","","97.08","","","","-10","","Fog"
"2018-11-24 00:00","2018","11","24","00:00","-3.1","","-4.1","","93","","16","","16","","9.7","","97.05","","","","-8","","Fog"
"2018-11-24 01:00","2018","11","24","01:00","-3.9","","-4.7","","94","","14","","18","","9.7","","97.01","","","","-10","","Fog"
"2018-11-24 02:00","2018","11","24","02:00","-4.0","","-5.0","","93","","14","","25","","16.1","","96.94","","","","-11","","NA"
"2018-11-24 03:00","2018","11","24","03:00","-3.7","","-4.8","","92","","14","","24","","16.1","","96.88","","","","-11","","NA"
"2018-11-24 04:00","2018","11","24","04:00","-4.3","","-5.3","","93","","14","","20","","16.1","","96.80","","","","-11","","Cloudy"
"2018-11-24 05:00","2018","11","24","05:00","-4.3","","-5.4","","92","","14","","23","","16.1","","96.71","","","","-11","","Snow Grains"
"2018-11-24 06:00","2018","11","24","06:00","-4.0","","-5.4","","90","","14","","26","","24.1","","96.66","","","","-11","","NA"
"2018-11-24 07:00","2018","11","24","07:00","-4.1","","-5.5","","90","","14","","18","","24.1","","96.64","","","","-10","","Mostly Cloudy"
"2018-11-24 08:00","2018","11","24","08:00","-4.1","","-5.4","","91","","13","","19","","24.1","","96.59","","","","-10","","NA"
"2018-11-24 09:00","2018","11","24","09:00","-3.0","","-4.8","","88","","13","","22","","32.2","","96.51","","","","-9","","NA"
"2018-11-24 10:00","2018","11","24","10:00","-2.0","","-4.2","","85","","12","","17","","32.2","","96.43","","","","-7","","Cloudy"
"2018-11-24 11:00","2018","11","24","11:00","0.1","","-3.5","","77","","15","","24","","32.2","","96.34","","","","","","NA"
"2018-11-24 12:00","2018","11","24","12:00","0.8","","-3.2","","75","","11","","19","","32.2","","96.15","","","","","","NA"
"2018-11-24 13:00","2018","11","24","13:00","0.9","","-2.9","","76","","14","","17","","32.2","","96.10","","","","","","Cloudy"
"2018-11-24 14:00","2018","11","24","14:00","1.0","","-2.0","","80","","13","","17","","32.2","","96.03","","","","","","NA"
"2018-11-24 15:00","2018","11","24","15:00","0.7","","-0.7","","90","","13","","21","","8.1","","96.00","","","","","","Rain,Snow"
"2018-11-24 16:00","2018","11","24","16:00","0.8","","0.0","","95","","14","","22","","6.4","","95.98","","","","","","Drizzle"
"2018-11-24 17:00","2018","11","24","17:00","0.9","","0.5","","97","","15","","23","","4.8","","95.97","","","","","","Drizzle,Fog"
"2018-11-24 18:00","2018","11","24","18:00","0.9","","0.5","","97","","15","","22","","4.0","","95.98","","","","","","Rain,Snow,Fog"
"2018-11-24 19:00","2018","11","24","19:00","0.8","","0.4","","98","","14","","21","","4.0","","95.95","","","","","","Rain,Snow,Fog"
"2018-11-24 20:00","2018","11","24","20:00","0.9","","0.6","","98","","14","","20","","1.6","","95.92","","","","","","Drizzle,Fog"
"2018-11-24 21:00","2018","11","24","21:00","0.9","","0.6","","98","","14","","19","","1.6","","95.89","","","","","","Drizzle,Fog"
"2018-11-24 22:00","2018","11","24","22:00","1.1","","0.7","","98","","14","","24","","0.8","","95.88","","","","","","Rain,Fog"
"2018-11-24 23:00","2018","11","24","23:00","1.1","","0.8","","98","","14","","20","","3.2","","95.87","","","","","","Rain,Fog"
"2018-11-25 00:00","2018","11","25","00:00","1.1","","0.8","","98","","13","","20","","0.8","","95.86","","","","","","Rain,Fog"
"2018-11-25 01:00","2018","11","25","01:00","1.2","","0.9","","98","","13","","21","","0.8","","95.86","","","","","","Rain,Fog"
"2018-11-25 02:00","2018","11","25","02:00","1.4","","1.1","","98","","14","","20","","0.8","","95.88","","","","","","Rain,Fog"
"2018-11-25 03:00","2018","11","25","03:00","1.3","","1.0","","98","","14","","17","","0.8","","95.91","","","","","","Rain,Fog"
"2018-11-25 04:00","2018","11","25","04:00","1.3","","1.0","","98","","15","","14","","0.8","","95.92","","","","","","Rain,Fog"
"2018-11-25 05:00","2018","11","25","05:00","1.2","","0.9","","98","","16","","14","","0.6","","95.97","","","","","","Rain,Fog"
"2018-11-25 06:00","2018","11","25","06:00","1.2","","1.0","","98","","18","","12","","0.6","","96.01","","","","","","Drizzle,Fog"
"2018-11-25 07:00","2018","11","25","07:00","1.6","","1.4","","98","","23","","13","","0.4","","96.08","","","","","","Drizzle,Fog"
"2018-11-25 08:00","2018","11","25","08:00","1.9","","1.6","","98","","25","","12","","1.6","","96.14","","","","","","Fog"
"2018-11-25 09:00","2018","11","25","09:00","1.9","","1.6","","98","","25","","12","","24.1","","96.21","","","","","","NA"
"2018-11-25 10:00","2018","11","25","10:00","2.0","","1.7","","98","","25","","13","","32.2","","96.28","","","","","","Cloudy"
"2018-11-25 11:00","2018","11","25","11:00","2.4","","1.8","","96","","25","","11","","32.2","","96.33","","","","","","NA"
"2018-11-25 12:00","2018","11","25","12:00","2.3","","1.2","","92","","23","","16","","32.2","","96.39","","","","","","NA"
"2018-11-25 13:00","2018","11","25","13:00","2.0","","1.3","","95","","22","","13","","12.9","","96.41","","","","","","Cloudy"
"2018-11-25 14:00","2018","11","25","14:00","1.6","","1.2","","98","","22","","15","","0.4","","96.45","","","","","","Drizzle,Fog"
"2018-11-25 15:00","2018","11","25","15:00","1.6","","1.2","","98","","23","","14","","1.2","","96.51","","","","","","Drizzle,Fog"
"2018-11-25 16:00","2018","11","25","16:00","1.4","","1.1","","98","","23","","15","","1.6","","96.59","","","","","","Drizzle,Fog"
"2018-11-25 17:00","2018","11","25","17:00","1.3","","0.9","","97","","22","","14","","16.1","","96.65","","","","","","NA"
"2018-11-25 18:00","2018","11","25","18:00","1.0","","0.6","","97","","22","","14","","16.1","","96.66","","","","","","NA"
"2018-11-25 19:00","2018","11","25","19:00","0.8","","0.3","","96","","22","","18","","12.9","","96.68","","","","","","Cloudy"
"2018-11-25 20:00","2018","11","25","20:00","0.3","","-0.1","","97","","22","","10","","9.7","","96.68","","","","","","Snow"
"2018-11-25 21:00","2018","11","25","21:00","0.0","","-0.4","","97","","23","","11","","9.7","","96.67","","","","-4","","Snow"
"2018-11-25 22:00","2018","11","25","22:00","-0.2","","-0.6","","97","","22","","15","","6.4","","96.63","","","","-5","","Snow"
"2018-11-25 23:00","2018","11","25","23:00","-0.4","","-0.8","","97","","22","","12","","6.4","","96.65","","","","-4","","Snow"
"2018-11-26 00:00","2018","11","26","00:00","-0.6","","-1.0","","97","","24","","8","","4.8","","96.66","","","","-3","","Snow"
"2018-11-26 01:00","2018","11","26","01:00","-0.9","","-1.2","","97","","27","","6","","6.4","","96.70","","","","-3","","Snow"
"2018-11-26 02:00","2018","11","26","02:00","-1.1","","-1.6","","96","","33","","5","","24.1","","96.67","","","","-3","","NA"
"2018-11-26 03:00","2018","11","26","03:00","-1.0","","-1.7","","95","","34","","8","","9.7","","96.69","","","","-4","","Snow"
"2018-11-26 04:00","2018","11","26","04:00","-1.5","","-2.3","","94","","34","","9","","12.9","","96.68","","","","-5","","Snow"
"2018-11-26 05:00","2018","11","26","05:00","-1.8","","-2.8","","93","","2","","20","","8.1","","96.59","","","","-8","","Snow"
"2018-11-26 06:00","2018","11","26","06:00","-2.3","","-3.3","","93","","36","","15","","9.7","","96.63","","","","-7","","Snow"
"2018-11-26 07:00","2018","11","26","07:00","-2.5","","-3.5","","93","","1","","16","","24.1","","96.59","","","","-8","","Snow"
"2018-11-26 08:00","2018","11","26","08:00","-3.1","","-3.9","","94","","1","","16","","3.2","","96.59","","","","-8","","Snow"
"2018-11-26 09:00","2018","11","26","09:00","-2.9","","-3.8","","94","","1","","22","","3.2","","96.57","","","","-9","","Snow"
"2018-11-26 10:00","2018","11","26","10:00","-2.9","","-3.9","","93","","1","","20","","3.2","","96.57","","","","-9","","Snow"
"2018-11-26 11:00","2018","11","26","11:00","-2.4","","-3.6","","92","","4","","22","","8.1","","96.52","","","","-9","","Snow"
"2018-11-26 12:00","2018","11","26","12:00","-2.5","","-3.6","","92","","2","","26","","16.1","","96.41","","","","-9","","Snow"
"2018-11-26 13:00","2018","11","26","13:00","-2.5","","-3.5","","93","","3","","29","","16.1","","96.32","","","","-10","","Snow"
"2018-11-26 14:00","2018","11","26","14:00","-2.5","","-3.6","","92","","3","","24","","24.1","","96.28","","","","-9","","Snow"
"2018-11-26 15:00","2018","11","26","15:00","-2.4","","-3.6","","92","","1","","18","","3.2","","96.27","","","","-8","","Snow,Blowing Snow"
"2018-11-26 16:00","2018","11","26","16:00","-2.7","","-3.7","","93","","1","","27","","1.2","","96.27","","","","-10","","Snow,Blowing Snow"
"2018-11-26 17:00","2018","11","26","17:00","-3.2","","-4.1","","93","","2","","28","","1.2","","96.25","","","","-10","","Snow,Blowing Snow"
"2018-11-26 18:00","2018","11","26","18:00","-3.5","","-4.5","","93","","1","","26","","1.6","","96.25","","","","-11","","Snow,Blowing Snow"
"2018-11-26 19:00","2018","11","26","19:00","-3.9","","-5.0","","92","","36","","26","","1.6","","96.22","","","","-11","","Snow,Blowing Snow"
"2018-11-26 20:00","2018","11","26","20:00","-4.3","","-5.6","","91","","36","","27","","3.2","","96.18","","","","-12","","Snow,Blowing Snow"
"2018-11-26 21:00","2018","11","26","21:00","-4.5","","-5.7","","92","","36","","24","","1.2","","96.14","","","","-12","","Snow,Blowing Snow"
"2018-11-26 22:00","2018","11","26","22:00","-4.7","","-6.1","","90","","36","","27","","3.2","","96.09","","","","-12","","Snow,Blowing Snow"
"2018-11-26 23:00","2018","11","26","23:00","-4.9","","-6.4","","90","","36","","25","","3.2","","96.05","","","","-12","","Snow,Blowing Snow"
"2018-11-27 00:00","2018","11","27","00:00","-5.2","","-6.6","","90","","36","","24","","3.2","","96.03","","","","-12","","Snow,Blowing Snow"
"2018-11-27 01:00","2018","11","27","01:00","-5.5","","-6.9","","90","","36","","23","","3.2","","96.01","","","","-13","","Snow,Blowing Snow"
"2018-11-27 02:00","2018","11","27","02:00","-5.7","","-7.3","","89","","35","","28","","1.6","","96.00","","","","-14","","Snow,Blowing Snow"
"2018-11-27 03:00","2018","11","27","03:00","-6.0","","-7.6","","88","","35","","26","","1.6","","96.01","","","","-14","","Snow,Blowing Snow"
"2018-11-27 04:00","2018","11","27","04:00","-6.5","","-8.3","","87","","35","","25","","3.2","","96.01","","","","-14","","Snow,Blowing Snow"
"2018-11-27 05:00","2018","11","27","05:00","-7.1","","-9.0","","87","","34","","24","","3.2","","96.03","","","","-15","","Snow,Blowing Snow"
"2018-11-27 06:00","2018","11","27","06:00","-7.4","","-9.5","","85","","35","","28","","3.2","","96.04","","","","-16","","Snow,Blowing Snow"
"2018-11-27 07:00","2018","11","27","07:00","-7.8","","-9.7","","86","","36","","30","","3.2","","96.05","","","","-17","","Snow"
"2018-11-27 08:00","2018","11","27","08:00","-8.1","","-10.0","","86","","35","","31","","2.4","","96.07","","","","-17","","Snow,Blowing Snow"
"2018-11-27 09:00","2018","11","27","09:00","-8.1","","-9.9","","87","","35","","22","","2.4","","96.09","","","","-16","","Snow,Blowing Snow"
"2018-11-27 10:00","2018","11","27","10:00","-8.0","","-10.3","","84","","35","","26","","3.2","","96.10","","","","-16","","Snow,Blowing Snow"
"2018-11-27 11:00","2018","11","27","11:00","-7.6","","-10.0","","83","","35","","26","","3.2","","96.08","","","","-16","","Snow,Blowing Snow"
"2018-11-27 12:00","2018","11","27","12:00","-7.3","","-9.9","","82","","35","","30","","3.2","","96.04","","","","-16","","Snow,Blowing Snow"
"2018-11-27 13:00","2018","11","27","13:00","-7.3","","-9.8","","82","","35","","27","","4.0","","96.02","","","","-16","","Snow,Blowing Snow"
"2018-11-27 14:00","2018","11","27","14:00","-7.2","","-9.5","","84","","34","","25","","3.2","","96.03","","","","-15","","Snow,Blowing Snow"
"2018-11-27 15:00","2018","11","27","15:00","-7.0","","-9.6","","81","","35","","28","","3.2","","96.05","","","","-15","","Snow,Blowing Snow"
"2018-11-27 16:00","2018","11","27","16:00","-7.3","","-9.4","","85","","35","","26","","2.4","","96.09","","","","-15","","Snow,Blowing Snow"
"2018-11-27 17:00","2018","11","27","17:00","-7.5","","-9.6","","85","","35","","19","","4.8","","96.11","","","","-15","","Snow,Blowing Snow"
"2018-11-27 18:00","2018","11","27","18:00","-7.4","","-9.5","","85","","35","","21","","3.2","","96.16","","","","-15","","Snow,Blowing Snow"
"2018-11-27 19:00","2018","11","27","19:00","-7.3","","-9.2","","87","","35","","23","","3.2","","96.16","","","","-15","","Snow,Blowing Snow"
"2018-11-27 20:00","2018","11","27","20:00","-7.3","","-9.1","","87","","35","","21","","2.8","","96.16","","","","-15","","Snow,Blowing Snow"
"2018-11-27 21:00","2018","11","27","21:00","-7.3","","-9.1","","87","","35","","19","","4.0","","96.17","","","","-14","","Snow,Blowing Snow"
"2018-11-27 22:00","2018","11","27","22:00","-7.3","","-9.3","","86","","34","","19","","4.0","","96.18","","","","-14","","Snow,Blowing Snow"
"2018-11-27 23:00","2018","11","27","23:00","-7.4","","-9.3","","86","","34","","20","","4.0","","96.18","","","","-15","","Snow,Blowing Snow"
"2018-11-28 00:00","2018","11","28","00:00","-7.2","","-9.4","","85","","33","","17","","4.8","","96.18","","","","-14","","Snow,Blowing Snow"
"2018-11-28 01:00","2018","11","28","01:00","-7.0","","-9.1","","85","","34","","20","","24.1","","96.17","","","","-14","","Snow,Blowing Snow"
"2018-11-28 02:00","2018","11","28","02:00","-7.0","","-8.9","","86","","33","","21","","24.1","","96.20","","","","-14","","Snow,Blowing Snow"
"2018-11-28 03:00","2018","11","28","03:00","-7.2","","-9.2","","86","","34","","21","","24.1","","96.24","","","","-15","","Snow,Blowing Snow"
"2018-11-28 04:00","2018","11","28","04:00","-7.3","","-9.1","","87","","33","","14","","24.1","","96.26","","","","-13","","Snow"
"2018-11-28 05:00","2018","11","28","05:00","-6.4","","-8.2","","87","","34","","16","","24.1","","96.29","","","","-13","","Snow"
"2018-11-28 06:00","2018","11","28","06:00","-6.0","","-7.6","","88","","34","","21","","24.1","","96.32","","","","-13","","Snow"
"2018-11-28 07:00","2018","11","28","07:00","-5.8","","-7.4","","89","","32","","23","","24.1","","96.40","","","","-13","","Snow"
"2018-11-28 08:00","2018","11","28","08:00","-5.8","","-7.4","","88","","33","","21","","24.1","","96.43","","","","-13","","Snow"
"2018-11-28 09:00","2018","11","28","09:00","-5.5","","-7.3","","87","","32","","20","","32.2","","96.50","","","","-12","","Snow"
"2018-11-28 10:00","2018","11","28","10:00","-4.8","","-7.1","","84","","33","","27","","32.2","","96.52","","","","-12","","Blowing Snow"
"2018-11-28 11:00","2018","11","28","11:00","-3.7","","-6.4","","81","","32","","26","","32.2","","96.56","","","","-11","","Blowing Snow"
"2018-11-28 12:00","2018","11","28","12:00","-3.3","","-5.9","","82","","33","","23","","32.2","","96.58","","","","-10","","Blowing Snow"
"2018-11-28 13:00","2018","11","28","13:00","-2.2","","-5.1","","81","","33","","18","","32.2","","96.56","","","","-8","","Blowing Snow"
"2018-11-28 14:00","2018","11","28","14:00","-2.1","","-4.9","","81","","33","","18","","32.2","","96.59","","","","-8","","NA"
"2018-11-28 15:00","2018","11","28","15:00","-2.2","","-4.8","","82","","33","","21","","32.2","","96.65","","","","-8","","NA"
"2018-11-28 16:00","2018","11","28","16:00","-2.5","","-4.6","","85","","33","","18","","32.2","","96.71","","","","-8","","Cloudy"
"2018-11-28 17:00","2018","11","28","17:00","-2.6","","-4.4","","87","","32","","21","","32.2","","96.78","","","","-9","","NA"
"2018-11-28 18:00","2018","11","28","18:00","-2.5","","-4.2","","88","","32","","14","","24.1","","96.86","","","","-7","","Snow Showers"
"2018-11-28 19:00","2018","11","28","19:00","-2.5","","-4.2","","89","","33","","18","","24.1","","96.90","","","","-8","","Snow Showers"
"2018-11-28 20:00","2018","11","28","20:00","-2.7","","-4.4","","88","","32","","18","","24.1","","96.91","","","","-8","","NA"
"2018-11-28 21:00","2018","11","28","21:00","-3.3","","-5.0","","88","","33","","14","","24.1","","96.93","","","","-8","","NA"
"2018-11-28 22:00","2018","11","28","22:00","-3.1","","-4.7","","89","","34","","17","","24.1","","96.96","","","","-9","","Cloudy"
"2018-11-28 23:00","2018","11","28","23:00","-3.0","","-4.6","","89","","35","","16","","24.1","","96.98","","","","-8","","NA"
"2018-11-29 00:00","2018","11","29","00:00","-3.1","","-4.6","","90","","34","","11","","24.1","","97.03","","","","-7","","NA"
"2018-11-29 01:00","2018","11","29","01:00","-3.2","","-4.8","","89","","34","","15","","24.1","","97.04","","","","-8","","Cloudy"
"2018-11-29 02:00","2018","11","29","02:00","-3.2","","-4.9","","88","","32","","12","","24.1","","97.09","","","","-8","","Snow"
"2018-11-29 03:00","2018","11","29","03:00","-3.5","","-4.7","","91","","31","","8","","24.1","","97.15","","","","-7","","Snow"
"2018-11-29 04:00","2018","11","29","04:00","-3.5","","-4.7","","91","","31","","10","","24.1","","97.17","","","","-7","","Snow"
"2018-11-29 05:00","2018","11","29","05:00","-3.6","","-4.8","","92","","31","","10","","24.1","","97.19","","","","-8","","Snow"
"2018-11-29 06:00","2018","11","29","06:00","-3.7","","-5.0","","91","","31","","11","","24.1","","97.20","","","","-8","","NA"
"2018-11-29 07:00","2018","11","29","07:00","-3.9","","-5.0","","92","","35","","5","","24.1","","97.22","","","","-6","","Cloudy"
"2018-11-29 08:00","2018","11","29","08:00","-4.1","","-5.1","","93","","31","","8","","32.2","","97.27","","","","-8","","NA"
"2018-11-29 09:00","2018","11","29","09:00","-3.7","","-4.7","","93","","29","","4","","32.2","","97.34","","","","-5","","NA"
"2018-11-29 10:00","2018","11","29","10:00","-3.2","","-4.8","","89","","2","","3","","32.2","","97.34","","","","-4","","Cloudy"
"2018-11-29 11:00","2018","11","29","11:00","-2.9","","-4.8","","86","","5","","8","","32.2","","97.32","","","","-6","","NA"
"2018-11-29 12:00","2018","11","29","12:00","-2.4","","-4.8","","84","","22","","4","","32.2","","97.27","","","","-4","","NA"
"2018-11-29 13:00","2018","11","29","13:00","-2.0","","-4.7","","82","","36","","2","","32.2","","97.27","","","","-3","","Cloudy"
"2018-11-29 14:00","2018","11","29","14:00","-1.6","","-4.9","","79","","22","","8","","32.2","","97.25","","","","-5","","NA"
"2018-11-29 15:00","2018","11","29","15:00","-1.6","","-4.6","","80","","21","","4","","32.2","","97.25","","","","-3","","NA"
"2018-11-29 16:00","2018","11","29","16:00","-2.0","","-4.8","","81","","21","","4","","32.2","","97.27","","","","-3","","Mostly Cloudy"
"2018-11-29 17:00","2018","11","29","17:00","-4.5","","-5.6","","92","","36","","2","","32.2","","97.28","","","","-5","","NA"
"2018-11-29 18:00","2018","11","29","18:00","-3.2","","-5.0","","87","","36","","2","","24.1","","97.30","","","","-4","","NA"
"2018-11-29 19:00","2018","11","29","19:00","-3.8","","-5.5","","88","","31","","5","","24.1","","97.31","","","","-6","","Cloudy"
"2018-11-29 20:00","2018","11","29","20:00","-2.1","","-4.2","","85","","36","","2","","24.1","","97.33","","","","-3","","NA"
"2018-11-29 21:00","2018","11","29","21:00","-3.1","","-4.6","","89","","21","","5","","24.1","","97.33","","","","-5","","NA"
"2018-11-29 22:00","2018","11","29","22:00","-2.7","","-4.3","","89","","36","","1","","24.1","","97.31","","","","-3","","Cloudy"
"2018-11-29 23:00","2018","11","29","23:00","-2.8","","-4.2","","91","","15","","5","","24.1","","97.29","","","","-5","","NA"
"2018-11-30 00:00","2018","11","30","00:00","-3.1","","-4.5","","90","","13","","7","","24.1","","97.27","","","","-6","","NA"
"2018-11-30 01:00","2018","11","30","01:00","-3.7","","-4.7","","93","","12","","7","","24.1","","97.22","","","","-7","","Cloudy"
"2018-11-30 02:00","2018","11","30","02:00","-3.6","","-4.5","","94","","14","","9","","24.1","","97.25","","","","-7","","NA"
"2018-11-30 03:00","2018","11","30","03:00","-3.7","","-4.5","","95","","15","","9","","24.1","","97.30","","","","-7","","NA"
"2018-11-30 04:00","2018","11","30","04:00","-3.8","","-4.5","","95","","14","","12","","24.1","","97.32","","","","-8","","Cloudy"
"2018-11-30 05:00","2018","11","30","05:00","-3.9","","-4.4","","96","","11","","9","","24.1","","97.29","","","","-8","","NA"
"2018-11-30 06:00","2018","11","30","06:00","-3.9","","-4.3","","97","","22","","4","","0.8","","97.31","","","","-6","","Snow,Freezing Fog"
"2018-11-30 07:00","2018","11","30","07:00","-3.7","","-4.2","","97","","10","","5","","4.0","","97.34","","","","-6","","Snow"
"2018-11-30 08:00","2018","11","30","08:00","-4.0","","-4.5","","96","","10","","8","","4.0","","97.33","","","","-7","","Snow"
"2018-11-30 09:00","2018","11","30","09:00","-3.5","","-4.0","","96","","12","","9","","9.7","","97.35","","","","-7","","Snow"
"2018-11-30 10:00","2018","11","30","10:00","-3.3","","-3.9","","96","","14","","12","","12.9","","97.38","","","","-8","","Snow"
"2018-11-30 11:00","2018","11","30","11:00","-2.9","","-3.7","","94","","16","","6","","9.7","","97.42","","","","-5","","Snow"
"2018-11-30 12:00","2018","11","30","12:00","-2.4","","-3.4","","93","","18","","7","","24.1","","97.40","","","","-5","","Snow"
"2018-11-30 13:00","2018","11","30","13:00","-1.8","","-3.2","","91","","17","","8","","32.2","","97.38","","","","-5","","Cloudy"
"2018-11-30 14:00","2018","11","30","14:00","-1.5","","-3.1","","89","","16","","8","","24.1","","97.40","","","","-5","","NA"
"2018-11-30 15:00","2018","11","30","15:00","-1.3","","-3.1","","88","","17","","8","","24.1","","97.43","","","","-4","","NA"
"2018-11-30 16:00","2018","11","30","16:00","-1.3","","-2.8","","89","","16","","8","","24.1","","97.46","","","","-4","","Cloudy"
"2018-11-30 17:00","2018","11","30","17:00","-1.3","","-2.6","","91","","17","","10","","24.1","","97.50","","","","-5","","NA"
"2018-11-30 18:00","2018","11","30","18:00","-1.4","","-2.3","","93","","17","","10","","24.1","","97.52","","","","-5","","Snow"
"2018-11-30 19:00","2018","11","30","19:00","-1.3","","-2.1","","94","","17","","14","","24.1","","97.53","","","","-6","","Snow"
"2018-11-30 20:00","2018","11","30","20:00","-1.2","","-1.9","","95","","19","","12","","16.1","","97.57","","","","-5","","Snow"
"2018-11-30 21:00","2018","11","30","21:00","-1.2","","-1.8","","96","","22","","9","","24.1","","97.59","","","","-4","","NA"
"2018-11-30 22:00","2018","11","30","22:00","-1.4","","-1.9","","97","","22","","7","","24.1","","97.65","","","","-4","","Cloudy"
"2018-11-30 23:00","2018","11","30","23:00","-1.2","","-1.7","","97","","36","","2","","24.1","","97.68","","","","-2","","NA"
