"Station Name","SUDBURY A"
"Province","ONTARIO"
"Latitude","46.63"
"Longitude","-80.80"
"Elevation","348.40"
"Climate Identifier","6068153"
"WMO Identifier","71730"
"TC Identifier","YSB"
"All times are specified in Local Standard Time (LST). Add 1 hour to adjust for Daylight Saving Time where and when it is observed."

"Legend"
"E","Estimated"
"M","Missing"
"NA","Not Available"

"Date/Time","Year","Month","Day","Time","Temp (°C)","Temp Flag","Dew Point Temp (°C)","Dew Point Temp Flag","Rel Hum (%)","Rel Hum Flag","Wind Dir (10s deg)","Wind Dir Flag","Wind Spd (km/h)","Wind Spd Flag","Visibility (km)","Visibility Flag","Stn Press (kPa)","Stn Press Flag","Hmdx","Hmdx Flag","Wind Chill","Wind Chill Flag","Weather"
"2016-01-01 00:00","2016","01","01","00:00","-4.6","","-5.1","","96","","23","","13","","9.7","","96.96","","","","-10","","Snow"
"2016-01-01 01:00","2016","01","01","01:00","-4.2","","-5.2","","93","","23","","13","","8.1","","96.90","","","","-9","","Snow"
"2016-01-01 02:00","2016","01","01","02:00","-4.2","","-5.3","","92","","24","","10","","24.1","","96.86","","","","-8","","Snow"
"2016-01-01 03:00","2016","01","01","03:00","-4.0","","-5.3","","91","","24","","14","","24.1","","96.85","","","","-9","","Snow"
"2016-01-01 04:00","2016","01","01","04:00","-4.0","","-5.4","","90","","25","","13","","24.1","","96.79","","","","-9","","Snow"
"2016-01-01 05:00","2016","01","01","05:00","-4.2","","-6.1","","87","","27","","17","","24.1","","96.74","","","","-10","","Snow"
"2016-01-01 06:00","2016","01","01","06:00","-4.7","","-8.8","","73","","27","","21","","24.1","","96.71","","","","-11","","Snow,Blowing Snow"
"2016-01-01 07:00","2016","01","01","07:00","-5.1","","-9.8","","70","","25","","19","","24.1","","96.72","","","","-12","","Snow,Blowing Snow"
"2016-01-01 08:00","2016","01","01","08:00","-5.6","","-10.2","","70","","24","","16","","24.1","","96.68","","","","-12","","Snow"
"2016-01-01 09:00","2016","01","01","09:00","-6.1","","-10.2","","73","","24","","18","","32.2","","96.69","","","","-13","","NA"
"2016-01-01 10:00","2016","01","01","10:00","-6.5","","-10.1","","76","","26","","20","","32.2","","96.71","","","","-13","","Snow"
"2016-01-01 11:00","2016","01","01","11:00","-6.5","","-9.2","","81","","25","","16","","8.1","","96.74","","","","-13","","Snow,Blowing Snow"
"2016-01-01 12:00","2016","01","01","12:00","-5.8","","-8.9","","79","","26","","20","","24.1","","96.70","","","","-13","","Snow,Blowing Snow"
"2016-01-01 13:00","2016","01","01","13:00","-4.9","","-8.5","","76","","25","","19","","32.2","","96.68","","","","-11","","Snow,Blowing Snow"
"2016-01-01 14:00","2016","01","01","14:00","-3.8","","-8.1","","72","","25","","13","","32.2","","96.68","","","","-9","","Snow,Blowing Snow"
"2016-01-01 15:00","2016","01","01","15:00","-3.8","","-8.3","","71","","28","","18","","24.1","","96.68","","","","-10","","Snow,Blowing Snow"
"2016-01-01 16:00","2016","01","01","16:00","-4.1","","-8.1","","74","","27","","20","","32.2","","96.74","","","","-10","","Snow,Blowing Snow"
"2016-01-01 17:00","2016","01","01","17:00","-4.5","","-7.3","","81","","26","","13","","32.2","","96.81","","","","-10","","Snow"
"2016-01-01 18:00","2016","01","01","18:00","-4.7","","-7.5","","81","","26","","14","","24.1","","96.86","","","","-10","","NA"
"2016-01-01 19:00","2016","01","01","19:00","-5.8","","-7.6","","87","","24","","12","","24.1","","96.88","","","","-11","","Mainly Clear"
"2016-01-01 20:00","2016","01","01","20:00","-7.4","","-8.5","","92","","24","","11","","24.1","","96.90","","","","-12","","NA"
"2016-01-01 21:00","2016","01","01","21:00","-7.5","","-8.3","","94","","24","","9","","24.1","","96.93","","","","-12","","NA"
"2016-01-01 22:00","2016","01","01","22:00","-5.7","","-7.1","","90","","26","","14","","24.1","","96.95","","","","-11","","Mostly Cloudy"
"2016-01-01 23:00","2016","01","01","23:00","-4.7","","-7.2","","83","","25","","15","","24.1","","96.93","","","","-10","","NA"
"2016-01-02 00:00","2016","01","02","00:00","-4.4","","-7.0","","82","","22","","17","","24.1","","96.94","","","","-10","","NA"
"2016-01-02 01:00","2016","01","02","01:00","-5.0","","-7.3","","84","","25","","15","","24.1","","96.90","","","","-11","","Cloudy"
"2016-01-02 02:00","2016","01","02","02:00","-4.1","","-7.7","","76","","25","","18","","24.1","","96.81","","","","-10","","NA"
"2016-01-02 03:00","2016","01","02","03:00","-4.4","","-7.2","","81","","24","","15","","24.1","","96.80","","","","-10","","NA"
"2016-01-02 04:00","2016","01","02","04:00","-4.4","","-6.7","","84","","23","","15","","24.1","","96.75","","","","-10","","Cloudy"
"2016-01-02 05:00","2016","01","02","05:00","-4.2","","-6.2","","86","","23","","15","","24.1","","96.68","","","","-10","","NA"
"2016-01-02 06:00","2016","01","02","06:00","-4.2","","-5.9","","88","","26","","17","","24.1","","96.67","","","","-10","","NA"
"2016-01-02 07:00","2016","01","02","07:00","-4.1","","-5.8","","88","","25","","16","","24.1","","96.68","","","","-10","","Freezing Drizzle,Snow"
"2016-01-02 08:00","2016","01","02","08:00","-4.2","","-5.6","","90","","23","","16","","8.1","","96.68","","","","-10","","Freezing Drizzle,Snow"
"2016-01-02 09:00","2016","01","02","09:00","-4.3","","-5.9","","89","","24","","19","","16.1","","96.68","","","","-10","","Snow"
"2016-01-02 10:00","2016","01","02","10:00","-4.2","","-5.8","","89","","24","","16","","19.3","","96.66","","","","-10","","Cloudy"
"2016-01-02 11:00","2016","01","02","11:00","-4.1","","-5.8","","88","","25","","19","","16.1","","96.66","","","","-10","","Snow"
"2016-01-02 12:00","2016","01","02","12:00","-4.0","","-5.9","","87","","26","","16","","19.3","","96.54","","","","-10","","Snow"
"2016-01-02 13:00","2016","01","02","13:00","-3.7","","-5.9","","85","","26","","20","","24.1","","96.49","","","","-10","","Snow"
"2016-01-02 14:00","2016","01","02","14:00","-3.5","","-5.7","","85","","25","","18","","19.3","","96.41","","","","-9","","NA"
"2016-01-02 15:00","2016","01","02","15:00","-3.1","","-5.3","","85","","25","","18","","24.1","","96.30","","","","-9","","NA"
"2016-01-02 16:00","2016","01","02","16:00","-3.0","","-5.0","","86","","25","","20","","24.1","","96.33","","","","-9","","Cloudy"
"2016-01-02 17:00","2016","01","02","17:00","-2.9","","-4.8","","87","","23","","13","","24.1","","96.23","","","","-8","","NA"
"2016-01-02 18:00","2016","01","02","18:00","-2.7","","-4.6","","87","","21","","17","","24.1","","96.17","","","","-8","","NA"
"2016-01-02 19:00","2016","01","02","19:00","-2.4","","-4.3","","87","","21","","18","","24.1","","96.13","","","","-8","","Cloudy"
"2016-01-02 20:00","2016","01","02","20:00","-2.5","","-4.5","","86","","23","","23","","24.1","","96.12","","","","-9","","NA"
"2016-01-02 21:00","2016","01","02","21:00","-2.6","","-4.6","","86","","22","","16","","24.1","","96.06","","","","-8","","NA"
"2016-01-02 22:00","2016","01","02","22:00","-2.7","","-4.4","","88","","20","","14","","19.3","","95.97","","","","-8","","Freezing Drizzle"
"2016-01-02 23:00","2016","01","02","23:00","-2.8","","-4.1","","91","","21","","9","","24.1","","95.90","","","","-6","","Freezing Drizzle"
"2016-01-03 00:00","2016","01","03","00:00","-3.1","","-3.9","","94","","29","","7","","24.1","","95.87","","","","-6","","Freezing Drizzle"
"2016-01-03 01:00","2016","01","03","01:00","-3.3","","-4.1","","94","","30","","9","","9.7","","95.84","","","","-7","","Snow"
"2016-01-03 02:00","2016","01","03","02:00","-3.6","","-4.2","","96","","29","","10","","6.4","","95.89","","","","-8","","Snow"
"2016-01-03 03:00","2016","01","03","03:00","-3.9","","-5.3","","90","","35","","30","","8.1","","96.04","","","","-12","","Snow,Blowing Snow"
"2016-01-03 04:00","2016","01","03","04:00","-5.6","","-8.2","","82","","1","","33","","6.4","","96.16","","","","-14","","Snow,Blowing Snow"
"2016-01-03 05:00","2016","01","03","05:00","-6.7","","-9.3","","82","","36","","26","","19.3","","96.31","","","","-15","","Snow,Blowing Snow"
"2016-01-03 06:00","2016","01","03","06:00","-7.7","","-10.6","","80","","36","","29","","16.1","","96.43","","","","-16","","Snow,Blowing Snow"
"2016-01-03 07:00","2016","01","03","07:00","-9.2","","-12.0","","80","","36","","25","","12.9","","96.65","","","","-18","","Snow,Blowing Snow"
"2016-01-03 08:00","2016","01","03","08:00","-11.0","","-14.3","","77","","35","","25","","19.3","","96.79","","","","-20","","Snow,Blowing Snow"
"2016-01-03 09:00","2016","01","03","09:00","-12.5","","-15.9","","76","","36","","18","","32.2","","96.97","","","","-21","","Snow,Blowing Snow"
"2016-01-03 10:00","2016","01","03","10:00","-13.6","","-17.8","","71","","35","","31","","32.2","","97.10","","","","-24","","Snow,Blowing Snow"
"2016-01-03 11:00","2016","01","03","11:00","-13.7","","-18.4","","68","","1","","26","","32.2","","97.17","","","","-24","","Snow,Blowing Snow"
"2016-01-03 12:00","2016","01","03","12:00","-14.0","","-19.2","","65","","35","","27","","32.2","","97.18","","","","-24","","Snow,Blowing Snow"
"2016-01-03 13:00","2016","01","03","13:00","-13.5","","-19.1","","63","","34","","22","","32.2","","97.20","","","","-23","","Snow,Blowing Snow"
"2016-01-03 14:00","2016","01","03","14:00","-13.6","","-19.4","","62","","36","","22","","32.2","","97.26","","","","-23","","Blowing Snow"
"2016-01-03 15:00","2016","01","03","15:00","-13.2","","-19.0","","62","","35","","23","","32.2","","97.32","","","","-23","","Blowing Snow"
"2016-01-03 16:00","2016","01","03","16:00","-13.9","","-20.1","","60","","33","","17","","32.2","","97.42","","","","-22","","Blowing Snow"
"2016-01-03 17:00","2016","01","03","17:00","-15.2","","-20.4","","65","","35","","16","","32.2","","97.48","","","","-23","","NA"
"2016-01-03 18:00","2016","01","03","18:00","-16.2","","-20.5","","70","","35","","23","","24.1","","97.62","","","","-26","","NA"
"2016-01-03 19:00","2016","01","03","19:00","-16.3","","-20.2","","72","","36","","23","","16.1","","97.71","","","","-26","","Blowing Snow"
"2016-01-03 20:00","2016","01","03","20:00","-16.9","","-20.7","","73","","36","","21","","16.1","","97.78","","","","-27","","Blowing Snow"
"2016-01-03 21:00","2016","01","03","21:00","-17.3","","-20.9","","74","","2","","19","","16.1","","97.84","","","","-27","","Blowing Snow"
"2016-01-03 22:00","2016","01","03","22:00","-17.5","","-21.4","","72","","2","","23","","16.1","","97.93","","","","-28","","Blowing Snow"
"2016-01-03 23:00","2016","01","03","23:00","-17.6","","-21.3","","73","","2","","26","","24.1","","98.00","","","","-29","","Blowing Snow"
"2016-01-04 00:00","2016","01","04","00:00","-18.0","","-21.6","","74","","3","","18","","19.3","","98.06","","","","-27","","Snow,Blowing Snow"
"2016-01-04 01:00","2016","01","04","01:00","-18.4","","-22.0","","74","","3","","23","","19.3","","98.09","","","","-29","","Snow,Blowing Snow"
"2016-01-04 02:00","2016","01","04","02:00","-18.6","","-22.0","","75","","3","","24","","19.3","","98.19","","","","-30","","Snow,Blowing Snow"
"2016-01-04 03:00","2016","01","04","03:00","-19.0","","-21.8","","79","","2","","29","","16.1","","98.26","","","","-31","","Snow,Blowing Snow"
"2016-01-04 04:00","2016","01","04","04:00","-19.3","","-21.6","","82","","36","","23","","16.1","","98.35","","","","-30","","Snow,Blowing Snow"
"2016-01-04 05:00","2016","01","04","05:00","-20.0","","-22.5","","81","","35","","14","","16.1","","98.41","","","","-29","","Snow,Blowing Snow"
"2016-01-04 06:00","2016","01","04","06:00","-20.5","","-23.0","","81","","35","","17","","16.1","","98.51","","","","-30","","Snow,Blowing Snow"
"2016-01-04 07:00","2016","01","04","07:00","-19.9","","-22.1","","83","","1","","23","","24.1","","98.57","","","","-31","","Snow,Blowing Snow"
"2016-01-04 08:00","2016","01","04","08:00","-20.3","","-22.5","","83","","36","","19","","19.3","","98.72","","","","-31","","Snow,Blowing Snow"
"2016-01-04 09:00","2016","01","04","09:00","-21.1","","-23.4","","82","","36","","19","","24.1","","98.85","","","","-32","","Snow"
"2016-01-04 10:00","2016","01","04","10:00","-19.8","","-22.0","","83","","2","","21","","24.1","","98.86","","","","-30","","Snow"
"2016-01-04 11:00","2016","01","04","11:00","-19.5","","-22.1","","80","","1","","21","","24.1","","99.01","","","","-30","","Snow"
"2016-01-04 12:00","2016","01","04","12:00","-18.6","","-21.8","","76","","36","","16","","24.1","","99.01","","","","-28","","Snow"
"2016-01-04 13:00","2016","01","04","13:00","-17.2","","-21.1","","72","","4","","11","","32.2","","98.96","","","","-24","","Mainly Clear"
"2016-01-04 14:00","2016","01","04","14:00","-16.5","","-21.1","","68","","5","","10","","32.2","","98.94","","","","-23","","NA"
"2016-01-04 15:00","2016","01","04","15:00","-15.9","","-21.6","","62","","36","","12","","32.2","","98.96","","","","-23","","NA"
"2016-01-04 16:00","2016","01","04","16:00","-15.8","","-22.1","","59","","35","","8","","32.2","","98.97","","","","-21","","Mainly Clear"
"2016-01-04 17:00","2016","01","04","17:00","-16.8","","-22.1","","64","","32","","6","","32.2","","99.02","","","","-21","","NA"
"2016-01-04 18:00","2016","01","04","18:00","-17.3","","-22.2","","66","","33","","7","","24.1","","99.03","","","","-23","","NA"
"2016-01-04 19:00","2016","01","04","19:00","-18.8","","-22.7","","72","","20","","5","","24.1","","99.06","","","","-23","","Clear"
"2016-01-04 20:00","2016","01","04","20:00","-18.5","","-22.5","","71","","25","","8","","24.1","","99.11","","","","-24","","NA"
"2016-01-04 21:00","2016","01","04","21:00","-19.9","","-22.8","","78","","22","","9","","24.1","","99.11","","","","-27","","NA"
"2016-01-04 22:00","2016","01","04","22:00","-20.2","","-22.2","","84","","22","","11","","24.1","","99.09","","","","-28","","Clear"
"2016-01-04 23:00","2016","01","04","23:00","-20.5","","-23.7","","76","","20","","14","","24.1","","99.04","","","","-29","","NA"
"2016-01-05 00:00","2016","01","05","00:00","-19.9","","-23.4","","74","","22","","14","","24.1","","98.98","","","","-29","","NA"
"2016-01-05 01:00","2016","01","05","01:00","-21.0","","-23.7","","79","","21","","13","","24.1","","98.94","","","","-30","","Clear"
"2016-01-05 02:00","2016","01","05","02:00","-20.8","","-23.4","","80","","20","","12","","24.1","","98.91","","","","-29","","Snow"
"2016-01-05 03:00","2016","01","05","03:00","-18.0","","-20.2","","83","","22","","14","","16.1","","98.92","","","","-26","","Snow"
"2016-01-05 04:00","2016","01","05","04:00","-16.4","","-18.7","","83","","20","","15","","24.1","","98.87","","","","-25","","Snow"
"2016-01-05 05:00","2016","01","05","05:00","-17.2","","-19.0","","86","","19","","15","","16.1","","98.79","","","","-26","","Snow"
"2016-01-05 06:00","2016","01","05","06:00","-16.4","","-18.1","","87","","20","","17","","16.1","","98.77","","","","-25","","Snow"
"2016-01-05 07:00","2016","01","05","07:00","-16.8","","-18.8","","85","","18","","10","","11.3","","98.77","","","","-23","","Snow"
"2016-01-05 08:00","2016","01","05","08:00","-16.6","","-18.4","","86","","17","","12","","16.1","","98.73","","","","-24","","Snow"
"2016-01-05 09:00","2016","01","05","09:00","-14.4","","-16.0","","88","","22","","11","","24.1","","98.72","","","","-21","","Snow"
"2016-01-05 10:00","2016","01","05","10:00","-9.7","","-11.6","","86","","22","","24","","24.1","","98.69","","","","-18","","Mostly Cloudy"
"2016-01-05 11:00","2016","01","05","11:00","-6.5","","-10.2","","75","","23","","40","","24.1","","98.66","","","","-16","","Blowing Snow"
"2016-01-05 12:00","2016","01","05","12:00","-5.8","","-9.6","","75","","23","","39","","24.1","","98.57","","","","-15","","Blowing Snow"
"2016-01-05 13:00","2016","01","05","13:00","-4.8","","-8.6","","75","","23","","30","","24.1","","98.43","","","","-13","","Blowing Snow"
"2016-01-05 14:00","2016","01","05","14:00","-4.3","","-8.1","","75","","21","","39","","24.1","","98.31","","","","-13","","Blowing Snow"
"2016-01-05 15:00","2016","01","05","15:00","-3.9","","-7.9","","74","","22","","36","","32.2","","98.26","","","","-12","","Blowing Snow"
"2016-01-05 16:00","2016","01","05","16:00","-3.9","","-7.0","","79","","21","","37","","32.2","","98.21","","","","-12","","Cloudy"
"2016-01-05 17:00","2016","01","05","17:00","-3.5","","-6.8","","78","","22","","37","","24.1","","98.21","","","","-12","","Blowing Snow"
"2016-01-05 18:00","2016","01","05","18:00","-3.7","","-6.8","","79","","22","","39","","24.1","","98.19","","","","-12","","Blowing Snow"
"2016-01-05 19:00","2016","01","05","19:00","-3.9","","-6.9","","80","","22","","30","","24.1","","98.14","","","","-12","","Blowing Snow"
"2016-01-05 20:00","2016","01","05","20:00","-3.8","","-7.1","","78","","22","","39","","24.1","","98.09","","","","-12","","Blowing Snow"
"2016-01-05 21:00","2016","01","05","21:00","-3.6","","-6.9","","78","","23","","31","","24.1","","98.06","","","","-11","","Blowing Snow"
"2016-01-05 22:00","2016","01","05","22:00","-3.6","","-6.7","","79","","23","","29","","24.1","","98.06","","","","-11","","Blowing Snow"
"2016-01-05 23:00","2016","01","05","23:00","-3.4","","-6.4","","80","","23","","29","","24.1","","98.05","","","","-11","","Blowing Snow"
"2016-01-06 00:00","2016","01","06","00:00","-3.1","","-6.8","","76","","23","","33","","24.1","","98.07","","","","-11","","Blowing Snow"
"2016-01-06 01:00","2016","01","06","01:00","-3.0","","-6.3","","78","","23","","31","","24.1","","98.03","","","","-11","","Blowing Snow"
"2016-01-06 02:00","2016","01","06","02:00","-2.9","","-5.9","","80","","22","","30","","24.1","","98.02","","","","-10","","Blowing Snow"
"2016-01-06 03:00","2016","01","06","03:00","-2.7","","-5.5","","81","","22","","25","","24.1","","98.01","","","","-9","","Blowing Snow"
"2016-01-06 04:00","2016","01","06","04:00","-2.5","","-5.0","","83","","22","","29","","24.1","","97.97","","","","-10","","Blowing Snow"
"2016-01-06 05:00","2016","01","06","05:00","-2.4","","-4.7","","84","","22","","21","","24.1","","97.95","","","","-8","","Blowing Snow"
"2016-01-06 06:00","2016","01","06","06:00","-2.1","","-4.5","","84","","21","","26","","24.1","","97.95","","","","-9","","NA"
"2016-01-06 07:00","2016","01","06","07:00","-1.8","","-4.2","","84","","22","","19","","24.1","","97.97","","","","-7","","Cloudy"
"2016-01-06 08:00","2016","01","06","08:00","-1.6","","-3.8","","85","","22","","29","","24.1","","97.94","","","","-8","","NA"
"2016-01-06 09:00","2016","01","06","09:00","-1.4","","-3.6","","85","","23","","19","","32.2","","97.97","","","","-7","","Blowing Snow"
"2016-01-06 10:00","2016","01","06","10:00","-1.1","","-3.3","","85","","22","","20","","32.2","","97.98","","","","-7","","Cloudy"
"2016-01-06 11:00","2016","01","06","11:00","-0.4","","-3.3","","81","","21","","31","","32.2","","97.95","","","","-7","","NA"
"2016-01-06 12:00","2016","01","06","12:00","-0.5","","-3.2","","82","","22","","28","","32.2","","97.91","","","","-7","","NA"
"2016-01-06 13:00","2016","01","06","13:00","-0.2","","-3.2","","80","","23","","25","","32.2","","97.87","","","","-6","","Cloudy"
"2016-01-06 14:00","2016","01","06","14:00","-0.1","","-3.0","","81","","23","","20","","32.2","","97.85","","","","-5","","NA"
"2016-01-06 15:00","2016","01","06","15:00","-0.1","","-2.8","","82","","22","","20","","24.1","","97.83","","","","-5","","NA"
"2016-01-06 16:00","2016","01","06","16:00","-0.2","","-2.9","","82","","22","","20","","16.1","","97.84","","","","-5","","Cloudy"
"2016-01-06 17:00","2016","01","06","17:00","-0.3","","-2.8","","83","","22","","21","","9.7","","97.87","","","","-6","","Fog"
"2016-01-06 18:00","2016","01","06","18:00","-0.5","","-3.0","","83","","21","","15","","16.1","","97.90","","","","-5","","NA"
"2016-01-06 19:00","2016","01","06","19:00","-0.5","","-3.0","","83","","22","","18","","24.1","","97.90","","","","-6","","Cloudy"
"2016-01-06 20:00","2016","01","06","20:00","-0.6","","-2.8","","85","","22","","13","","24.1","","97.93","","","","-5","","NA"
"2016-01-06 21:00","2016","01","06","21:00","-0.6","","-2.7","","86","","22","","18","","24.1","","97.96","","","","-6","","NA"
"2016-01-06 22:00","2016","01","06","22:00","-0.7","","-2.3","","89","","22","","17","","16.1","","97.96","","","","-6","","Snow"
"2016-01-06 23:00","2016","01","06","23:00","-0.6","","-2.5","","87","","23","","10","","16.1","","97.96","","","","-4","","NA"
"2016-01-07 00:00","2016","01","07","00:00","-0.8","","-2.5","","88","","22","","8","","24.1","","97.95","","","","-4","","NA"
"2016-01-07 01:00","2016","01","07","01:00","-0.7","","-2.3","","89","","21","","11","","24.1","","97.93","","","","-4","","Cloudy"
"2016-01-07 02:00","2016","01","07","02:00","-1.0","","-2.1","","92","","20","","15","","11.3","","97.95","","","","-6","","Snow"
"2016-01-07 03:00","2016","01","07","03:00","-1.1","","-2.1","","93","","20","","7","","24.1","","97.95","","","","-4","","Snow"
"2016-01-07 04:00","2016","01","07","04:00","-1.2","","-2.0","","94","","16","","5","","16.1","","97.95","","","","-3","","Snow"
"2016-01-07 05:00","2016","01","07","05:00","-1.2","","-1.8","","96","","19","","7","","4.0","","97.93","","","","-4","","Snow"
"2016-01-07 06:00","2016","01","07","06:00","-1.2","","-1.6","","97","","20","","7","","4.0","","97.92","","","","-4","","Snow"
"2016-01-07 07:00","2016","01","07","07:00","-1.3","","-1.6","","98","","17","","12","","2.8","","97.96","","","","-5","","Snow"
"2016-01-07 08:00","2016","01","07","08:00","-1.1","","-1.5","","97","","15","","12","","2.8","","97.95","","","","-5","","Snow,Fog"
"2016-01-07 09:00","2016","01","07","09:00","-1.0","","-1.4","","97","","15","","7","","1.6","","97.97","","","","-4","","Snow"
"2016-01-07 10:00","2016","01","07","10:00","-0.8","","-1.4","","96","","16","","7","","8.1","","97.97","","","","-3","","Snow"
"2016-01-07 11:00","2016","01","07","11:00","0.0","","-1.3","","91","","15","","12","","16.1","","97.96","","","","-4","","Snow"
"2016-01-07 12:00","2016","01","07","12:00","0.6","","-0.9","","90","","17","","11","","16.1","","97.91","","","","","","Snow"
"2016-01-07 13:00","2016","01","07","13:00","1.2","","-1.2","","84","","19","","18","","16.1","","97.84","","","","","","Mostly Cloudy"
"2016-01-07 14:00","2016","01","07","14:00","1.2","","-1.4","","83","","19","","14","","16.1","","97.83","","","","","","NA"
"2016-01-07 15:00","2016","01","07","15:00","1.3","","-1.1","","84","","19","","17","","24.1","","97.83","","","","","","NA"
"2016-01-07 16:00","2016","01","07","16:00","1.4","","-1.2","","83","","18","","13","","24.1","","97.86","","","","","","Cloudy"
"2016-01-07 17:00","2016","01","07","17:00","1.0","","-0.9","","87","","16","","10","","19.3","","97.86","","","","","","NA"
"2016-01-07 18:00","2016","01","07","18:00","0.6","","-0.7","","91","","17","","13","","19.3","","97.88","","","","","","NA"
"2016-01-07 19:00","2016","01","07","19:00","0.2","","-0.8","","93","","15","","10","","19.3","","97.86","","","","","","Cloudy"
"2016-01-07 20:00","2016","01","07","20:00","0.3","","-0.7","","93","","15","","12","","19.3","","97.92","","","","","","NA"
"2016-01-07 21:00","2016","01","07","21:00","0.1","","-1.1","","92","","15","","13","","19.3","","97.92","","","","","","NA"
"2016-01-07 22:00","2016","01","07","22:00","0.0","","-1.1","","92","","15","","14","","19.3","","97.89","","","","-4","","Cloudy"
"2016-01-07 23:00","2016","01","07","23:00","-0.2","","-1.2","","93","","14","","16","","16.1","","97.85","","","","-5","","NA"
"2016-01-08 00:00","2016","01","08","00:00","-0.3","","-1.3","","93","","14","","15","","16.1","","97.81","","","","-5","","NA"
"2016-01-08 01:00","2016","01","08","01:00","-0.4","","-2.0","","89","","15","","17","","16.1","","97.76","","","","-5","","Cloudy"
"2016-01-08 02:00","2016","01","08","02:00","-0.8","","-2.5","","88","","14","","14","","24.1","","97.74","","","","-5","","NA"
"2016-01-08 03:00","2016","01","08","03:00","-0.9","","-3.0","","86","","14","","13","","24.1","","97.73","","","","-5","","NA"
"2016-01-08 04:00","2016","01","08","04:00","-1.0","","-3.1","","86","","15","","13","","24.1","","97.71","","","","-5","","Cloudy"
"2016-01-08 05:00","2016","01","08","05:00","-1.2","","-3.4","","85","","14","","13","","24.1","","97.69","","","","-5","","NA"
"2016-01-08 06:00","2016","01","08","06:00","-1.3","","-3.5","","85","","12","","11","","24.1","","97.66","","","","-5","","NA"
"2016-01-08 07:00","2016","01","08","07:00","-1.4","","-3.6","","85","","14","","13","","24.1","","97.69","","","","-6","","Cloudy"
"2016-01-08 08:00","2016","01","08","08:00","-1.6","","-3.8","","85","","12","","14","","16.1","","97.65","","","","-6","","NA"
"2016-01-08 09:00","2016","01","08","09:00","-1.5","","-4.0","","83","","14","","19","","16.1","","97.66","","","","-7","","NA"
"2016-01-08 10:00","2016","01","08","10:00","-1.3","","-3.8","","83","","13","","19","","16.1","","97.58","","","","-7","","Cloudy"
"2016-01-08 11:00","2016","01","08","11:00","-0.8","","-4.0","","79","","15","","16","","16.1","","97.51","","","","-6","","NA"
"2016-01-08 12:00","2016","01","08","12:00","-0.3","","-4.2","","75","","16","","13","","16.1","","97.44","","","","-4","","NA"
"2016-01-08 13:00","2016","01","08","13:00","-0.1","","-4.2","","74","","16","","14","","24.1","","97.35","","","","-4","","Cloudy"
"2016-01-08 14:00","2016","01","08","14:00","0.2","","-4.3","","72","","17","","16","","24.1","","97.31","","","","","","NA"
"2016-01-08 15:00","2016","01","08","15:00","0.3","","-4.4","","71","","16","","14","","24.1","","97.29","","","","","","NA"
"2016-01-08 16:00","2016","01","08","16:00","0.0","","-4.5","","72","","12","","12","","24.1","","97.21","","","","-4","","Cloudy"
"2016-01-08 17:00","2016","01","08","17:00","-0.9","","-3.9","","80","","11","","12","","24.1","","97.15","","","","-5","","NA"
"2016-01-08 18:00","2016","01","08","18:00","-2.0","","-4.2","","85","","10","","16","","24.1","","97.12","","","","-7","","NA"
"2016-01-08 19:00","2016","01","08","19:00","-1.9","","-4.3","","84","","10","","13","","24.1","","97.10","","","","-6","","Cloudy"
"2016-01-08 20:00","2016","01","08","20:00","-1.7","","-4.1","","84","","12","","18","","24.1","","97.04","","","","-7","","NA"
"2016-01-08 21:00","2016","01","08","21:00","-1.9","","-4.6","","82","","12","","16","","24.1","","97.00","","","","-7","","NA"
"2016-01-08 22:00","2016","01","08","22:00","-2.3","","-5.3","","80","","13","","14","","24.1","","96.94","","","","-7","","Cloudy"
"2016-01-08 23:00","2016","01","08","23:00","-2.7","","-5.5","","81","","14","","13","","24.1","","96.88","","","","-7","","NA"
"2016-01-09 00:00","2016","01","09","00:00","-2.5","","-5.3","","81","","13","","13","","24.1","","96.84","","","","-7","","NA"
"2016-01-09 01:00","2016","01","09","01:00","-2.5","","-5.3","","81","","14","","14","","24.1","","96.79","","","","-7","","Cloudy"
"2016-01-09 02:00","2016","01","09","02:00","-2.5","","-5.2","","82","","13","","12","","24.1","","96.73","","","","-7","","NA"
"2016-01-09 03:00","2016","01","09","03:00","-2.7","","-4.6","","87","","13","","19","","4.0","","96.71","","","","-8","","Snow"
"2016-01-09 04:00","2016","01","09","04:00","-2.8","","-3.5","","95","","11","","14","","3.2","","96.63","","","","-8","","Snow"
"2016-01-09 05:00","2016","01","09","05:00","-2.7","","-3.4","","95","","10","","10","","3.2","","96.58","","","","-7","","Snow"
"2016-01-09 06:00","2016","01","09","06:00","-2.3","","-2.9","","96","","11","","12","","3.2","","96.55","","","","-7","","Snow"
"2016-01-09 07:00","2016","01","09","07:00","-2.0","","-2.6","","96","","11","","15","","4.0","","96.53","","","","-7","","Snow"
"2016-01-09 08:00","2016","01","09","08:00","-1.7","","-2.1","","97","","11","","16","","3.2","","96.51","","","","-7","","Freezing Drizzle,Snow"
"2016-01-09 09:00","2016","01","09","09:00","-1.5","","-1.8","","98","","12","","12","","0.6","","96.54","","","","-6","","Freezing Drizzle,Freezing Fog"
"2016-01-09 10:00","2016","01","09","10:00","-0.8","","-1.1","","98","","12","","12","","0.6","","96.52","","","","-5","","Freezing Rain,Freezing Fog"
"2016-01-09 11:00","2016","01","09","11:00","-0.2","","-0.5","","98","","14","","8","","0.4","","96.52","","","","-3","","Freezing Rain,Freezing Fog"
"2016-01-09 12:00","2016","01","09","12:00","0.2","","0.1","","99","","16","","16","","0.4","","96.47","","","","","","Freezing Drizzle,Freezing Fog"
"2016-01-09 13:00","2016","01","09","13:00","0.6","","0.5","","99","","16","","9","","0.4","","96.45","","","","","","Freezing Drizzle,Fog,Freezing Fog"
"2016-01-09 14:00","2016","01","09","14:00","1.4","","1.3","","99","","21","","15","","0.4","","96.50","","","","","","Drizzle,Fog"
"2016-01-09 15:00","2016","01","09","15:00","1.6","","1.5","","99","","24","","14","","1.2","","96.54","","","","","","Fog"
"2016-01-09 16:00","2016","01","09","16:00","1.6","","1.5","","99","","23","","12","","0.4","","96.59","","","","","","Fog"
"2016-01-09 17:00","2016","01","09","17:00","1.4","","1.3","","99","","22","","14","","0.2","","96.67","","","","","","Fog"
"2016-01-09 18:00","2016","01","09","18:00","1.4","","1.3","","99","","22","","12","","0.2","","96.72","","","","","","Fog"
"2016-01-09 19:00","2016","01","09","19:00","1.2","","1.1","","99","","19","","16","","0.2","","96.72","","","","","","Fog"
"2016-01-09 20:00","2016","01","09","20:00","1.1","","1.0","","99","","20","","10","","0.8","","96.73","","","","","","Fog"
"2016-01-09 21:00","2016","01","09","21:00","0.8","","0.7","","99","","19","","8","","0.4","","96.71","","","","","","Fog"
"2016-01-09 22:00","2016","01","09","22:00","1.0","","0.9","","99","","14","","12","","0.4","","96.64","","","","","","Fog"
"2016-01-09 23:00","2016","01","09","23:00","1.1","","1.0","","99","","13","","8","","0.4","","96.58","","","","","","Rain,Fog"
"2016-01-10 00:00","2016","01","10","00:00","1.1","","1.0","","99","","13","","9","","0.6","","96.53","","","","","","Rain,Fog"
"2016-01-10 01:00","2016","01","10","01:00","1.4","","1.3","","99","","12","","8","","4.0","","96.38","","","","","","Rain,Fog"
"2016-01-10 02:00","2016","01","10","02:00","1.7","","1.6","","99","","11","","12","","0.8","","96.24","","","","","","Rain,Fog"
"2016-01-10 03:00","2016","01","10","03:00","1.5","","1.4","","99","","36","","2","","2.4","","96.27","","","","","","Rain,Fog"
"2016-01-10 04:00","2016","01","10","04:00","1.0","","0.9","","99","","4","","16","","0.4","","96.06","","","","","","Rain,Fog"
"2016-01-10 05:00","2016","01","10","05:00","0.9","","0.8","","99","","3","","16","","0.2","","95.92","","","","","","Rain,Fog"
"2016-01-10 06:00","2016","01","10","06:00","1.0","","0.9","","99","","3","","17","","0.2","","95.83","","","","","","Rain,Fog"
"2016-01-10 07:00","2016","01","10","07:00","0.8","","0.7","","99","","2","","9","","0.6","","95.75","","","","","","Rain,Fog"
"2016-01-10 08:00","2016","01","10","08:00","0.4","","0.3","","99","","36","","16","","3.2","","95.66","","","","","","Rain,Snow"
"2016-01-10 09:00","2016","01","10","09:00","-3.6","","-3.9","","98","","36","","28","","3.2","","95.58","","","","-11","","Freezing Rain,Snow"
"2016-01-10 10:00","2016","01","10","10:00","-7.2","","-8.0","","94","","36","","30","","3.2","","95.52","","","","-16","","Snow,Blowing Snow"
"2016-01-10 11:00","2016","01","10","11:00","-9.0","","-10.6","","88","","35","","30","","3.2","","95.40","","","","-18","","Snow,Blowing Snow"
"2016-01-10 12:00","2016","01","10","12:00","-10.2","","-12.0","","87","","35","","28","","1.6","","95.22","","","","-19","","Snow,Blowing Snow"
"2016-01-10 13:00","2016","01","10","13:00","-11.1","","-13.0","","86","","35","","35","","1.2","","95.08","","","","-22","","Snow,Blowing Snow"
"2016-01-10 14:00","2016","01","10","14:00","-12.2","","-14.4","","84","","35","","42","","0.8","","94.92","","","","-24","","Moderate Snow,Blowing Snow"
"2016-01-10 15:00","2016","01","10","15:00","-13.1","","-15.4","","83","","35","","44","","0.8","","94.86","","","","-25","","Moderate Snow,Blowing Snow"
"2016-01-10 16:00","2016","01","10","16:00","-13.7","","-16.1","","82","","35","","39","","1.2","","94.88","","","","-26","","Snow,Blowing Snow"
"2016-01-10 17:00","2016","01","10","17:00","-14.1","","-16.7","","81","","33","","40","","1.2","","94.96","","","","-26","","Snow,Blowing Snow"
"2016-01-10 18:00","2016","01","10","18:00","-14.7","","-17.3","","81","","33","","34","","1.6","","95.02","","","","-26","","Snow,Blowing Snow"
"2016-01-10 19:00","2016","01","10","19:00","-15.4","","-18.1","","80","","32","","29","","3.2","","95.16","","","","-26","","Snow,Blowing Snow"
"2016-01-10 20:00","2016","01","10","20:00","-16.1","","-19.0","","79","","32","","31","","3.2","","95.30","","","","-28","","Snow,Blowing Snow"
"2016-01-10 21:00","2016","01","10","21:00","-16.4","","-19.4","","78","","31","","29","","4.0","","95.42","","","","-28","","Snow,Blowing Snow"
"2016-01-10 22:00","2016","01","10","22:00","-16.7","","-20.0","","76","","30","","18","","9.7","","95.53","","","","-26","","Snow,Blowing Snow"
"2016-01-10 23:00","2016","01","10","23:00","-17.2","","-21.0","","73","","30","","32","","16.1","","95.61","","","","-29","","Snow,Blowing Snow"
"2016-01-11 00:00","2016","01","11","00:00","-17.6","","-21.3","","73","","30","","23","","19.3","","95.71","","","","-28","","Snow,Blowing Snow"
"2016-01-11 01:00","2016","01","11","01:00","-17.9","","-21.6","","73","","29","","22","","24.1","","95.79","","","","-28","","Snow,Blowing Snow"
"2016-01-11 02:00","2016","01","11","02:00","-17.8","","-21.7","","72","","30","","21","","19.3","","95.88","","","","-28","","Snow,Blowing Snow"
"2016-01-11 03:00","2016","01","11","03:00","-17.5","","-21.1","","74","","28","","22","","12.9","","95.99","","","","-28","","Snow,Blowing Snow"
"2016-01-11 04:00","2016","01","11","04:00","-17.6","","-21.0","","75","","29","","21","","12.9","","96.05","","","","-28","","Snow,Blowing Snow"
"2016-01-11 05:00","2016","01","11","05:00","-18.0","","-21.4","","75","","29","","19","","4.8","","96.15","","","","-28","","Snow,Blowing Snow"
"2016-01-11 06:00","2016","01","11","06:00","-18.4","","-21.2","","79","","29","","17","","19.3","","96.23","","","","-28","","Snow"
"2016-01-11 07:00","2016","01","11","07:00","-18.8","","-22.0","","76","","29","","17","","19.3","","96.35","","","","-28","","Snow"
"2016-01-11 08:00","2016","01","11","08:00","-19.4","","-22.9","","74","","29","","17","","24.1","","96.44","","","","-29","","NA"
"2016-01-11 09:00","2016","01","11","09:00","-19.4","","-22.9","","74","","30","","19","","24.1","","96.54","","","","-29","","NA"
"2016-01-11 10:00","2016","01","11","10:00","-19.1","","-23.1","","71","","29","","16","","32.2","","96.65","","","","-28","","Cloudy"
"2016-01-11 11:00","2016","01","11","11:00","-18.4","","-22.8","","69","","30","","16","","32.2","","96.70","","","","-27","","NA"
"2016-01-11 12:00","2016","01","11","12:00","-16.8","","-21.9","","65","","26","","9","","32.2","","96.70","","","","-23","","NA"
"2016-01-11 13:00","2016","01","11","13:00","-15.3","","-21.2","","61","","25","","10","","32.2","","96.69","","","","-22","","Mainly Clear"
"2016-01-11 14:00","2016","01","11","14:00","-14.6","","-20.8","","60","","23","","12","","32.2","","96.69","","","","-21","","NA"
"2016-01-11 15:00","2016","01","11","15:00","-14.3","","-20.7","","59","","23","","11","","32.2","","96.72","","","","-21","","NA"
"2016-01-11 16:00","2016","01","11","16:00","-13.8","","-20.2","","59","","24","","10","","32.2","","96.77","","","","-20","","Mainly Clear"
"2016-01-11 17:00","2016","01","11","17:00","-15.1","","-20.5","","64","","24","","8","","32.2","","96.78","","","","-20","","NA"
"2016-01-11 18:00","2016","01","11","18:00","-15.5","","-20.3","","67","","25","","4","","24.1","","96.77","","","","-18","","NA"
"2016-01-11 19:00","2016","01","11","19:00","-16.6","","-20.4","","73","","20","","11","","24.1","","96.81","","","","-24","","Mainly Clear"
"2016-01-11 20:00","2016","01","11","20:00","-16.3","","-20.1","","73","","18","","7","","24.1","","96.80","","","","-21","","NA"
"2016-01-11 21:00","2016","01","11","21:00","-15.7","","-19.2","","75","","21","","5","","24.1","","96.81","","","","-19","","NA"
"2016-01-11 22:00","2016","01","11","22:00","-15.2","","-18.7","","75","","22","","3","","24.1","","96.75","","","","-17","","Cloudy"
"2016-01-11 23:00","2016","01","11","23:00","-14.2","","-17.7","","75","","14","","7","","24.1","","96.70","","","","-19","","NA"
"2016-01-12 00:00","2016","01","12","00:00","-14.3","","-17.8","","75","","11","","8","","24.1","","96.67","","","","-20","","Snow"
"2016-01-12 01:00","2016","01","12","01:00","-15.2","","-18.5","","76","","10","","12","","14.5","","96.60","","","","-22","","Snow"
"2016-01-12 02:00","2016","01","12","02:00","-14.5","","-17.9","","76","","8","","14","","24.1","","96.49","","","","-22","","Snow"
"2016-01-12 03:00","2016","01","12","03:00","-14.4","","-17.6","","77","","8","","15","","24.1","","96.43","","","","-22","","Snow"
"2016-01-12 04:00","2016","01","12","04:00","-14.1","","-17.5","","76","","7","","18","","12.9","","96.34","","","","-23","","Snow"
"2016-01-12 05:00","2016","01","12","05:00","-14.3","","-16.6","","83","","6","","23","","4.0","","96.23","","","","-24","","Snow"
"2016-01-12 06:00","2016","01","12","06:00","-14.1","","-16.2","","84","","6","","23","","3.2","","96.16","","","","-24","","Snow,Blowing Snow"
"2016-01-12 07:00","2016","01","12","07:00","-14.0","","-16.0","","85","","6","","23","","4.0","","96.12","","","","-24","","Snow,Blowing Snow"
"2016-01-12 08:00","2016","01","12","08:00","-13.9","","-15.9","","85","","5","","23","","3.2","","96.04","","","","-23","","Snow,Blowing Snow"
"2016-01-12 09:00","2016","01","12","09:00","-13.6","","-15.6","","85","","6","","21","","3.2","","95.96","","","","-23","","Snow,Blowing Snow"
"2016-01-12 10:00","2016","01","12","10:00","-13.2","","-15.4","","84","","5","","23","","4.0","","95.93","","","","-23","","Snow,Blowing Snow"
"2016-01-12 11:00","2016","01","12","11:00","-12.6","","-14.9","","83","","5","","24","","1.6","","95.87","","","","-22","","Snow,Blowing Snow"
"2016-01-12 12:00","2016","01","12","12:00","-12.0","","-14.3","","83","","4","","28","","1.6","","95.76","","","","-22","","Snow,Blowing Snow"
"2016-01-12 13:00","2016","01","12","13:00","-11.7","","-14.0","","83","","4","","24","","1.6","","95.70","","","","-21","","Snow,Blowing Snow"
"2016-01-12 14:00","2016","01","12","14:00","-11.1","","-13.6","","82","","3","","24","","2.4","","95.68","","","","-20","","Snow,Blowing Snow"
"2016-01-12 15:00","2016","01","12","15:00","-11.3","","-13.9","","81","","1","","23","","2.4","","95.72","","","","-20","","Snow,Blowing Snow"
"2016-01-12 16:00","2016","01","12","16:00","-11.4","","-14.0","","81","","36","","17","","3.2","","95.82","","","","-19","","Snow"
"2016-01-12 17:00","2016","01","12","17:00","-11.8","","-14.3","","82","","35","","19","","2.0","","95.95","","","","-20","","Snow"
"2016-01-12 18:00","2016","01","12","18:00","-12.4","","-15.3","","79","","36","","25","","9.7","","96.04","","","","-22","","Snow"
"2016-01-12 19:00","2016","01","12","19:00","-13.3","","-16.2","","79","","34","","19","","11.3","","96.17","","","","-22","","Snow,Blowing Snow"
"2016-01-12 20:00","2016","01","12","20:00","-14.1","","-16.8","","80","","34","","21","","24.1","","96.27","","","","-23","","Snow,Blowing Snow"
"2016-01-12 21:00","2016","01","12","21:00","-15.0","","-17.9","","79","","34","","23","","24.1","","96.35","","","","-25","","Snow,Blowing Snow"
"2016-01-12 22:00","2016","01","12","22:00","-16.1","","-19.1","","78","","34","","19","","24.1","","96.44","","","","-25","","Blowing Snow"
"2016-01-12 23:00","2016","01","12","23:00","-17.4","","-20.4","","78","","32","","17","","24.1","","96.52","","","","-26","","Blowing Snow"
"2016-01-13 00:00","2016","01","13","00:00","-19.3","","-22.4","","77","","32","","22","","24.1","","96.62","","","","-30","","Blowing Snow"
"2016-01-13 01:00","2016","01","13","01:00","-20.8","","-23.7","","78","","33","","22","","24.1","","96.66","","","","-32","","Blowing Snow"
"2016-01-13 02:00","2016","01","13","02:00","-22.0","","-25.0","","77","","33","","21","","24.1","","96.73","","","","-33","","Blowing Snow"
"2016-01-13 03:00","2016","01","13","03:00","-22.3","","-25.6","","75","","33","","12","","24.1","","96.84","","","","-31","","Blowing Snow"
"2016-01-13 04:00","2016","01","13","04:00","-22.9","","-26.2","","75","","34","","18","","24.1","","96.85","","","","-34","","Snow"
"2016-01-13 05:00","2016","01","13","05:00","-23.9","","-27.0","","76","","34","","16","","24.1","","96.86","","","","-34","","NA"
"2016-01-13 06:00","2016","01","13","06:00","-25.8","","-28.6","","78","","31","","10","","24.1","","96.94","","","","-34","","NA"
"2016-01-13 07:00","2016","01","13","07:00","-25.5","","-28.0","","80","","28","","8","","24.1","","96.98","","","","-33","","Mainly Clear"
"2016-01-13 08:00","2016","01","13","08:00","-26.3","","-28.5","","82","","32","","9","","24.1","","96.99","","","","-34","","NA"
"2016-01-13 09:00","2016","01","13","09:00","-25.1","","-27.6","","80","","31","","8","","32.2","","97.02","","","","-32","","NA"
"2016-01-13 10:00","2016","01","13","10:00","-23.0","","-26.1","","76","","1","","13","","32.2","","97.01","","","","-32","","Mainly Clear"
"2016-01-13 11:00","2016","01","13","11:00","-20.3","","-23.5","","76","","28","","3","","32.2","","97.05","","","","-23","","NA"
"2016-01-13 12:00","2016","01","13","12:00","-19.4","","-23.1","","73","","19","","8","","32.2","","96.94","","","","-26","","NA"
"2016-01-13 13:00","2016","01","13","13:00","-18.7","","-22.9","","70","","18","","13","","24.1","","96.82","","","","-27","","Mostly Cloudy"
"2016-01-13 14:00","2016","01","13","14:00","-17.8","","-22.7","","66","","20","","11","","32.2","","96.75","","","","-25","","NA"
"2016-01-13 15:00","2016","01","13","15:00","-17.7","","-21.9","","70","","17","","14","","16.1","","96.67","","","","-26","","NA"
"2016-01-13 16:00","2016","01","13","16:00","-17.3","","-20.6","","76","","15","","9","","11.3","","96.62","","","","-24","","Snow"
"2016-01-13 17:00","2016","01","13","17:00","-17.5","","-20.2","","80","","14","","13","","4.8","","96.58","","","","-25","","Snow"
"2016-01-13 18:00","2016","01","13","18:00","-17.9","","-20.3","","82","","13","","13","","11.3","","96.53","","","","-26","","Snow"
"2016-01-13 19:00","2016","01","13","19:00","-18.0","","-20.4","","82","","13","","16","","8.1","","96.48","","","","-27","","Snow"
"2016-01-13 20:00","2016","01","13","20:00","-17.7","","-19.9","","83","","14","","16","","4.0","","96.43","","","","-27","","Snow"
"2016-01-13 21:00","2016","01","13","21:00","-17.9","","-20.0","","84","","12","","17","","8.1","","96.31","","","","-27","","Snow"
"2016-01-13 22:00","2016","01","13","22:00","-17.5","","-19.5","","85","","12","","19","","24.1","","96.23","","","","-27","","Snow"
"2016-01-13 23:00","2016","01","13","23:00","-17.1","","-19.1","","85","","13","","21","","16.1","","96.12","","","","-27","","Snow"
"2016-01-14 00:00","2016","01","14","00:00","-16.4","","-18.2","","86","","14","","21","","9.7","","96.07","","","","-26","","Snow"
"2016-01-14 01:00","2016","01","14","01:00","-16.0","","-18.0","","85","","18","","7","","9.7","","96.04","","","","-21","","Snow"
"2016-01-14 02:00","2016","01","14","02:00","-17.1","","-18.9","","86","","30","","12","","9.7","","96.09","","","","-25","","Snow"
"2016-01-14 03:00","2016","01","14","03:00","-18.4","","-20.2","","86","","29","","4","","24.1","","96.12","","","","-22","","NA"
"2016-01-14 04:00","2016","01","14","04:00","-19.3","","-21.4","","84","","31","","8","","24.1","","96.14","","","","-25","","Mainly Clear"
"2016-01-14 05:00","2016","01","14","05:00","-21.1","","-23.4","","82","","31","","8","","24.1","","96.18","","","","-28","","NA"
"2016-01-14 06:00","2016","01","14","06:00","-21.3","","-23.6","","82","","29","","9","","24.1","","96.26","","","","-28","","NA"
"2016-01-14 07:00","2016","01","14","07:00","-22.1","","-24.4","","82","","32","","11","","24.1","","96.33","","","","-30","","Mainly Clear"
"2016-01-14 08:00","2016","01","14","08:00","-21.8","","-24.4","","80","","34","","12","","32.2","","96.38","","","","-30","","NA"
"2016-01-14 09:00","2016","01","14","09:00","-20.9","","-23.2","","82","","34","","16","","32.2","","96.49","","","","-31","","NA"
"2016-01-14 10:00","2016","01","14","10:00","-20.5","","-23.0","","81","","34","","17","","32.2","","96.59","","","","-30","","Mainly Clear"
"2016-01-14 11:00","2016","01","14","11:00","-19.2","","-21.5","","82","","36","","14","","24.1","","96.62","","","","-28","","NA"
"2016-01-14 12:00","2016","01","14","12:00","-18.0","","-20.4","","82","","35","","13","","32.2","","96.64","","","","-26","","NA"
"2016-01-14 13:00","2016","01","14","13:00","-16.8","","-20.1","","76","","35","","9","","32.2","","96.62","","","","-23","","Mainly Clear"
"2016-01-14 14:00","2016","01","14","14:00","-16.0","","-21.0","","66","","35","","8","","32.2","","96.66","","","","-22","","NA"
"2016-01-14 15:00","2016","01","14","15:00","-15.7","","-20.5","","67","","32","","9","","32.2","","96.69","","","","-22","","NA"
"2016-01-14 16:00","2016","01","14","16:00","-15.9","","-20.5","","68","","35","","13","","32.2","","96.78","","","","-23","","Mostly Cloudy"
"2016-01-14 17:00","2016","01","14","17:00","-16.9","","-20.7","","73","","33","","8","","32.2","","96.86","","","","-23","","NA"
"2016-01-14 18:00","2016","01","14","18:00","-16.9","","-20.2","","76","","35","","7","","24.1","","96.91","","","","-22","","NA"
"2016-01-14 19:00","2016","01","14","19:00","-16.9","","-19.9","","78","","34","","7","","24.1","","96.99","","","","-22","","Cloudy"
"2016-01-14 20:00","2016","01","14","20:00","-16.3","","-20.2","","72","","5","","21","","24.1","","96.99","","","","-26","","NA"
"2016-01-14 21:00","2016","01","14","21:00","-16.8","","-20.6","","73","","4","","20","","24.1","","97.00","","","","-26","","NA"
"2016-01-14 22:00","2016","01","14","22:00","-17.5","","-20.9","","75","","5","","22","","24.1","","96.98","","","","-28","","Mostly Cloudy"
"2016-01-14 23:00","2016","01","14","23:00","-17.6","","-20.7","","77","","5","","22","","24.1","","97.00","","","","-28","","NA"
"2016-01-15 00:00","2016","01","15","00:00","-17.8","","-20.9","","77","","6","","18","","24.1","","97.03","","","","-27","","NA"
"2016-01-15 01:00","2016","01","15","01:00","-17.9","","-20.9","","78","","5","","21","","24.1","","97.01","","","","-28","","Cloudy"
"2016-01-15 02:00","2016","01","15","02:00","-17.9","","-20.9","","78","","6","","18","","24.1","","96.90","","","","-27","","NA"
"2016-01-15 03:00","2016","01","15","03:00","-17.9","","-20.7","","79","","8","","17","","24.1","","96.91","","","","-27","","NA"
"2016-01-15 04:00","2016","01","15","04:00","-17.9","","-20.6","","80","","6","","24","","24.1","","96.78","","","","-29","","Cloudy"
"2016-01-15 05:00","2016","01","15","05:00","-17.7","","-20.5","","79","","6","","18","","24.1","","96.86","","","","-27","","NA"
"2016-01-15 06:00","2016","01","15","06:00","-17.2","","-20.0","","79","","6","","23","","24.1","","96.74","","","","-28","","NA"
"2016-01-15 07:00","2016","01","15","07:00","-16.7","","-19.4","","80","","5","","23","","24.1","","96.75","","","","-27","","Cloudy"
"2016-01-15 08:00","2016","01","15","08:00","-16.4","","-19.1","","80","","5","","27","","32.2","","96.60","","","","-27","","NA"
"2016-01-15 09:00","2016","01","15","09:00","-16.0","","-18.4","","82","","6","","28","","1.6","","96.55","","","","-27","","Snow,Blowing Snow"
"2016-01-15 10:00","2016","01","15","10:00","-15.2","","-17.6","","82","","5","","34","","24.1","","96.45","","","","-27","","Snow,Blowing Snow"
"2016-01-15 11:00","2016","01","15","11:00","-14.3","","-16.2","","86","","5","","23","","2.4","","96.39","","","","-24","","Freezing Drizzle,Snow Grains,Blowing Snow"
"2016-01-15 12:00","2016","01","15","12:00","-13.3","","-15.3","","85","","6","","26","","2.4","","96.21","","","","-23","","Snow,Blowing Snow"
"2016-01-15 13:00","2016","01","15","13:00","-12.6","","-14.6","","85","","7","","30","","1.0","","96.05","","","","-23","","Snow,Snow Pellets,Blowing Snow"
"2016-01-15 14:00","2016","01","15","14:00","-12.1","","-14.1","","85","","6","","22","","2.4","","96.05","","","","-21","","Snow,Blowing Snow"
"2016-01-15 15:00","2016","01","15","15:00","-11.4","","-13.3","","86","","5","","32","","3.2","","95.86","","","","-22","","Snow,Blowing Snow"
"2016-01-15 16:00","2016","01","15","16:00","-10.8","","-12.7","","86","","7","","26","","19.3","","95.83","","","","-20","","Snow,Ice Pellets,Blowing Snow"
"2016-01-15 17:00","2016","01","15","17:00","-11.2","","-13.0","","87","","5","","28","","19.3","","95.79","","","","-21","","Snow,Blowing Snow"
"2016-01-15 18:00","2016","01","15","18:00","-11.1","","-12.9","","87","","5","","28","","4.8","","95.75","","","","-21","","Snow,Blowing Snow"
"2016-01-15 19:00","2016","01","15","19:00","-10.9","","-12.4","","89","","4","","28","","1.2","","95.70","","","","-20","","Snow,Blowing Snow"
"2016-01-15 20:00","2016","01","15","20:00","-11.6","","-13.2","","88","","3","","36","","1.6","","95.64","","","","-22","","Snow,Blowing Snow"
"2016-01-15 21:00","2016","01","15","21:00","-12.0","","-13.7","","87","","4","","37","","1.2","","95.55","","","","-23","","Snow,Blowing Snow"
"2016-01-15 22:00","2016","01","15","22:00","-12.1","","-13.7","","88","","4","","30","","1.2","","95.45","","","","-22","","Snow,Blowing Snow"
"2016-01-15 23:00","2016","01","15","23:00","-11.3","","-12.8","","89","","4","","31","","1.2","","95.39","","","","-21","","Snow,Blowing Snow"
"2016-01-16 00:00","2016","01","16","00:00","-10.7","","-12.2","","89","","4","","27","","1.2","","95.29","","","","-20","","Snow,Blowing Snow"
"2016-01-16 01:00","2016","01","16","01:00","-10.4","","-11.9","","89","","3","","27","","1.2","","95.20","","","","-20","","Snow,Blowing Snow"
"2016-01-16 02:00","2016","01","16","02:00","-10.3","","-11.9","","88","","3","","30","","1.2","","95.14","","","","-20","","Snow,Blowing Snow"
"2016-01-16 03:00","2016","01","16","03:00","-10.3","","-11.9","","88","","2","","27","","1.2","","95.13","","","","-19","","Snow,Blowing Snow"
"2016-01-16 04:00","2016","01","16","04:00","-10.7","","-12.5","","87","","1","","24","","3.2","","95.14","","","","-19","","Snow,Blowing Snow"
"2016-01-16 05:00","2016","01","16","05:00","-11.3","","-13.3","","85","","35","","21","","3.6","","95.18","","","","-20","","Snow,Blowing Snow"
"2016-01-16 06:00","2016","01","16","06:00","-12.2","","-14.2","","85","","34","","21","","3.2","","95.23","","","","-21","","Snow,Blowing Snow"
"2016-01-16 07:00","2016","01","16","07:00","-13.6","","-16.1","","82","","33","","21","","3.2","","95.37","","","","-23","","Snow,Blowing Snow"
"2016-01-16 08:00","2016","01","16","08:00","-14.1","","-17.1","","78","","35","","26","","19.3","","95.43","","","","-24","","Snow,Blowing Snow"
"2016-01-16 09:00","2016","01","16","09:00","-14.6","","-17.6","","78","","33","","18","","16.1","","95.55","","","","-23","","Snow,Blowing Snow"
"2016-01-16 10:00","2016","01","16","10:00","-14.7","","-18.0","","76","","32","","21","","32.2","","95.67","","","","-24","","Snow,Blowing Snow"
"2016-01-16 11:00","2016","01","16","11:00","-14.7","","-18.0","","76","","33","","20","","32.2","","95.76","","","","-24","","Snow,Blowing Snow"
"2016-01-16 12:00","2016","01","16","12:00","-14.5","","-18.2","","74","","32","","18","","32.2","","95.78","","","","-23","","NA"
"2016-01-16 13:00","2016","01","16","13:00","-14.5","","-18.2","","74","","30","","17","","8.1","","95.81","","","","-23","","Snow"
"2016-01-16 14:00","2016","01","16","14:00","-13.9","","-18.4","","69","","30","","19","","32.2","","95.89","","","","-23","","Snow"
"2016-01-16 15:00","2016","01","16","15:00","-13.8","","-18.0","","71","","29","","15","","32.2","","95.97","","","","-21","","NA"
"2016-01-16 16:00","2016","01","16","16:00","-14.0","","-17.7","","74","","31","","13","","24.1","","96.06","","","","-21","","Mostly Cloudy"
"2016-01-16 17:00","2016","01","16","17:00","-14.8","","-18.1","","76","","34","","13","","24.1","","96.18","","","","-22","","NA"
"2016-01-16 18:00","2016","01","16","18:00","-15.7","","-18.9","","77","","32","","12","","24.1","","96.29","","","","-23","","NA"
"2016-01-16 19:00","2016","01","16","19:00","-16.9","","-19.4","","81","","34","","5","","24.1","","96.36","","","","-21","","Mainly Clear"
"2016-01-16 20:00","2016","01","16","20:00","-17.3","","-19.5","","83","","29","","9","","24.1","","96.39","","","","-24","","Snow"
"2016-01-16 21:00","2016","01","16","21:00","-19.0","","-21.1","","84","","33","","8","","24.1","","96.41","","","","-25","","NA"
"2016-01-16 22:00","2016","01","16","22:00","-17.5","","-19.6","","84","","29","","9","","24.1","","96.43","","","","-24","","Mainly Clear"
"2016-01-16 23:00","2016","01","16","23:00","-17.6","","-19.4","","86","","34","","10","","24.1","","96.44","","","","-24","","NA"
"2016-01-17 00:00","2016","01","17","00:00","-18.2","","-20.0","","86","","1","","13","","24.1","","96.44","","","","-26","","NA"
"2016-01-17 01:00","2016","01","17","01:00","-19.2","","-21.3","","84","","24","","8","","24.1","","96.49","","","","-25","","Snow"
"2016-01-17 02:00","2016","01","17","02:00","-17.8","","-20.0","","83","","9","","8","","24.1","","96.47","","","","-24","","Snow"
"2016-01-17 03:00","2016","01","17","03:00","-17.3","","-19.8","","81","","9","","11","","24.1","","96.42","","","","-24","","Snow"
"2016-01-17 04:00","2016","01","17","04:00","-17.0","","-19.5","","81","","10","","8","","9.7","","96.47","","","","-23","","Snow"
"2016-01-17 05:00","2016","01","17","05:00","-17.1","","-19.5","","82","","5","","9","","6.4","","96.43","","","","-23","","Snow"
"2016-01-17 06:00","2016","01","17","06:00","-17.2","","-19.4","","83","","5","","14","","6.4","","96.36","","","","-25","","Snow"
"2016-01-17 07:00","2016","01","17","07:00","-17.2","","-19.4","","83","","6","","9","","4.8","","96.44","","","","-23","","Snow"
"2016-01-17 08:00","2016","01","17","08:00","-17.9","","-20.0","","84","","4","","14","","6.4","","96.44","","","","-26","","Snow"
"2016-01-17 09:00","2016","01","17","09:00","-17.8","","-20.0","","83","","4","","21","","12.9","","96.45","","","","-28","","Snow"
"2016-01-17 10:00","2016","01","17","10:00","-16.9","","-19.4","","81","","4","","20","","9.7","","96.41","","","","-27","","Snow"
"2016-01-17 11:00","2016","01","17","11:00","-15.7","","-18.6","","79","","3","","20","","16.1","","96.43","","","","-25","","Snow"
"2016-01-17 12:00","2016","01","17","12:00","-15.3","","-18.0","","80","","4","","19","","12.9","","96.40","","","","-24","","Snow"
"2016-01-17 13:00","2016","01","17","13:00","-14.5","","-17.5","","78","","3","","17","","19.3","","96.31","","","","-23","","Snow"
"2016-01-17 14:00","2016","01","17","14:00","-14.2","","-17.1","","79","","3","","16","","12.9","","96.29","","","","-22","","Snow"
"2016-01-17 15:00","2016","01","17","15:00","-13.9","","-16.8","","79","","1","","14","","19.3","","96.31","","","","-21","","Snow"
"2016-01-17 16:00","2016","01","17","16:00","-14.1","","-16.8","","80","","36","","13","","19.3","","96.32","","","","-21","","Snow"
"2016-01-17 17:00","2016","01","17","17:00","-14.7","","-17.3","","81","","35","","16","","19.3","","96.37","","","","-23","","Snow"
"2016-01-17 18:00","2016","01","17","18:00","-15.7","","-18.3","","81","","34","","16","","24.1","","96.41","","","","-24","","Snow"
"2016-01-17 19:00","2016","01","17","19:00","-16.8","","-19.5","","80","","36","","16","","19.3","","96.41","","","","-25","","Snow"
"2016-01-17 20:00","2016","01","17","20:00","-17.3","","-19.8","","81","","35","","16","","19.3","","96.42","","","","-26","","Snow"
"2016-01-17 21:00","2016","01","17","21:00","-17.9","","-20.4","","81","","33","","14","","19.3","","96.44","","","","-26","","Snow"
"2016-01-17 22:00","2016","01","17","22:00","-18.4","","-20.9","","81","","35","","14","","24.1","","96.45","","","","-27","","Snow"
"2016-01-17 23:00","2016","01","17","23:00","-18.8","","-22.0","","76","","35","","16","","24.1","","96.48","","","","-28","","Snow"
"2016-01-18 00:00","2016","01","18","00:00","-19.8","","-22.9","","77","","35","","15","","24.1","","96.52","","","","-29","","Snow"
"2016-01-18 01:00","2016","01","18","01:00","-21.9","","-24.2","","82","","29","","10","","24.1","","96.55","","","","-29","","Snow"
"2016-01-18 02:00","2016","01","18","02:00","-21.6","","-24.2","","80","","34","","13","","16.1","","96.58","","","","-30","","Snow"
"2016-01-18 03:00","2016","01","18","03:00","-22.1","","-24.8","","79","","33","","13","","24.1","","96.62","","","","-31","","Snow"
"2016-01-18 04:00","2016","01","18","04:00","-21.8","","-24.8","","77","","34","","21","","16.1","","96.62","","","","-33","","Snow"
"2016-01-18 05:00","2016","01","18","05:00","-22.1","","-25.0","","78","","33","","15","","16.1","","96.66","","","","-32","","Snow"
"2016-01-18 06:00","2016","01","18","06:00","-22.9","","-25.5","","80","","32","","9","","24.1","","96.68","","","","-30","","NA"
"2016-01-18 07:00","2016","01","18","07:00","-24.1","","-26.2","","83","","29","","7","","24.1","","96.72","","","","-30","","Mostly Cloudy"
"2016-01-18 08:00","2016","01","18","08:00","-25.2","","-27.4","","82","","31","","9","","24.1","","96.75","","","","-33","","NA"
"2016-01-18 09:00","2016","01","18","09:00","-25.3","","-27.8","","80","","31","","11","","32.2","","96.77","","","","-34","","NA"
"2016-01-18 10:00","2016","01","18","10:00","-23.5","","-26.2","","79","","30","","11","","32.2","","96.85","","","","-32","","Mostly Cloudy"
"2016-01-18 11:00","2016","01","18","11:00","-20.1","","-23.5","","75","","33","","12","","32.2","","96.88","","","","-28","","NA"
"2016-01-18 12:00","2016","01","18","12:00","-18.9","","-22.9","","71","","35","","13","","32.2","","96.87","","","","-27","","NA"
"2016-01-18 13:00","2016","01","18","13:00","-18.4","","-22.4","","71","","31","","5","","32.2","","96.91","","","","-22","","Cloudy"
"2016-01-18 14:00","2016","01","18","14:00","-18.1","","-22.3","","70","","32","","7","","32.2","","96.92","","","","-23","","Snow"
"2016-01-18 15:00","2016","01","18","15:00","-17.9","","-22.5","","68","","31","","13","","32.2","","96.98","","","","-26","","Snow"
"2016-01-18 16:00","2016","01","18","16:00","-18.6","","-23.1","","68","","31","","14","","32.2","","97.04","","","","-27","","Mainly Clear"
"2016-01-18 17:00","2016","01","18","17:00","-19.9","","-23.9","","71","","33","","10","","32.2","","97.10","","","","-27","","NA"
"2016-01-18 18:00","2016","01","18","18:00","-20.8","","-23.5","","79","","33","","7","","24.1","","97.18","","","","-27","","NA"
"2016-01-18 19:00","2016","01","18","19:00","-21.5","","-23.5","","84","","32","","8","","24.1","","97.26","","","","-28","","Clear"
"2016-01-18 20:00","2016","01","18","20:00","-22.8","","-24.8","","84","","30","","8","","24.1","","97.33","","","","-30","","NA"
"2016-01-18 21:00","2016","01","18","21:00","-24.1","","-26.5","","81","","31","","9","","24.1","","97.36","","","","-32","","NA"
"2016-01-18 22:00","2016","01","18","22:00","-23.3","","-25.7","","81","","31","","10","","24.1","","97.39","","","","-31","","Clear"
"2016-01-18 23:00","2016","01","18","23:00","-23.2","","-25.8","","80","","31","","13","","24.1","","97.38","","","","-32","","NA"
"2016-01-19 00:00","2016","01","19","00:00","-23.6","","-26.1","","80","","33","","16","","24.1","","97.43","","","","-34","","NA"
"2016-01-19 01:00","2016","01","19","01:00","-23.8","","-26.3","","80","","30","","12","","24.1","","97.42","","","","-33","","Clear"
"2016-01-19 02:00","2016","01","19","02:00","-23.2","","-25.6","","81","","29","","12","","24.1","","97.43","","","","-32","","NA"
"2016-01-19 03:00","2016","01","19","03:00","-23.5","","-26.0","","80","","29","","13","","24.1","","97.46","","","","-33","","NA"
"2016-01-19 04:00","2016","01","19","04:00","-24.4","","-27.1","","79","","32","","12","","24.1","","97.53","","","","-33","","Clear"
"2016-01-19 05:00","2016","01","19","05:00","-22.6","","-25.0","","81","","29","","13","","24.1","","97.53","","","","-32","","NA"
"2016-01-19 06:00","2016","01","19","06:00","-22.7","","-25.3","","80","","31","","10","","16.1","","97.60","","","","-30","","Snow"
"2016-01-19 07:00","2016","01","19","07:00","-20.8","","-23.1","","82","","29","","10","","16.1","","97.64","","","","-28","","Snow"
"2016-01-19 08:00","2016","01","19","08:00","-21.2","","-23.7","","81","","30","","5","","32.2","","97.69","","","","-26","","NA"
"2016-01-19 09:00","2016","01","19","09:00","-20.1","","-22.4","","82","","30","","11","","32.2","","97.76","","","","-28","","NA"
"2016-01-19 10:00","2016","01","19","10:00","-16.9","","-19.0","","84","","30","","20","","32.2","","97.79","","","","-27","","Mainly Clear"
"2016-01-19 11:00","2016","01","19","11:00","-15.4","","-17.4","","85","","30","","20","","32.2","","97.84","","","","-25","","NA"
"2016-01-19 12:00","2016","01","19","12:00","-13.8","","-16.0","","84","","31","","27","","32.2","","97.81","","","","-24","","NA"
"2016-01-19 13:00","2016","01","19","13:00","-12.4","","-16.3","","73","","30","","25","","32.2","","97.84","","","","-22","","Mostly Cloudy"
"2016-01-19 14:00","2016","01","19","14:00","-11.9","","-15.5","","75","","31","","21","","32.2","","97.86","","","","-20","","NA"
"2016-01-19 15:00","2016","01","19","15:00","-11.5","","-14.9","","76","","30","","22","","32.2","","97.89","","","","-20","","NA"
"2016-01-19 16:00","2016","01","19","16:00","-11.1","","-14.4","","77","","29","","17","","32.2","","97.95","","","","-19","","Mostly Cloudy"
"2016-01-19 17:00","2016","01","19","17:00","-11.2","","-14.2","","79","","30","","15","","32.2","","97.99","","","","-18","","NA"
"2016-01-19 18:00","2016","01","19","18:00","-11.2","","-13.7","","82","","30","","16","","24.1","","98.04","","","","-18","","Snow"
"2016-01-19 19:00","2016","01","19","19:00","-11.3","","-13.6","","83","","31","","17","","24.1","","98.09","","","","-19","","Snow"
"2016-01-19 20:00","2016","01","19","20:00","-11.9","","-13.8","","86","","31","","13","","24.1","","98.13","","","","-19","","Snow"
"2016-01-19 21:00","2016","01","19","21:00","-12.2","","-13.9","","87","","30","","10","","24.1","","98.15","","","","-18","","Snow"
"2016-01-19 22:00","2016","01","19","22:00","-12.2","","-13.8","","88","","29","","8","","24.1","","98.16","","","","-17","","Snow"
"2016-01-19 23:00","2016","01","19","23:00","-11.6","","-13.2","","88","","32","","14","","24.1","","98.17","","","","-18","","Snow"
"2016-01-20 00:00","2016","01","20","00:00","-11.1","","-12.9","","87","","34","","9","","24.1","","98.17","","","","-16","","Snow"
"2016-01-20 01:00","2016","01","20","01:00","-10.8","","-12.7","","86","","32","","17","","24.1","","98.14","","","","-18","","Snow"
"2016-01-20 02:00","2016","01","20","02:00","-11.3","","-13.2","","86","","34","","10","","24.1","","98.09","","","","-17","","NA"
"2016-01-20 03:00","2016","01","20","03:00","-11.5","","-13.3","","87","","28","","10","","24.1","","98.13","","","","-17","","Snow"
"2016-01-20 04:00","2016","01","20","04:00","-11.6","","-13.2","","88","","29","","8","","24.1","","98.10","","","","-16","","Snow"
"2016-01-20 05:00","2016","01","20","05:00","-11.5","","-13.0","","89","","26","","10","","24.1","","98.08","","","","-17","","Snow"
"2016-01-20 06:00","2016","01","20","06:00","-11.6","","-13.1","","89","","24","","7","","24.1","","98.04","","","","-16","","Snow"
"2016-01-20 07:00","2016","01","20","07:00","-11.9","","-13.2","","90","","23","","7","","16.1","","98.01","","","","-16","","Snow"
"2016-01-20 08:00","2016","01","20","08:00","-11.7","","-13.0","","90","","23","","8","","24.1","","98.03","","","","-16","","Snow"
"2016-01-20 09:00","2016","01","20","09:00","-11.2","","-12.5","","90","","25","","9","","16.1","","98.02","","","","-16","","Snow"
"2016-01-20 10:00","2016","01","20","10:00","-10.2","","-12.1","","86","","25","","4","","16.1","","98.00","","","","-13","","Snow"
"2016-01-20 11:00","2016","01","20","11:00","-9.3","","-11.8","","82","","36","","2","","19.3","","98.02","","","","-10","","Snow"
"2016-01-20 12:00","2016","01","20","12:00","-8.4","","-11.6","","78","","29","","7","","24.1","","97.95","","","","-12","","Snow"
"2016-01-20 13:00","2016","01","20","13:00","-8.0","","-12.6","","70","","27","","9","","24.1","","97.85","","","","-13","","Snow"
"2016-01-20 14:00","2016","01","20","14:00","-7.9","","-13.2","","66","","24","","7","","32.2","","97.77","","","","-12","","Snow"
"2016-01-20 15:00","2016","01","20","15:00","-7.8","","-13.1","","66","","29","","6","","24.1","","97.74","","","","-11","","Snow Showers"
"2016-01-20 16:00","2016","01","20","16:00","-7.8","","-13.3","","65","","25","","7","","24.1","","97.73","","","","-11","","Snow Showers"
"2016-01-20 17:00","2016","01","20","17:00","-8.1","","-12.3","","72","","31","","6","","24.1","","97.75","","","","-11","","Snow Showers"
"2016-01-20 18:00","2016","01","20","18:00","-8.3","","-12.3","","73","","36","","1","","24.1","","97.77","","","","-9","","Snow Showers"
"2016-01-20 19:00","2016","01","20","19:00","-8.6","","-11.9","","77","","27","","4","","24.1","","97.80","","","","-11","","Snow Showers"
"2016-01-20 20:00","2016","01","20","20:00","-8.6","","-11.9","","77","","28","","4","","24.1","","97.80","","","","-11","","Snow Showers"
"2016-01-20 21:00","2016","01","20","21:00","-8.9","","-11.4","","82","","31","","7","","24.1","","97.81","","","","-13","","Snow Showers"
"2016-01-20 22:00","2016","01","20","22:00","-8.8","","-10.7","","86","","1","","9","","24.1","","97.85","","","","-13","","Snow Showers"
"2016-01-20 23:00","2016","01","20","23:00","-9.7","","-11.5","","87","","2","","11","","24.1","","97.86","","","","-15","","Moderate Snow Showers"
"2016-01-21 00:00","2016","01","21","00:00","-9.9","","-11.4","","89","","1","","6","","24.1","","97.89","","","","-13","","NA"
"2016-01-21 01:00","2016","01","21","01:00","-10.2","","-11.7","","89","","1","","6","","24.1","","97.92","","","","-14","","Cloudy"
"2016-01-21 02:00","2016","01","21","02:00","-10.9","","-12.4","","89","","1","","4","","24.1","","97.95","","","","-13","","NA"
"2016-01-21 03:00","2016","01","21","03:00","-12.2","","-13.3","","92","","32","","7","","16.1","","98.02","","","","-17","","NA"
"2016-01-21 04:00","2016","01","21","04:00","-12.4","","-13.4","","92","","33","","6","","24.1","","98.04","","","","-16","","Cloudy"
"2016-01-21 05:00","2016","01","21","05:00","-12.3","","-13.5","","91","","33","","4","","24.1","","98.05","","","","-15","","NA"
"2016-01-21 06:00","2016","01","21","06:00","-12.5","","-13.8","","90","","33","","5","","24.1","","98.08","","","","-16","","NA"
"2016-01-21 07:00","2016","01","21","07:00","-12.0","","-13.2","","91","","4","","4","","24.1","","98.11","","","","-15","","Cloudy"
"2016-01-21 08:00","2016","01","21","08:00","-12.8","","-14.3","","89","","30","","5","","24.1","","98.15","","","","-16","","NA"
"2016-01-21 09:00","2016","01","21","09:00","-12.5","","-14.0","","89","","32","","3","","32.2","","98.19","","","","-14","","NA"
"2016-01-21 10:00","2016","01","21","10:00","-10.5","","-12.3","","87","","7","","7","","32.2","","98.20","","","","-15","","Mostly Cloudy"
"2016-01-21 11:00","2016","01","21","11:00","-10.7","","-12.5","","87","","31","","10","","32.2","","98.26","","","","-16","","NA"
"2016-01-21 12:00","2016","01","21","12:00","-9.3","","-12.1","","80","","31","","10","","32.2","","98.28","","","","-14","","NA"
"2016-01-21 13:00","2016","01","21","13:00","-8.4","","-11.9","","76","","31","","10","","32.2","","98.26","","","","-13","","Cloudy"
"2016-01-21 14:00","2016","01","21","14:00","-7.8","","-12.5","","69","","36","","2","","32.2","","98.20","","","","-9","","NA"
"2016-01-21 15:00","2016","01","21","15:00","-7.7","","-13.0","","66","","23","","7","","32.2","","98.19","","","","-11","","NA"
"2016-01-21 16:00","2016","01","21","16:00","-8.1","","-12.3","","72","","21","","6","","32.2","","98.20","","","","-11","","Cloudy"
"2016-01-21 17:00","2016","01","21","17:00","-8.4","","-11.9","","76","","19","","10","","32.2","","98.23","","","","-13","","NA"
"2016-01-21 18:00","2016","01","21","18:00","-8.2","","-12.1","","74","","18","","10","","32.2","","98.27","","","","-13","","NA"
"2016-01-21 19:00","2016","01","21","19:00","-8.7","","-11.9","","78","","21","","11","","24.1","","98.26","","","","-14","","Cloudy"
"2016-01-21 20:00","2016","01","21","20:00","-8.3","","-11.5","","78","","22","","9","","24.1","","98.27","","","","-13","","NA"
"2016-01-21 21:00","2016","01","21","21:00","-8.4","","-11.3","","80","","22","","7","","24.1","","98.27","","","","-12","","NA"
"2016-01-21 22:00","2016","01","21","22:00","-8.6","","-11.1","","82","","24","","7","","24.1","","98.26","","","","-12","","Cloudy"
"2016-01-21 23:00","2016","01","21","23:00","-8.8","","-11.2","","83","","36","","1","","24.1","","98.26","","","","-9","","NA"
"2016-01-22 00:00","2016","01","22","00:00","-8.6","","-11.3","","81","","24","","3","","16.1","","98.30","","","","-10","","Snow"
"2016-01-22 01:00","2016","01","22","01:00","-8.9","","-11.1","","84","","25","","5","","16.1","","98.30","","","","-12","","Snow"
"2016-01-22 02:00","2016","01","22","02:00","-7.8","","-10.1","","84","","29","","9","","9.7","","98.27","","","","-12","","Snow"
"2016-01-22 03:00","2016","01","22","03:00","-8.6","","-10.4","","87","","29","","7","","9.7","","98.30","","","","-12","","Snow"
"2016-01-22 04:00","2016","01","22","04:00","-9.2","","-10.7","","89","","32","","7","","9.7","","98.30","","","","-13","","Snow"
"2016-01-22 05:00","2016","01","22","05:00","-8.9","","-10.4","","89","","35","","8","","16.1","","98.33","","","","-13","","Snow"
"2016-01-22 06:00","2016","01","22","06:00","-8.5","","-10.7","","84","","1","","13","","24.1","","98.31","","","","-14","","Snow"
"2016-01-22 07:00","2016","01","22","07:00","-8.3","","-10.4","","85","","1","","16","","24.1","","98.30","","","","-15","","Cloudy"
"2016-01-22 08:00","2016","01","22","08:00","-8.6","","-10.5","","86","","2","","14","","32.2","","98.39","","","","-15","","NA"
"2016-01-22 09:00","2016","01","22","09:00","-9.9","","-12.0","","85","","2","","16","","32.2","","98.44","","","","-17","","NA"
"2016-01-22 10:00","2016","01","22","10:00","-10.3","","-12.7","","83","","1","","23","","32.2","","98.45","","","","-19","","Mostly Cloudy"
"2016-01-22 11:00","2016","01","22","11:00","-9.7","","-12.4","","81","","1","","16","","32.2","","98.53","","","","-17","","NA"
"2016-01-22 12:00","2016","01","22","12:00","-9.7","","-12.5","","80","","1","","16","","32.2","","98.49","","","","-17","","NA"
"2016-01-22 13:00","2016","01","22","13:00","-9.0","","-12.2","","78","","2","","18","","32.2","","98.45","","","","-16","","Mainly Clear"
"2016-01-22 14:00","2016","01","22","14:00","-8.5","","-12.2","","75","","36","","16","","32.2","","98.39","","","","-15","","NA"
"2016-01-22 15:00","2016","01","22","15:00","-8.7","","-12.5","","74","","3","","15","","32.2","","98.39","","","","-15","","NA"
"2016-01-22 16:00","2016","01","22","16:00","-8.8","","-12.5","","75","","1","","14","","32.2","","98.34","","","","-15","","Mainly Clear"
"2016-01-22 17:00","2016","01","22","17:00","-9.3","","-12.5","","78","","1","","15","","32.2","","98.31","","","","-16","","Snow Showers"
"2016-01-22 18:00","2016","01","22","18:00","-9.9","","-12.7","","80","","1","","9","","24.1","","98.36","","","","-15","","Snow Showers"
"2016-01-22 19:00","2016","01","22","19:00","-10.3","","-13.0","","81","","35","","14","","24.1","","98.37","","","","-17","","Snow Showers"
"2016-01-22 20:00","2016","01","22","20:00","-10.4","","-13.1","","81","","36","","10","","24.1","","98.40","","","","-16","","Snow Showers"
"2016-01-22 21:00","2016","01","22","21:00","-10.6","","-13.1","","82","","1","","13","","24.1","","98.38","","","","-17","","Snow Showers"
"2016-01-22 22:00","2016","01","22","22:00","-11.0","","-13.5","","82","","1","","12","","24.1","","98.37","","","","-17","","Snow Showers"
"2016-01-22 23:00","2016","01","22","23:00","-11.1","","-13.4","","83","","3","","10","","24.1","","98.34","","","","-17","","Snow Showers"
"2016-01-23 00:00","2016","01","23","00:00","-11.6","","-13.8","","84","","4","","14","","16.1","","98.34","","","","-18","","Snow Showers"
"2016-01-23 01:00","2016","01","23","01:00","-11.9","","-13.9","","85","","7","","13","","16.1","","98.26","","","","-19","","Snow Showers"
"2016-01-23 02:00","2016","01","23","02:00","-12.3","","-14.3","","85","","2","","9","","9.7","","98.25","","","","-18","","Snow Showers"
"2016-01-23 03:00","2016","01","23","03:00","-12.6","","-14.5","","86","","4","","10","","16.1","","98.19","","","","-18","","Snow Showers"
"2016-01-23 04:00","2016","01","23","04:00","-12.9","","-14.6","","87","","3","","10","","9.7","","98.17","","","","-19","","Snow Showers"
"2016-01-23 05:00","2016","01","23","05:00","-13.0","","-14.7","","87","","3","","15","","16.1","","98.14","","","","-20","","Snow Showers"
"2016-01-23 06:00","2016","01","23","06:00","-13.4","","-15.0","","88","","3","","8","","16.1","","98.06","","","","-18","","Snow Showers"
"2016-01-23 07:00","2016","01","23","07:00","-13.9","","-15.5","","88","","6","","9","","19.3","","98.05","","","","-20","","Snow Showers"
"2016-01-23 08:00","2016","01","23","08:00","-14.5","","-15.8","","90","","6","","7","","19.3","","98.08","","","","-19","","Snow Showers"
"2016-01-23 09:00","2016","01","23","09:00","-14.8","","-16.2","","89","","7","","5","","16.1","","98.06","","","","-18","","Snow Showers"
"2016-01-23 10:00","2016","01","23","10:00","-14.5","","-16.4","","86","","10","","5","","16.1","","98.03","","","","-18","","Snow Showers"
"2016-01-23 11:00","2016","01","23","11:00","-14.5","","-16.5","","85","","5","","4","","16.1","","98.01","","","","-17","","Snow Showers"
"2016-01-23 12:00","2016","01","23","12:00","-13.7","","-16.5","","80","","36","","2","","32.2","","97.89","","","","-15","","NA"
"2016-01-23 13:00","2016","01","23","13:00","-12.0","","-15.9","","73","","29","","5","","32.2","","97.75","","","","-15","","Mainly Clear"
"2016-01-23 14:00","2016","01","23","14:00","-11.1","","-15.6","","70","","11","","4","","32.2","","97.65","","","","-14","","NA"
"2016-01-23 15:00","2016","01","23","15:00","-10.2","","-14.9","","69","","30","","11","","32.2","","97.63","","","","-16","","NA"
"2016-01-23 16:00","2016","01","23","16:00","-9.2","","-14.4","","66","","15","","4","","32.2","","97.57","","","","-11","","Mainly Clear"
"2016-01-23 17:00","2016","01","23","17:00","-11.0","","-15.5","","70","","17","","9","","32.2","","97.51","","","","-16","","NA"
"2016-01-23 18:00","2016","01","23","18:00","-14.4","","-17.8","","76","","20","","9","","24.1","","97.52","","","","-20","","NA"
"2016-01-23 19:00","2016","01","23","19:00","-12.1","","-15.0","","79","","21","","8","","24.1","","97.47","","","","-17","","Mainly Clear"
"2016-01-23 20:00","2016","01","23","20:00","-12.8","","-15.6","","80","","18","","11","","24.1","","97.41","","","","-19","","NA"
"2016-01-23 21:00","2016","01","23","21:00","-14.4","","-17.0","","81","","20","","12","","24.1","","97.35","","","","-21","","NA"
"2016-01-23 22:00","2016","01","23","22:00","-13.2","","-15.8","","81","","22","","14","","24.1","","97.33","","","","-20","","Mostly Cloudy"
"2016-01-23 23:00","2016","01","23","23:00","-13.5","","-15.7","","84","","23","","11","","24.1","","97.30","","","","-20","","NA"
"2016-01-24 00:00","2016","01","24","00:00","-13.4","","-15.1","","87","","26","","8","","24.1","","97.31","","","","-18","","NA"
"2016-01-24 01:00","2016","01","24","01:00","-12.7","","-14.2","","89","","23","","8","","24.1","","97.23","","","","-18","","Cloudy"
"2016-01-24 02:00","2016","01","24","02:00"
"2016-01-24 03:00","2016","01","24","03:00","-11.7","","-13.0","","90","","21","","5","","24.1","","97.10","","","","-15","","NA"
"2016-01-24 04:00","2016","01","24","04:00","-12.1","","-13.4","","90","","17","","13","","24.1","","97.04","","","","-19","","Cloudy"
"2016-01-24 05:00","2016","01","24","05:00","-10.7","","-12.0","","90","","22","","11","","4.8","","97.00","","","","-16","","Snow"
"2016-01-24 06:00","2016","01","24","06:00","-10.0","","-11.2","","91","","20","","8","","24.1","","96.99","","","","-14","","Snow"
"2016-01-24 07:00","2016","01","24","07:00","-11.1","","-12.4","","90","","16","","12","","24.1","","97.02","","","","-17","","Snow"
"2016-01-24 08:00","2016","01","24","08:00","-10.8","","-12.1","","90","","15","","17","","1.2","","97.00","","","","-18","","Snow"
"2016-01-24 09:00","2016","01","24","09:00","-10.5","","-11.8","","90","","15","","14","","3.2","","97.02","","","","-17","","Snow"
"2016-01-24 10:00","2016","01","24","10:00","-9.5","","-11.0","","89","","15","","10","","4.0","","97.03","","","","-15","","Snow"
"2016-01-24 11:00","2016","01","24","11:00","-8.4","","-10.0","","88","","15","","10","","16.1","","97.02","","","","-13","","Snow"
"2016-01-24 12:00","2016","01","24","12:00","-6.8","","-8.6","","87","","16","","9","","3.2","","96.98","","","","-11","","Snow"
"2016-01-24 13:00","2016","01","24","13:00","-5.4","","-6.8","","90","","19","","7","","19.3","","96.97","","","","-9","","Snow"
"2016-01-24 14:00","2016","01","24","14:00","-4.7","","-6.1","","90","","18","","9","","19.3","","96.93","","","","-9","","Snow"
"2016-01-24 15:00","2016","01","24","15:00","-4.0","","-5.4","","90","","19","","8","","24.1","","96.94","","","","-7","","Snow"
"2016-01-24 16:00","2016","01","24","16:00","-3.6","","-5.0","","90","","16","","5","","24.1","","97.00","","","","-6","","Snow"
"2016-01-24 17:00","2016","01","24","17:00","-3.6","","-4.9","","91","","10","","6","","24.1","","97.04","","","","-6","","Snow"
"2016-01-24 18:00","2016","01","24","18:00","-3.7","","-4.7","","93","","10","","7","","16.1","","97.09","","","","-7","","Snow"
"2016-01-24 19:00","2016","01","24","19:00","-4.0","","-4.8","","94","","6","","10","","16.1","","97.17","","","","-8","","Snow"
"2016-01-24 20:00","2016","01","24","20:00","-4.1","","-4.8","","95","","8","","8","","12.9","","97.23","","","","-8","","Snow"
"2016-01-24 21:00","2016","01","24","21:00","-4.2","","-4.8","","96","","6","","9","","6.4","","97.25","","","","-8","","Freezing Drizzle,Snow"
"2016-01-24 22:00","2016","01","24","22:00","-4.2","","-4.6","","97","","4","","12","","1.2","","97.29","","","","-9","","Freezing Drizzle,Snow,Fog"
"2016-01-24 23:00","2016","01","24","23:00","-3.9","","-4.3","","97","","11","","9","","1.2","","97.23","","","","-8","","Freezing Drizzle,Snow,Fog"
"2016-01-25 00:00","2016","01","25","00:00","-3.9","","-4.3","","97","","5","","7","","4.8","","97.30","","","","-7","","Snow,Fog"
"2016-01-25 01:00","2016","01","25","01:00","-4.0","","-4.4","","97","","4","","11","","1.0","","97.34","","","","-8","","Snow,Fog"
"2016-01-25 02:00","2016","01","25","02:00","-4.1","","-4.5","","97","","5","","14","","1.2","","97.34","","","","-9","","Snow,Fog"
"2016-01-25 03:00","2016","01","25","03:00","-3.9","","-4.3","","97","","10","","9","","1.2","","97.35","","","","-8","","Snow,Fog"
"2016-01-25 04:00","2016","01","25","04:00","-3.9","","-4.3","","97","","12","","8","","1.2","","97.35","","","","-7","","Snow,Fog"
"2016-01-25 05:00","2016","01","25","05:00","-3.7","","-4.1","","97","","11","","9","","0.6","","97.35","","","","-7","","Freezing Fog"
"2016-01-25 06:00","2016","01","25","06:00","-3.4","","-3.8","","97","","12","","9","","0.8","","97.40","","","","-7","","Freezing Drizzle,Freezing Fog"
"2016-01-25 07:00","2016","01","25","07:00","-2.9","","-3.3","","97","","14","","12","","1.2","","97.41","","","","-7","","Freezing Drizzle,Snow"
"2016-01-25 08:00","2016","01","25","08:00","-2.3","","-2.6","","98","","15","","13","","1.6","","97.42","","","","-7","","Freezing Drizzle,Snow,Fog"
"2016-01-25 09:00","2016","01","25","09:00","-2.3","","-2.7","","97","","16","","17","","3.2","","97.40","","","","-8","","Freezing Drizzle,Fog"
"2016-01-25 10:00","2016","01","25","10:00","-2.5","","-2.9","","97","","16","","18","","3.2","","97.39","","","","-8","","Freezing Drizzle,Fog"
"2016-01-25 11:00","2016","01","25","11:00","-2.6","","-3.0","","97","","16","","14","","3.2","","97.37","","","","-7","","Freezing Drizzle,Fog"
"2016-01-25 12:00","2016","01","25","12:00","-2.5","","-2.9","","97","","16","","21","","3.2","","97.26","","","","-9","","Freezing Drizzle,Fog"
"2016-01-25 13:00","2016","01","25","13:00","-2.4","","-2.8","","97","","17","","20","","2.4","","97.16","","","","-8","","Freezing Drizzle,Fog"
"2016-01-25 14:00","2016","01","25","14:00","-2.4","","-2.8","","97","","15","","18","","2.4","","97.07","","","","-8","","Freezing Drizzle,Fog"
"2016-01-25 15:00","2016","01","25","15:00","-2.4","","-2.8","","97","","16","","19","","1.6","","96.99","","","","-8","","Freezing Drizzle,Fog"
"2016-01-25 16:00","2016","01","25","16:00","-2.3","","-2.7","","97","","16","","20","","2.4","","96.95","","","","-8","","Snow,Fog"
"2016-01-25 17:00","2016","01","25","17:00","-2.3","","-2.7","","97","","15","","17","","3.2","","96.91","","","","-8","","Snow,Fog"
"2016-01-25 18:00","2016","01","25","18:00","-2.2","","-2.6","","97","","16","","17","","3.2","","96.86","","","","-8","","Fog"
"2016-01-25 19:00","2016","01","25","19:00","-2.1","","-2.5","","97","","15","","19","","3.2","","96.81","","","","-8","","Fog"
"2016-01-25 20:00","2016","01","25","20:00","-2.1","","-2.7","","96","","15","","21","","3.2","","96.74","","","","-8","","Fog"
"2016-01-25 21:00","2016","01","25","21:00","-2.4","","-3.0","","96","","15","","21","","3.2","","96.65","","","","-8","","Fog"
"2016-01-25 22:00","2016","01","25","22:00","-2.5","","-3.2","","95","","15","","21","","4.8","","96.55","","","","-9","","Fog"
"2016-01-25 23:00","2016","01","25","23:00","-2.4","","-3.4","","93","","15","","19","","12.9","","96.43","","","","-8","","NA"
"2016-01-26 00:00","2016","01","26","00:00","-2.4","","-3.4","","93","","15","","19","","12.9","","96.34","","","","-8","","NA"
"2016-01-26 01:00","2016","01","26","01:00","-2.3","","-3.1","","94","","16","","17","","12.9","","96.31","","","","-8","","Cloudy"
"2016-01-26 02:00","2016","01","26","02:00","-2.3","","-3.1","","94","","15","","14","","12.9","","96.21","","","","-7","","NA"
"2016-01-26 03:00","2016","01","26","03:00","-2.2","","-2.9","","95","","14","","13","","4.8","","96.13","","","","-7","","Snow"
"2016-01-26 04:00","2016","01","26","04:00","-2.4","","-3.0","","96","","13","","13","","1.2","","96.01","","","","-7","","Snow"
"2016-01-26 05:00","2016","01","26","05:00","-2.4","","-3.0","","96","","12","","10","","3.2","","95.95","","","","-6","","Snow"
"2016-01-26 06:00","2016","01","26","06:00","-2.4","","-2.8","","97","","12","","10","","3.2","","95.86","","","","-6","","Snow"
"2016-01-26 07:00","2016","01","26","07:00","-2.4","","-2.8","","97","","6","","8","","3.2","","95.82","","","","-6","","Snow"
"2016-01-26 08:00","2016","01","26","08:00","-2.5","","-2.9","","97","","2","","10","","1.6","","95.80","","","","-6","","Snow"
"2016-01-26 09:00","2016","01","26","09:00","-2.4","","-3.0","","96","","2","","12","","1.6","","95.79","","","","-7","","Snow"
"2016-01-26 10:00","2016","01","26","10:00","-1.9","","-2.5","","96","","36","","10","","1.6","","95.79","","","","-6","","Snow"
"2016-01-26 11:00","2016","01","26","11:00","-1.4","","-2.2","","94","","35","","12","","4.8","","95.83","","","","-5","","Snow"
"2016-01-26 12:00","2016","01","26","12:00","-0.8","","-2.1","","91","","34","","16","","4.0","","95.85","","","","-6","","Snow"
"2016-01-26 13:00","2016","01","26","13:00","-1.0","","-2.7","","88","","34","","17","","4.8","","95.90","","","","-6","","Snow Grains"
"2016-01-26 14:00","2016","01","26","14:00","-3.0","","-5.2","","85","","34","","26","","9.7","","96.07","","","","-10","","Snow"
"2016-01-26 15:00","2016","01","26","15:00","-4.4","","-6.4","","86","","32","","26","","4.8","","96.23","","","","-12","","Snow"
"2016-01-26 16:00","2016","01","26","16:00","-5.8","","-8.1","","84","","33","","25","","4.8","","96.38","","","","-13","","Snow"
"2016-01-26 17:00","2016","01","26","17:00","-7.0","","-8.8","","87","","33","","22","","3.2","","96.55","","","","-14","","Snow,Blowing Snow"
"2016-01-26 18:00","2016","01","26","18:00","-7.6","","-9.7","","85","","34","","14","","4.0","","96.70","","","","-14","","Snow"
"2016-01-26 19:00","2016","01","26","19:00","-8.0","","-9.5","","89","","34","","10","","4.8","","96.83","","","","-13","","Snow"
"2016-01-26 20:00","2016","01","26","20:00","-8.4","","-10.6","","84","","33","","18","","9.7","","96.90","","","","-15","","Snow"
"2016-01-26 21:00","2016","01","26","21:00","-9.2","","-11.6","","83","","36","","19","","8.1","","96.98","","","","-17","","Snow,Blowing Snow"
"2016-01-26 22:00","2016","01","26","22:00","-9.7","","-12.2","","82","","35","","18","","4.8","","97.06","","","","-17","","Snow,Blowing Snow"
"2016-01-26 23:00","2016","01","26","23:00","-10.4","","-12.6","","84","","34","","14","","4.8","","97.13","","","","-17","","Snow,Blowing Snow"
"2016-01-27 00:00","2016","01","27","00:00","-11.3","","-13.6","","83","","34","","10","","24.1","","97.19","","","","-17","","Snow"
"2016-01-27 01:00","2016","01","27","01:00","-11.5","","-14.0","","82","","34","","14","","24.1","","97.20","","","","-18","","Snow"
"2016-01-27 02:00","2016","01","27","02:00","-11.6","","-13.9","","83","","34","","13","","24.1","","97.21","","","","-18","","Snow"
"2016-01-27 03:00","2016","01","27","03:00","-12.8","","-14.7","","86","","32","","9","","24.1","","97.27","","","","-18","","Snow"
"2016-01-27 04:00","2016","01","27","04:00","-13.6","","-15.3","","87","","33","","7","","24.1","","97.31","","","","-18","","Mostly Cloudy"
"2016-01-27 05:00","2016","01","27","05:00","-13.3","","-14.9","","88","","29","","5","","24.1","","97.39","","","","-17","","NA"
"2016-01-27 06:00","2016","01","27","06:00","-13.2","","-14.8","","88","","27","","5","","24.1","","97.41","","","","-17","","NA"
"2016-01-27 07:00","2016","01","27","07:00","-12.8","","-14.7","","86","","26","","7","","24.1","","97.47","","","","-17","","Cloudy"
"2016-01-27 08:00","2016","01","27","08:00","-14.1","","-15.3","","91","","22","","8","","32.2","","97.47","","","","-19","","NA"
"2016-01-27 09:00","2016","01","27","09:00","-14.2","","-15.4","","91","","21","","10","","32.2","","97.47","","","","-20","","NA"
"2016-01-27 10:00","2016","01","27","10:00","-12.8","","-14.5","","87","","21","","13","","32.2","","97.43","","","","-20","","Clear"
"2016-01-27 11:00","2016","01","27","11:00","-10.0","","-13.1","","78","","22","","14","","32.2","","97.49","","","","-16","","NA"
"2016-01-27 12:00","2016","01","27","12:00","-8.4","","-12.2","","74","","22","","18","","32.2","","97.41","","","","-15","","NA"
"2016-01-27 13:00","2016","01","27","13:00","-6.8","","-10.4","","76","","21","","21","","32.2","","97.26","","","","-14","","Mostly Cloudy"
"2016-01-27 14:00","2016","01","27","14:00","-5.2","","-8.8","","76","","22","","22","","32.2","","97.16","","","","-12","","NA"
"2016-01-27 15:00","2016","01","27","15:00","-4.8","","-8.1","","78","","22","","24","","32.2","","97.11","","","","-12","","NA"
"2016-01-27 16:00","2016","01","27","16:00","-4.7","","-8.0","","78","","21","","20","","16.1","","97.07","","","","-11","","Snow Showers"
"2016-01-27 17:00","2016","01","27","17:00","-4.8","","-7.4","","82","","20","","23","","24.1","","96.97","","","","-12","","Snow Showers"
"2016-01-27 18:00","2016","01","27","18:00","-4.5","","-7.0","","83","","20","","28","","24.1","","96.89","","","","-12","","Snow Showers"
"2016-01-27 19:00","2016","01","27","19:00","-4.3","","-7.8","","77","","21","","23","","24.1","","96.78","","","","-11","","Snow Showers"
"2016-01-27 20:00","2016","01","27","20:00","-4.2","","-7.5","","78","","20","","29","","24.1","","96.67","","","","-12","","Snow Showers"
"2016-01-27 21:00","2016","01","27","21:00","-4.0","","-6.6","","82","","20","","26","","24.1","","96.58","","","","-11","","NA"
"2016-01-27 22:00","2016","01","27","22:00","-3.3","","-5.6","","84","","20","","26","","24.1","","96.48","","","","-10","","Cloudy"
"2016-01-27 23:00","2016","01","27","23:00","-2.8","","-5.5","","82","","21","","32","","24.1","","96.37","","","","-10","","Snow Showers"
"2016-01-28 00:00","2016","01","28","00:00","-3.4","","-5.3","","87","","20","","33","","4.0","","96.28","","","","-11","","Snow Showers"
"2016-01-28 01:00","2016","01","28","01:00","-3.5","","-4.6","","92","","20","","34","","3.2","","96.22","","","","-11","","Snow Showers"
"2016-01-28 02:00","2016","01","28","02:00","-3.6","","-5.0","","90","","20","","37","","4.0","","96.07","","","","-12","","Snow Showers"
"2016-01-28 03:00","2016","01","28","03:00","-3.4","","-4.8","","90","","20","","41","","4.0","","95.97","","","","-12","","Snow Showers"
"2016-01-28 04:00","2016","01","28","04:00","-3.2","","-4.6","","90","","19","","42","","4.8","","95.85","","","","-12","","Snow Showers"
"2016-01-28 05:00","2016","01","28","05:00","-2.9","","-4.0","","92","","19","","37","","4.0","","95.73","","","","-11","","Snow Showers"
"2016-01-28 06:00","2016","01","28","06:00","-2.3","","-3.1","","94","","19","","30","","4.8","","95.65","","","","-9","","Freezing Rain,Snow Showers"
"2016-01-28 07:00","2016","01","28","07:00","-1.8","","-2.6","","94","","19","","34","","4.8","","95.62","","","","-9","","Freezing Rain,Snow Showers"
"2016-01-28 08:00","2016","01","28","08:00","-1.6","","-2.4","","94","","18","","30","","4.8","","95.51","","","","-9","","Freezing Rain,Snow Showers"
"2016-01-28 09:00","2016","01","28","09:00","-1.6","","-2.2","","96","","18","","27","","1.6","","95.45","","","","-8","","Snow,Blowing Snow"
"2016-01-28 10:00","2016","01","28","10:00","-1.3","","-1.9","","96","","17","","30","","1.2","","95.36","","","","-8","","Snow,Blowing Snow"
"2016-01-28 11:00","2016","01","28","11:00","-0.9","","-1.6","","95","","18","","28","","1.0","","95.30","","","","-7","","Snow,Blowing Snow"
"2016-01-28 12:00","2016","01","28","12:00","-0.8","","-1.5","","95","","17","","30","","1.2","","95.25","","","","-8","","Snow,Blowing Snow"
"2016-01-28 13:00","2016","01","28","13:00","-0.5","","-1.2","","95","","19","","23","","1.2","","95.17","","","","-6","","Snow,Blowing Snow"
"2016-01-28 14:00","2016","01","28","14:00","-0.4","","-1.0","","96","","20","","22","","1.2","","95.15","","","","-6","","Snow,Blowing Snow"
"2016-01-28 15:00","2016","01","28","15:00","-0.4","","-1.0","","96","","21","","16","","2.4","","95.14","","","","-5","","Snow,Blowing Snow"
"2016-01-28 16:00","2016","01","28","16:00","-0.9","","-2.2","","91","","22","","18","","4.8","","95.16","","","","-6","","Snow"
"2016-01-28 17:00","2016","01","28","17:00","-1.8","","-2.8","","93","","22","","18","","2.4","","95.20","","","","-7","","Snow"
"2016-01-28 18:00","2016","01","28","18:00","-2.2","","-2.8","","96","","23","","16","","2.4","","95.27","","","","-7","","Snow"
"2016-01-28 19:00","2016","01","28","19:00","-7.4","","-9.4","","86","","33","","31","","2.4","","95.46","","","","-16","","Snow,Blowing Snow"
"2016-01-28 20:00","2016","01","28","20:00","-10.7","","-13.1","","83","","33","","31","","4.0","","95.61","","","","-21","","Snow,Blowing Snow"
"2016-01-28 21:00","2016","01","28","21:00","-12.6","","-15.4","","80","","35","","29","","4.0","","95.70","","","","-23","","Snow,Blowing Snow"
"2016-01-28 22:00","2016","01","28","22:00","-13.9","","-16.8","","79","","36","","30","","4.0","","95.76","","","","-25","","Snow,Blowing Snow"
"2016-01-28 23:00","2016","01","28","23:00","-15.4","","-18.6","","77","","36","","27","","16.1","","95.84","","","","-26","","Snow,Blowing Snow"
"2016-01-29 00:00","2016","01","29","00:00","-17.2","","-20.6","","75","","35","","32","","24.1","","95.88","","","","-29","","Snow,Blowing Snow"
"2016-01-29 01:00","2016","01","29","01:00","-17.9","","-21.2","","76","","35","","34","","8.1","","95.95","","","","-30","","Snow,Blowing Snow"
"2016-01-29 02:00","2016","01","29","02:00","-19.1","","-22.3","","76","","36","","27","","8.1","","96.03","","","","-31","","Snow,Blowing Snow"
"2016-01-29 03:00","2016","01","29","03:00","-20.4","","-23.6","","76","","35","","31","","8.1","","96.12","","","","-33","","Snow,Blowing Snow"
"2016-01-29 04:00","2016","01","29","04:00","-21.5","","-24.8","","75","","36","","33","","24.1","","96.19","","","","-35","","Cloudy"
"2016-01-29 05:00","2016","01","29","05:00","-22.3","","-25.6","","75","","36","","26","","24.1","","96.29","","","","-35","","Snow,Blowing Snow"
"2016-01-29 06:00","2016","01","29","06:00","-22.8","","-26.1","","75","","36","","23","","24.1","","96.35","","","","-35","","Blowing Snow"
"2016-01-29 07:00","2016","01","29","07:00","-23.3","","-26.7","","74","","36","","30","","24.1","","96.47","","","","-37","","Blowing Snow"
"2016-01-29 08:00","2016","01","29","08:00","-23.8","","-26.9","","76","","36","","27","","32.2","","96.53","","","","-37","","Blowing Snow"
"2016-01-29 09:00","2016","01","29","09:00","-23.6","","-27.0","","74","","36","","26","","32.2","","96.58","","","","-36","","Blowing Snow"
"2016-01-29 10:00","2016","01","29","10:00","-22.3","","-25.9","","73","","36","","30","","32.2","","96.66","","","","-36","","Blowing Snow"
"2016-01-29 11:00","2016","01","29","11:00","-20.6","","-24.6","","71","","35","","23","","32.2","","96.74","","","","-32","","NA"
"2016-01-29 12:00","2016","01","29","12:00","-18.6","","-22.8","","70","","36","","19","","32.2","","96.70","","","","-28","","NA"
"2016-01-29 13:00","2016","01","29","13:00","-17.0","","-21.3","","70","","36","","18","","32.2","","96.68","","","","-26","","Clear"
"2016-01-29 14:00","2016","01","29","14:00","-14.8","","-19.1","","70","","34","","20","","32.2","","96.72","","","","-24","","NA"
"2016-01-29 15:00","2016","01","29","15:00","-13.8","","-18.5","","68","","32","","16","","32.2","","96.80","","","","-22","","NA"
"2016-01-29 16:00","2016","01","29","16:00","-14.2","","-18.7","","69","","4","","14","","32.2","","96.78","","","","-22","","Mainly Clear"
"2016-01-29 17:00","2016","01","29","17:00","-14.6","","-18.9","","70","","32","","11","","32.2","","96.89","","","","-21","","NA"
"2016-01-29 18:00","2016","01","29","18:00","-15.6","","-18.6","","78","","31","","5","","24.1","","96.92","","","","-19","","NA"
"2016-01-29 19:00","2016","01","29","19:00","-16.8","","-20.3","","75","","35","","7","","24.1","","96.91","","","","-22","","Mainly Clear"
"2016-01-29 20:00","2016","01","29","20:00","-16.9","","-19.4","","81","","36","","2","","24.1","","96.93","","","","-18","","NA"
"2016-01-29 21:00","2016","01","29","21:00","-17.4","","-19.8","","82","","36","","3","","24.1","","96.91","","","","-20","","NA"
"2016-01-29 22:00","2016","01","29","22:00","-17.2","","-19.6","","82","","16","","8","","24.1","","96.86","","","","-23","","Mostly Cloudy"
"2016-01-29 23:00","2016","01","29","23:00","-17.0","","-19.4","","82","","16","","13","","24.1","","96.82","","","","-25","","NA"
"2016-01-30 00:00","2016","01","30","00:00","-16.4","","-19.2","","79","","17","","16","","24.1","","96.80","","","","-25","","NA"
"2016-01-30 01:00","2016","01","30","01:00","-16.0","","-18.7","","80","","17","","18","","24.1","","96.71","","","","-25","","Cloudy"
"2016-01-30 02:00","2016","01","30","02:00","-16.0","","-18.6","","81","","16","","21","","24.1","","96.62","","","","-26","","NA"
"2016-01-30 03:00","2016","01","30","03:00","-15.5","","-17.8","","83","","15","","21","","24.1","","96.55","","","","-25","","NA"
"2016-01-30 04:00","2016","01","30","04:00","-14.7","","-16.4","","87","","14","","24","","8.1","","96.40","","","","-25","","Snow"
"2016-01-30 05:00","2016","01","30","05:00","-14.3","","-16.2","","86","","14","","27","","8.1","","96.20","","","","-25","","Snow"
"2016-01-30 06:00","2016","01","30","06:00","-12.4","","-13.7","","90","","14","","27","","16.1","","96.03","","","","-22","","Snow,Blowing Snow"
"2016-01-30 07:00","2016","01","30","07:00","-11.1","","-12.3","","91","","15","","20","","19.3","","95.96","","","","-19","","Snow,Blowing Snow"
"2016-01-30 08:00","2016","01","30","08:00","-9.9","","-11.1","","91","","15","","22","","9.7","","95.90","","","","-18","","Snow,Blowing Snow"
"2016-01-30 09:00","2016","01","30","09:00","-7.4","","-8.3","","93","","16","","28","","8.1","","95.84","","","","-16","","Snow,Blowing Snow"
"2016-01-30 10:00","2016","01","30","10:00","-6.5","","-7.3","","94","","16","","29","","2.4","","95.75","","","","-15","","Freezing Drizzle,Snow,Blowing Snow"
"2016-01-30 11:00","2016","01","30","11:00","-5.4","","-6.1","","95","","16","","27","","2.4","","95.70","","","","-13","","Freezing Drizzle,Snow,Blowing Snow"
"2016-01-30 12:00","2016","01","30","12:00","-3.5","","-4.1","","96","","18","","19","","2.4","","95.68","","","","-9","","Freezing Drizzle,Snow,Fog,Blowing Snow"
"2016-01-30 13:00","2016","01","30","13:00","-1.1","","-1.5","","97","","22","","23","","4.8","","95.62","","","","-7","","Freezing Drizzle,Snow,Fog,Blowing Snow"
"2016-01-30 14:00","2016","01","30","14:00","-0.4","","-1.3","","94","","23","","26","","4.8","","95.58","","","","-7","","Freezing Drizzle,Fog,Blowing Snow"
"2016-01-30 15:00","2016","01","30","15:00","-0.2","","-1.3","","92","","23","","20","","6.4","","95.59","","","","-5","","Fog,Blowing Snow"
"2016-01-30 16:00","2016","01","30","16:00","-0.1","","-1.1","","93","","22","","24","","4.8","","95.62","","","","-6","","Fog,Blowing Snow"
"2016-01-30 17:00","2016","01","30","17:00","0.0","","-1.0","","93","","22","","29","","4.8","","95.67","","","","-6","","Fog,Blowing Snow"
"2016-01-30 18:00","2016","01","30","18:00","0.2","","-1.0","","92","","23","","24","","11.3","","95.74","","","","","","Fog,Blowing Snow"
"2016-01-30 19:00","2016","01","30","19:00","0.3","","-1.0","","91","","23","","27","","16.1","","95.78","","","","","","Blowing Snow"
"2016-01-30 20:00","2016","01","30","20:00","0.6","","-1.0","","89","","23","","24","","16.1","","95.84","","","","","","Blowing Snow"
"2016-01-30 21:00","2016","01","30","21:00","0.6","","-0.7","","91","","22","","29","","16.1","","95.87","","","","","","Blowing Snow"
"2016-01-30 22:00","2016","01","30","22:00","-0.1","","-1.0","","94","","21","","18","","11.3","","95.85","","","","-5","","Blowing Snow"
"2016-01-30 23:00","2016","01","30","23:00","-0.6","","-1.3","","95","","21","","18","","8.1","","95.87","","","","-6","","Fog"
"2016-01-31 00:00","2016","01","31","00:00","-0.3","","-1.0","","95","","22","","18","","8.1","","95.92","","","","-5","","Fog"
"2016-01-31 01:00","2016","01","31","01:00","-0.4","","-1.1","","95","","23","","10","","9.7","","95.93","","","","-4","","Fog"
"2016-01-31 02:00","2016","01","31","02:00","-0.5","","-1.2","","95","","21","","11","","16.1","","95.96","","","","-4","","NA"
"2016-01-31 03:00","2016","01","31","03:00","0.1","","-0.8","","94","","22","","12","","24.1","","95.99","","","","","","NA"
"2016-01-31 04:00","2016","01","31","04:00","0.8","","-0.7","","90","","23","","9","","24.1","","95.96","","","","","","Cloudy"
"2016-01-31 05:00","2016","01","31","05:00","0.7","","-0.8","","90","","21","","12","","24.1","","95.99","","","","","","NA"
"2016-01-31 06:00","2016","01","31","06:00","0.8","","-0.5","","91","","22","","10","","24.1","","96.00","","","","","","NA"
"2016-01-31 07:00","2016","01","31","07:00","0.8","","-0.5","","91","","19","","17","","24.1","","96.01","","","","","","Cloudy"
"2016-01-31 08:00","2016","01","31","08:00","1.0","","-0.5","","90","","22","","14","","24.1","","96.03","","","","","","NA"
"2016-01-31 09:00","2016","01","31","09:00","0.3","","-0.6","","94","","17","","9","","24.1","","96.02","","","","","","NA"
"2016-01-31 10:00","2016","01","31","10:00","0.6","","-0.1","","95","","20","","18","","3.2","","96.07","","","","","","Rain,Snow"
"2016-01-31 11:00","2016","01","31","11:00","0.5","","0.1","","97","","21","","14","","1.6","","96.09","","","","","","Snow"
"2016-01-31 12:00","2016","01","31","12:00","1.1","","0.7","","97","","20","","13","","2.4","","96.02","","","","","","Rain,Fog"
"2016-01-31 13:00","2016","01","31","13:00","1.5","","1.1","","97","","21","","14","","1.6","","95.97","","","","","","Rain,Fog"
"2016-01-31 14:00","2016","01","31","14:00","1.7","","1.3","","97","","22","","12","","2.4","","95.92","","","","","","Rain,Fog"
"2016-01-31 15:00","2016","01","31","15:00","2.0","","1.7","","98","","27","","6","","2.4","","95.87","","","","","","Rain,Fog"
"2016-01-31 16:00","2016","01","31","16:00","1.8","","1.5","","98","","16","","8","","0.6","","95.87","","","","","","Rain,Fog"
"2016-01-31 17:00","2016","01","31","17:00","1.5","","1.4","","99","","36","","2","","0.4","","95.82","","","","","","Rain,Fog"
"2016-01-31 18:00","2016","01","31","18:00","0.6","","0.5","","99","","3","","8","","0.4","","95.76","","","","","","Rain,Fog"
"2016-01-31 19:00","2016","01","31","19:00","0.2","","0.1","","99","","3","","7","","0.6","","95.70","","","","","","Snow,Fog"
"2016-01-31 20:00","2016","01","31","20:00","-0.1","","-0.2","","99","","4","","9","","1.2","","95.66","","","","-3","","Snow"
"2016-01-31 21:00","2016","01","31","21:00","-0.2","","-0.3","","99","","2","","11","","1.6","","95.61","","","","-4","","Snow"
"2016-01-31 22:00","2016","01","31","22:00","0.0","","-0.1","","99","","36","","14","","2.0","","95.60","","","","-4","","Snow"
"2016-01-31 23:00","2016","01","31","23:00","0.0","","-0.1","","99","","1","","19","","2.0","","95.56","","","","-5","","Snow"
