"Station Name","SUDBURY A"
"Province","ONTARIO"
"Latitude","46.63"
"Longitude","-80.80"
"Elevation","348.40"
"Climate Identifier","6068153"
"WMO Identifier","71730"
"TC Identifier","YSB"
"All times are specified in Local Standard Time (LST). Add 1 hour to adjust for Daylight Saving Time where and when it is observed."

"Legend"
"E","Estimated"
"M","Missing"
"NA","Not Available"

"Date/Time","Year","Month","Day","Time","Temp (°C)","Temp Flag","Dew Point Temp (°C)","Dew Point Temp Flag","Rel Hum (%)","Rel Hum Flag","Wind Dir (10s deg)","Wind Dir Flag","Wind Spd (km/h)","Wind Spd Flag","Visibility (km)","Visibility Flag","Stn Press (kPa)","Stn Press Flag","Hmdx","Hmdx Flag","Wind Chill","Wind Chill Flag","Weather"
"2017-01-01 00:00","2017","01","01","00:00","-14.3","","-16.3","","85","","30","","14","","24.1","","96.19","","","","-22","","NA"
"2017-01-01 01:00","2017","01","01","01:00","-14.3","","-16.4","","84","","28","","14","","24.1","","96.35","","","","-22","","Snow"
"2017-01-01 02:00","2017","01","01","02:00","-14.5","","-16.6","","84","","30","","11","","24.1","","96.47","","","","-21","","NA"
"2017-01-01 03:00","2017","01","01","03:00","-15.1","","-17.1","","85","","23","","11","","24.1","","96.64","","","","-22","","NA"
"2017-01-01 04:00","2017","01","01","04:00","-14.8","","-16.9","","84","","21","","13","","24.1","","96.79","","","","-22","","Mostly Cloudy"
"2017-01-01 05:00","2017","01","01","05:00","-14.0","","-16.3","","83","","24","","12","","24.1","","96.90","","","","-21","","NA"
"2017-01-01 06:00","2017","01","01","06:00","-13.0","","-15.3","","83","","23","","7","","16.1","","96.93","","","","-18","","Snow"
"2017-01-01 07:00","2017","01","01","07:00","-12.5","","-14.7","","84","","21","","7","","24.1","","96.99","","","","-17","","Snow"
"2017-01-01 08:00","2017","01","01","08:00","-11.3","","-13.1","","87","","21","","13","","8.1","","97.07","","","","-18","","Fog"
"2017-01-01 09:00","2017","01","01","09:00","-11.6","","-12.8","","91","","19","","11","","0.8","","97.16","","","","-18","","Freezing Fog"
"2017-01-01 10:00","2017","01","01","10:00","-11.1","","-12.7","","88","","16","","15","","24.1","","97.23","","","","-18","","Mostly Cloudy"
"2017-01-01 11:00","2017","01","01","11:00","-9.6","","-11.4","","87","","16","","12","","12.9","","97.27","","","","-15","","Snow"
"2017-01-01 12:00","2017","01","01","12:00","-6.8","","-8.5","","88","","18","","19","","24.1","","97.23","","","","-14","","Snow"
"2017-01-01 13:00","2017","01","01","13:00","-4.2","","-6.5","","84","","18","","22","","32.2","","97.19","","","","-11","","Snow"
"2017-01-01 14:00","2017","01","01","14:00","-2.6","","-5.4","","81","","20","","19","","32.2","","97.26","","","","-8","","NA"
"2017-01-01 15:00","2017","01","01","15:00","-0.8","","-5.2","","72","","23","","23","","32.2","","97.35","","","","-7","","NA"
"2017-01-01 16:00","2017","01","01","16:00","-0.9","","-5.3","","72","","22","","21","","32.2","","97.45","","","","-7","","Cloudy"
"2017-01-01 17:00","2017","01","01","17:00","-1.1","","-5.3","","73","","24","","17","","32.2","","97.61","","","","-6","","NA"
"2017-01-01 18:00","2017","01","01","18:00","-1.1","","-5.5","","72","","25","","17","","24.1","","97.75","","","","-6","","NA"
"2017-01-01 19:00","2017","01","01","19:00","-1.7","","-5.9","","73","","25","","10","","24.1","","97.83","","","","-5","","Cloudy"
"2017-01-01 20:00","2017","01","01","20:00","-1.9","","-5.9","","74","","26","","10","","24.1","","97.94","","","","-6","","NA"
"2017-01-01 21:00","2017","01","01","21:00","-2.3","","-6.1","","75","","25","","5","","24.1","","98.01","","","","-4","","NA"
"2017-01-01 22:00","2017","01","01","22:00","-2.5","","-6.0","","77","","19","","4","","24.1","","98.08","","","","-4","","Cloudy"
"2017-01-01 23:00","2017","01","01","23:00","-3.1","","-6.2","","79","","25","","7","","24.1","","98.14","","","","-6","","NA"
"2017-01-02 00:00","2017","01","02","00:00","-3.3","","-6.3","","80","","23","","4","","24.1","","98.27","","","","-5","","NA"
"2017-01-02 01:00","2017","01","02","01:00","-3.1","","-6.2","","79","","27","","3","","24.1","","98.29","","","","-4","","Cloudy"
"2017-01-02 02:00","2017","01","02","02:00","-3.9","","-6.7","","81","","21","","7","","24.1","","98.32","","","","-7","","NA"
"2017-01-02 03:00","2017","01","02","03:00","-3.9","","-6.4","","83","","36","","2","","24.1","","98.44","","","","-5","","NA"
"2017-01-02 04:00","2017","01","02","04:00","-4.0","","-6.6","","82","","2","","9","","24.1","","98.40","","","","-8","","Cloudy"
"2017-01-02 05:00","2017","01","02","05:00","-4.1","","-6.3","","85","","12","","6","","24.1","","98.45","","","","-7","","NA"
"2017-01-02 06:00","2017","01","02","06:00","-4.6","","-6.4","","87","","6","","10","","24.1","","98.48","","","","-9","","NA"
"2017-01-02 07:00","2017","01","02","07:00","-4.2","","-5.9","","88","","8","","13","","24.1","","98.54","","","","-9","","Cloudy"
"2017-01-02 08:00","2017","01","02","08:00","-4.5","","-5.6","","92","","4","","19","","24.1","","98.60","","","","-11","","NA"
"2017-01-02 09:00","2017","01","02","09:00","-4.6","","-5.7","","92","","4","","28","","32.2","","98.63","","","","-12","","NA"
"2017-01-02 10:00","2017","01","02","10:00","-4.8","","-6.2","","90","","4","","23","","32.2","","98.67","","","","-12","","Cloudy"
"2017-01-02 11:00","2017","01","02","11:00","-4.4","","-6.1","","88","","4","","20","","32.2","","98.71","","","","-11","","NA"
"2017-01-02 12:00","2017","01","02","12:00","-3.8","","-5.7","","87","","4","","22","","32.2","","98.65","","","","-10","","NA"
"2017-01-02 13:00","2017","01","02","13:00","-3.7","","-5.4","","88","","3","","21","","32.2","","98.55","","","","-10","","Mostly Cloudy"
"2017-01-02 14:00","2017","01","02","14:00","-2.9","","-5.4","","83","","5","","19","","32.2","","98.49","","","","-9","","NA"
"2017-01-02 15:00","2017","01","02","15:00","-2.5","","-5.0","","83","","5","","19","","32.2","","98.40","","","","-8","","NA"
"2017-01-02 16:00","2017","01","02","16:00","-3.2","","-5.4","","85","","4","","23","","32.2","","98.40","","","","-10","","Mostly Cloudy"
"2017-01-02 17:00","2017","01","02","17:00","-3.5","","-5.4","","87","","5","","22","","32.2","","98.35","","","","-10","","NA"
"2017-01-02 18:00","2017","01","02","18:00","-3.4","","-5.0","","89","","5","","23","","24.1","","98.28","","","","-10","","NA"
"2017-01-02 19:00","2017","01","02","19:00","-3.3","","-4.7","","90","","5","","23","","24.1","","98.24","","","","-10","","Cloudy"
"2017-01-02 20:00","2017","01","02","20:00","-3.2","","-4.5","","91","","4","","26","","24.1","","98.16","","","","-10","","NA"
"2017-01-02 21:00","2017","01","02","21:00","-3.2","","-4.5","","91","","5","","24","","24.1","","98.07","","","","-10","","NA"
"2017-01-02 22:00","2017","01","02","22:00","-3.0","","-4.4","","90","","5","","26","","24.1","","98.04","","","","-10","","Cloudy"
"2017-01-02 23:00","2017","01","02","23:00","-2.7","","-4.4","","88","","5","","21","","24.1","","97.97","","","","-9","","NA"
"2017-01-03 00:00","2017","01","03","00:00","-2.8","","-4.4","","89","","6","","23","","24.1","","97.87","","","","-9","","NA"
"2017-01-03 01:00","2017","01","03","01:00","-2.9","","-4.5","","89","","6","","22","","24.1","","97.71","","","","-9","","Cloudy"
"2017-01-03 02:00","2017","01","03","02:00","-3.0","","-4.4","","90","","5","","22","","24.1","","97.69","","","","-9","","NA"
"2017-01-03 03:00","2017","01","03","03:00","-3.5","","-4.6","","92","","4","","19","","19.3","","97.63","","","","-9","","Snow"
"2017-01-03 04:00","2017","01","03","04:00","-3.7","","-4.7","","93","","4","","21","","19.3","","97.51","","","","-10","","Snow"
"2017-01-03 05:00","2017","01","03","05:00","-4.1","","-5.1","","93","","4","","22","","24.1","","97.38","","","","-11","","NA"
"2017-01-03 06:00","2017","01","03","06:00","-4.3","","-5.3","","93","","4","","22","","24.1","","97.25","","","","-11","","NA"
"2017-01-03 07:00","2017","01","03","07:00","-4.5","","-5.6","","92","","4","","26","","24.1","","97.19","","","","-12","","Cloudy"
"2017-01-03 08:00","2017","01","03","08:00","-4.6","","-5.7","","92","","4","","25","","16.1","","97.16","","","","-12","","NA"
"2017-01-03 09:00","2017","01","03","09:00","-4.1","","-5.2","","92","","7","","22","","9.7","","97.02","","","","-11","","Freezing Rain,Freezing Drizzle"
"2017-01-03 10:00","2017","01","03","10:00","-3.6","","-4.7","","92","","5","","15","","16.1","","97.01","","","","-9","","Cloudy"
"2017-01-03 11:00","2017","01","03","11:00","-3.8","","-4.6","","94","","4","","21","","3.2","","96.94","","","","-10","","Fog"
"2017-01-03 12:00","2017","01","03","12:00","-3.8","","-4.5","","95","","4","","23","","2.4","","96.82","","","","-11","","Freezing Drizzle,Fog"
"2017-01-03 13:00","2017","01","03","13:00","-3.8","","-4.5","","95","","4","","22","","1.6","","96.70","","","","-10","","Freezing Drizzle,Fog"
"2017-01-03 14:00","2017","01","03","14:00","-3.2","","-3.9","","95","","5","","23","","2.8","","96.53","","","","-10","","Freezing Drizzle,Fog"
"2017-01-03 15:00","2017","01","03","15:00","-2.8","","-3.5","","95","","5","","18","","3.2","","96.49","","","","-8","","Freezing Drizzle,Fog"
"2017-01-03 16:00","2017","01","03","16:00","-2.8","","-3.5","","95","","5","","20","","2.4","","96.40","","","","-9","","Freezing Drizzle,Fog"
"2017-01-03 17:00","2017","01","03","17:00","-2.9","","-3.5","","96","","4","","24","","2.4","","96.30","","","","-10","","Freezing Drizzle,Fog"
"2017-01-03 18:00","2017","01","03","18:00","-3.0","","-3.6","","96","","5","","17","","1.6","","96.27","","","","-9","","Freezing Rain,Fog"
"2017-01-03 19:00","2017","01","03","19:00","-3.0","","-3.7","","95","","4","","16","","1.6","","96.18","","","","-8","","Snow"
"2017-01-03 20:00","2017","01","03","20:00","-3.0","","-3.7","","95","","2","","13","","3.2","","96.05","","","","-8","","Snow"
"2017-01-03 21:00","2017","01","03","21:00","-3.2","","-4.0","","94","","4","","19","","1.6","","95.90","","","","-9","","Snow"
"2017-01-03 22:00","2017","01","03","22:00","-3.3","","-4.1","","94","","4","","15","","4.0","","95.80","","","","-8","","Snow"
"2017-01-03 23:00","2017","01","03","23:00","-3.4","","-4.2","","94","","3","","13","","2.8","","95.67","","","","-8","","Snow"
"2017-01-04 00:00","2017","01","04","00:00","-3.3","","-4.1","","94","","36","","9","","1.0","","95.59","","","","-7","","Snow"
"2017-01-04 01:00","2017","01","04","01:00","-3.7","","-4.5","","94","","1","","7","","2.4","","95.43","","","","-7","","Snow"
"2017-01-04 02:00","2017","01","04","02:00","-4.0","","-4.8","","94","","31","","7","","2.4","","95.38","","","","-7","","Snow"
"2017-01-04 03:00","2017","01","04","03:00","-4.2","","-4.9","","95","","31","","8","","4.8","","95.32","","","","-8","","Snow"
"2017-01-04 04:00","2017","01","04","04:00","-4.4","","-5.2","","94","","30","","10","","4.8","","95.22","","","","-9","","Snow"
"2017-01-04 05:00","2017","01","04","05:00","-4.5","","-5.3","","94","","28","","14","","4.0","","95.17","","","","-10","","Snow"
"2017-01-04 06:00","2017","01","04","06:00","-5.0","","-6.1","","92","","29","","13","","1.6","","95.11","","","","-10","","Snow"
"2017-01-04 07:00","2017","01","04","07:00","-5.5","","-6.7","","91","","29","","13","","2.4","","95.09","","","","-11","","Snow"
"2017-01-04 08:00","2017","01","04","08:00","-6.1","","-7.5","","90","","27","","14","","2.4","","95.12","","","","-12","","Snow"
"2017-01-04 09:00","2017","01","04","09:00","-6.6","","-8.3","","88","","27","","14","","3.2","","95.11","","","","-12","","Snow"
"2017-01-04 10:00","2017","01","04","10:00","-6.5","","-8.8","","84","","27","","14","","6.4","","95.12","","","","-12","","Snow"
"2017-01-04 11:00","2017","01","04","11:00","-6.1","","-8.1","","86","","27","","15","","4.8","","95.08","","","","-12","","Snow"
"2017-01-04 12:00","2017","01","04","12:00","-6.1","","-8.1","","86","","27","","14","","4.8","","95.00","","","","-12","","Snow"
"2017-01-04 13:00","2017","01","04","13:00","-6.0","","-8.4","","83","","28","","17","","4.8","","94.94","","","","-12","","Snow"
"2017-01-04 14:00","2017","01","04","14:00","-6.2","","-8.6","","83","","31","","20","","3.2","","94.94","","","","-13","","Snow"
"2017-01-04 15:00","2017","01","04","15:00","-8.8","","-12.5","","75","","31","","28","","24.1","","95.04","","","","-18","","Snow,Blowing Snow"
"2017-01-04 16:00","2017","01","04","16:00","-10.2","","-13.7","","76","","31","","23","","24.1","","95.12","","","","-19","","Snow,Blowing Snow"
"2017-01-04 17:00","2017","01","04","17:00","-12.0","","-15.7","","74","","31","","25","","24.1","","95.23","","","","-21","","Snow,Blowing Snow"
"2017-01-04 18:00","2017","01","04","18:00","-13.0","","-16.6","","75","","31","","27","","9.7","","95.30","","","","-23","","Snow,Blowing Snow"
"2017-01-04 19:00","2017","01","04","19:00","-14.9","","-19.4","","69","","30","","30","","24.1","","95.43","","","","-26","","Snow,Blowing Snow"
"2017-01-04 20:00","2017","01","04","20:00","-15.9","","-19.5","","74","","30","","22","","4.8","","95.50","","","","-26","","Snow,Blowing Snow"
"2017-01-04 21:00","2017","01","04","21:00","-16.2","","-20.0","","73","","30","","19","","12.9","","95.56","","","","-25","","Snow,Blowing Snow"
"2017-01-04 22:00","2017","01","04","22:00","-16.6","","-20.5","","72","","30","","25","","24.1","","95.65","","","","-27","","Snow,Blowing Snow"
"2017-01-04 23:00","2017","01","04","23:00","-17.4","","-21.5","","71","","30","","22","","16.1","","95.72","","","","-28","","Snow,Blowing Snow"
"2017-01-05 00:00","2017","01","05","00:00","-17.6","","-22.0","","69","","29","","21","","16.1","","95.78","","","","-28","","Snow,Blowing Snow"
"2017-01-05 01:00","2017","01","05","01:00","-18.0","","-21.7","","73","","28","","12","","24.1","","95.83","","","","-26","","Snow"
"2017-01-05 02:00","2017","01","05","02:00","-18.1","","-22.0","","72","","27","","14","","24.1","","95.87","","","","-26","","Snow"
"2017-01-05 03:00","2017","01","05","03:00","-17.9","","-22.0","","71","","27","","15","","24.1","","95.94","","","","-26","","Snow"
"2017-01-05 04:00","2017","01","05","04:00","-17.9","","-21.8","","72","","26","","14","","24.1","","96.00","","","","-26","","Cloudy"
"2017-01-05 05:00","2017","01","05","05:00","-18.5","","-22.2","","73","","27","","13","","24.1","","96.01","","","","-27","","Snow"
"2017-01-05 06:00","2017","01","05","06:00","-19.2","","-22.9","","73","","26","","14","","24.1","","96.09","","","","-28","","Snow"
"2017-01-05 07:00","2017","01","05","07:00","-19.9","","-23.4","","74","","27","","11","","24.1","","96.15","","","","-28","","Snow"
"2017-01-05 08:00","2017","01","05","08:00","-21.0","","-24.0","","77","","23","","10","","32.2","","96.20","","","","-28","","NA"
"2017-01-05 09:00","2017","01","05","09:00","-19.5","","-23.2","","73","","28","","14","","32.2","","96.23","","","","-28","","NA"
"2017-01-05 10:00","2017","01","05","10:00","-18.5","","-22.9","","69","","27","","17","","32.2","","96.29","","","","-28","","Mainly Clear"
"2017-01-05 11:00","2017","01","05","11:00","-17.3","","-22.2","","66","","27","","14","","32.2","","96.32","","","","-25","","NA"
"2017-01-05 12:00","2017","01","05","12:00","-15.2","","-20.8","","63","","28","","17","","32.2","","96.31","","","","-24","","NA"
"2017-01-05 13:00","2017","01","05","13:00","-14.1","","-20.7","","58","","27","","16","","32.2","","96.27","","","","-22","","Mostly Cloudy"
"2017-01-05 14:00","2017","01","05","14:00","-13.2","","-19.2","","61","","25","","15","","24.1","","96.28","","","","-21","","NA"
"2017-01-05 15:00","2017","01","05","15:00","-12.2","","-17.7","","64","","27","","15","","24.1","","96.28","","","","-19","","NA"
"2017-01-05 16:00","2017","01","05","16:00","-12.1","","-17.8","","63","","28","","16","","24.1","","96.32","","","","-20","","Blowing Snow"
"2017-01-05 17:00","2017","01","05","17:00","-13.6","","-18.3","","68","","28","","8","","24.1","","96.34","","","","-19","","NA"
"2017-01-05 18:00","2017","01","05","18:00","-14.9","","-18.1","","77","","26","","4","","24.1","","96.39","","","","-18","","NA"
"2017-01-05 19:00","2017","01","05","19:00","-17.1","","-19.6","","81","","32","","11","","24.1","","96.44","","","","-24","","Mostly Cloudy"
"2017-01-05 20:00","2017","01","05","20:00","-15.2","","-18.1","","79","","29","","11","","19.3","","96.50","","","","-22","","NA"
"2017-01-05 21:00","2017","01","05","21:00","-16.0","","-18.9","","79","","28","","8","","24.1","","96.53","","","","-22","","Snow"
"2017-01-05 22:00","2017","01","05","22:00","-16.8","","-19.0","","83","","27","","7","","24.1","","96.59","","","","-22","","Snow"
"2017-01-05 23:00","2017","01","05","23:00","-18.1","","-20.5","","82","","31","","8","","24.1","","96.65","","","","-24","","Snow"
"2017-01-06 00:00","2017","01","06","00:00","-16.9","","-19.0","","84","","32","","3","","24.1","","96.69","","","","-19","","Snow"
"2017-01-06 01:00","2017","01","06","01:00","-17.0","","-19.5","","81","","36","","9","","24.1","","96.70","","","","-23","","Snow"
"2017-01-06 02:00","2017","01","06","02:00","-18.4","","-21.3","","78","","35","","13","","24.1","","96.74","","","","-26","","Snow"
"2017-01-06 03:00","2017","01","06","03:00","-19.9","","-22.8","","78","","32","","4","","24.1","","96.83","","","","-23","","NA"
"2017-01-06 04:00","2017","01","06","04:00","-20.9","","-23.8","","78","","30","","5","","24.1","","96.89","","","","-25","","Mainly Clear"
"2017-01-06 05:00","2017","01","06","05:00","-21.2","","-23.9","","79","","30","","9","","24.1","","96.91","","","","-28","","NA"
"2017-01-06 06:00","2017","01","06","06:00","-22.6","","-25.0","","81","","29","","8","","24.1","","97.02","","","","-29","","NA"
"2017-01-06 07:00","2017","01","06","07:00","-23.9","","-26.3","","81","","32","","9","","24.1","","97.08","","","","-31","","Mainly Clear"
"2017-01-06 08:00","2017","01","06","08:00","-24.5","","-27.2","","79","","32","","7","","32.2","","97.13","","","","-31","","NA"
"2017-01-06 09:00","2017","01","06","09:00","-23.2","","-26.0","","78","","28","","8","","32.2","","97.21","","","","-30","","NA"
"2017-01-06 10:00","2017","01","06","10:00","-23.7","","-26.7","","77","","31","","9","","32.2","","97.28","","","","-31","","Mainly Clear"
"2017-01-06 11:00","2017","01","06","11:00","-20.3","","-23.1","","79","","28","","6","","32.2","","97.35","","","","-25","","NA"
"2017-01-06 12:00","2017","01","06","12:00","-18.6","","-22.3","","73","","30","","4","","32.2","","97.33","","","","-22","","NA"
"2017-01-06 13:00","2017","01","06","13:00","-15.5","","-20.7","","65","","26","","11","","32.2","","97.34","","","","-22","","Mainly Clear"
"2017-01-06 14:00","2017","01","06","14:00","-14.1","","-20.7","","58","","24","","13","","32.2","","97.36","","","","-21","","NA"
"2017-01-06 15:00","2017","01","06","15:00","-13.2","","-20.2","","56","","24","","13","","32.2","","97.39","","","","-20","","NA"
"2017-01-06 16:00","2017","01","06","16:00","-13.0","","-20.1","","56","","28","","11","","32.2","","97.48","","","","-19","","Mainly Clear"
"2017-01-06 17:00","2017","01","06","17:00","-15.7","","-21.4","","62","","33","","9","","32.2","","97.58","","","","-22","","NA"
"2017-01-06 18:00","2017","01","06","18:00","-17.3","","-21.2","","72","","35","","11","","24.1","","97.71","","","","-24","","NA"
"2017-01-06 19:00","2017","01","06","19:00","-19.3","","-22.8","","74","","36","","13","","24.1","","97.77","","","","-28","","Mainly Clear"
"2017-01-06 20:00","2017","01","06","20:00","-20.6","","-23.6","","77","","6","","5","","24.1","","97.84","","","","-25","","NA"
"2017-01-06 21:00","2017","01","06","21:00","-19.7","","-22.3","","80","","4","","4","","24.1","","97.85","","","","-23","","NA"
"2017-01-06 22:00","2017","01","06","22:00","-20.5","","-23.1","","80","","5","","5","","24.1","","97.92","","","","-25","","Clear"
"2017-01-06 23:00","2017","01","06","23:00","-22.0","","-25.0","","77","","15","","13","","24.1","","97.96","","","","-31","","NA"
"2017-01-07 00:00","2017","01","07","00:00","-23.1","","-25.8","","79","","16","","8","","24.1","","97.98","","","","-30","","NA"
"2017-01-07 01:00","2017","01","07","01:00","-21.7","","-24.6","","78","","15","","8","","24.1","","97.96","","","","-28","","Mainly Clear"
"2017-01-07 02:00","2017","01","07","02:00","-23.2","","-26.5","","75","","36","","2","","24.1","","97.98","","","","-25","","NA"
"2017-01-07 03:00","2017","01","07","03:00","-21.5","","-24.5","","77","","14","","16","","24.1","","98.01","","","","-31","","NA"
"2017-01-07 04:00","2017","01","07","04:00","-21.9","","-24.9","","77","","14","","21","","24.1","","98.02","","","","-33","","Mainly Clear"
"2017-01-07 05:00","2017","01","07","05:00","-22.4","","-25.4","","77","","17","","9","","24.1","","98.05","","","","-30","","NA"
"2017-01-07 06:00","2017","01","07","06:00","-21.1","","-24.0","","78","","15","","13","","24.1","","98.04","","","","-30","","NA"
"2017-01-07 07:00","2017","01","07","07:00","-20.7","","-23.6","","78","","13","","4","","24.1","","98.05","","","","-24","","Snow"
"2017-01-07 08:00","2017","01","07","08:00","-22.4","","-25.4","","77","","36","","2","","16.1","","98.03","","","","-24","","Snow"
"2017-01-07 09:00","2017","01","07","09:00","-22.2","","-24.9","","79","","2","","11","","24.1","","98.04","","","","-30","","Snow"
"2017-01-07 10:00","2017","01","07","10:00","-19.8","","-22.4","","80","","9","","7","","4.8","","98.04","","","","-25","","Snow"
"2017-01-07 11:00","2017","01","07","11:00","-18.0","","-20.7","","80","","9","","4","","6.4","","98.05","","","","-21","","Snow"
"2017-01-07 12:00","2017","01","07","12:00","-14.9","","-17.3","","82","","36","","2","","6.4","","97.96","","","","-16","","Snow"
"2017-01-07 13:00","2017","01","07","13:00","-13.7","","-16.5","","80","","16","","5","","9.7","","97.90","","","","-17","","Snow"
"2017-01-07 14:00","2017","01","07","14:00","-13.2","","-16.0","","80","","36","","2","","16.1","","97.85","","","","-15","","Snow"
"2017-01-07 15:00","2017","01","07","15:00","-12.7","","-15.8","","78","","32","","3","","19.3","","97.82","","","","-15","","Snow"
"2017-01-07 16:00","2017","01","07","16:00","-12.9","","-16.0","","78","","36","","2","","24.1","","97.83","","","","-14","","Snow"
"2017-01-07 17:00","2017","01","07","17:00","-13.4","","-15.9","","82","","36","","3","","9.7","","97.82","","","","-15","","Snow"
"2017-01-07 18:00","2017","01","07","18:00","-13.4","","-15.6","","84","","30","","5","","24.1","","97.82","","","","-17","","Snow"
"2017-01-07 19:00","2017","01","07","19:00","-13.7","","-15.7","","85","","2","","3","","24.1","","97.82","","","","-16","","Snow"
"2017-01-07 20:00","2017","01","07","20:00","-13.8","","-15.8","","85","","8","","7","","24.1","","97.78","","","","-18","","NA"
"2017-01-07 21:00","2017","01","07","21:00","-14.6","","-16.7","","84","","30","","3","","24.1","","97.76","","","","-17","","NA"
"2017-01-07 22:00","2017","01","07","22:00","-15.9","","-17.7","","86","","30","","7","","24.1","","97.75","","","","-21","","Snow"
"2017-01-07 23:00","2017","01","07","23:00","-15.6","","-17.6","","85","","33","","7","","24.1","","97.77","","","","-21","","Snow"
"2017-01-08 00:00","2017","01","08","00:00","-15.6","","-17.9","","83","","33","","9","","2.4","","97.79","","","","-22","","Snow"
"2017-01-08 01:00","2017","01","08","01:00","-15.5","","-17.9","","82","","1","","23","","2.4","","97.82","","","","-25","","Snow"
"2017-01-08 02:00","2017","01","08","02:00","-16.1","","-19.0","","79","","1","","28","","4.0","","97.91","","","","-27","","Snow"
"2017-01-08 03:00","2017","01","08","03:00","-17.7","","-21.0","","76","","36","","25","","8.1","","98.05","","","","-29","","Snow"
"2017-01-08 04:00","2017","01","08","04:00","-19.3","","-22.8","","74","","35","","19","","24.1","","98.19","","","","-29","","Snow"
"2017-01-08 05:00","2017","01","08","05:00","-20.1","","-23.8","","73","","36","","24","","24.1","","98.27","","","","-32","","Snow"
"2017-01-08 06:00","2017","01","08","06:00","-20.9","","-24.6","","73","","36","","18","","24.1","","98.39","","","","-31","","Snow"
"2017-01-08 07:00","2017","01","08","07:00","-21.3","","-25.1","","72","","35","","22","","24.1","","98.50","","","","-33","","Snow"
"2017-01-08 08:00","2017","01","08","08:00","-22.7","","-26.3","","73","","34","","19","","32.2","","98.61","","","","-34","","NA"
"2017-01-08 09:00","2017","01","08","09:00","-23.3","","-27.0","","72","","34","","15","","32.2","","98.67","","","","-33","","NA"
"2017-01-08 10:00","2017","01","08","10:00","-22.9","","-27.0","","70","","34","","16","","32.2","","98.74","","","","-33","","Clear"
"2017-01-08 11:00","2017","01","08","11:00","-21.8","","-26.4","","67","","35","","8","","32.2","","98.79","","","","-28","","NA"
"2017-01-08 12:00","2017","01","08","12:00","-21.0","","-26.3","","63","","36","","2","","32.2","","98.77","","","","-23","","NA"
"2017-01-08 13:00","2017","01","08","13:00","-19.6","","-25.7","","59","","29","","9","","32.2","","98.74","","","","-26","","Clear"
"2017-01-08 14:00","2017","01","08","14:00","-19.1","","-25.4","","58","","22","","12","","32.2","","98.72","","","","-27","","NA"
"2017-01-08 15:00","2017","01","08","15:00","-18.6","","-25.4","","56","","22","","17","","32.2","","98.72","","","","-28","","NA"
"2017-01-08 16:00","2017","01","08","16:00","-18.2","","-25.2","","55","","23","","13","","32.2","","98.72","","","","-26","","Clear"
"2017-01-08 17:00","2017","01","08","17:00","-19.3","","-25.1","","61","","21","","10","","32.2","","98.74","","","","-26","","NA"
"2017-01-08 18:00","2017","01","08","18:00","-20.6","","-25.2","","67","","21","","10","","24.1","","98.76","","","","-28","","NA"
"2017-01-08 19:00","2017","01","08","19:00","-21.5","","-25.4","","71","","21","","11","","24.1","","98.76","","","","-29","","Mainly Clear"
"2017-01-08 20:00","2017","01","08","20:00","-21.2","","-24.5","","75","","21","","10","","24.1","","98.77","","","","-29","","NA"
"2017-01-08 21:00","2017","01","08","21:00","-19.5","","-23.2","","73","","19","","10","","24.1","","98.73","","","","-27","","NA"
"2017-01-08 22:00","2017","01","08","22:00","-19.1","","-23.1","","71","","15","","7","","24.1","","98.64","","","","-25","","Cloudy"
"2017-01-08 23:00","2017","01","08","23:00","-17.8","","-21.9","","71","","19","","7","","24.1","","98.55","","","","-23","","NA"
"2017-01-09 00:00","2017","01","09","00:00","-18.0","","-21.9","","72","","18","","9","","24.1","","98.50","","","","-24","","NA"
"2017-01-09 01:00","2017","01","09","01:00","-18.0","","-21.3","","76","","17","","13","","6.4","","98.40","","","","-26","","Snow"
"2017-01-09 02:00","2017","01","09","02:00","-17.9","","-20.7","","79","","16","","17","","9.7","","98.33","","","","-27","","Snow"
"2017-01-09 03:00","2017","01","09","03:00","-16.7","","-19.2","","81","","15","","26","","9.7","","98.32","","","","-28","","Snow"
"2017-01-09 04:00","2017","01","09","04:00","-16.3","","-18.7","","82","","15","","18","","9.7","","98.19","","","","-25","","Snow"
"2017-01-09 05:00","2017","01","09","05:00","-15.9","","-18.2","","83","","15","","19","","19.3","","98.08","","","","-25","","Snow"
"2017-01-09 06:00","2017","01","09","06:00","-14.9","","-17.2","","83","","15","","21","","6.4","","97.97","","","","-24","","Snow,Blowing Snow"
"2017-01-09 07:00","2017","01","09","07:00","-14.1","","-16.1","","85","","15","","23","","6.4","","97.80","","","","-24","","Snow,Blowing Snow"
"2017-01-09 08:00","2017","01","09","08:00","-12.4","","-14.3","","86","","15","","17","","3.2","","97.76","","","","-20","","Snow,Blowing Snow"
"2017-01-09 09:00","2017","01","09","09:00","-10.7","","-12.5","","87","","17","","18","","1.6","","97.70","","","","-18","","Snow,Blowing Snow"
"2017-01-09 10:00","2017","01","09","10:00","-6.7","","-8.4","","88","","20","","23","","1.6","","97.71","","","","-14","","Snow,Blowing Snow"
"2017-01-09 11:00","2017","01","09","11:00","-6.0","","-8.1","","85","","23","","31","","2.4","","97.72","","","","-14","","Snow,Blowing Snow"
"2017-01-09 12:00","2017","01","09","12:00","-6.5","","-9.6","","79","","23","","27","","8.1","","97.71","","","","-15","","Snow,Blowing Snow"
"2017-01-09 13:00","2017","01","09","13:00","-6.4","","-9.8","","77","","23","","24","","4.0","","97.69","","","","-14","","Snow,Blowing Snow"
"2017-01-09 14:00","2017","01","09","14:00","-6.8","","-11.4","","70","","25","","15","","32.2","","97.69","","","","-13","","Snow,Blowing Snow"
"2017-01-09 15:00","2017","01","09","15:00","-5.8","","-11.8","","63","","25","","18","","32.2","","97.73","","","","-12","","Blowing Snow"
"2017-01-09 16:00","2017","01","09","16:00","-7.5","","-12.6","","67","","23","","12","","32.2","","97.79","","","","-13","","Blowing Snow"
"2017-01-09 17:00","2017","01","09","17:00","-7.8","","-12.4","","70","","22","","17","","24.1","","97.91","","","","-14","","Blowing Snow"
"2017-01-09 18:00","2017","01","09","18:00","-9.2","","-12.9","","75","","23","","14","","24.1","","97.95","","","","-16","","NA"
"2017-01-09 19:00","2017","01","09","19:00","-10.4","","-13.2","","80","","22","","10","","24.1","","97.98","","","","-16","","Mostly Cloudy"
"2017-01-09 20:00","2017","01","09","20:00","-10.1","","-12.6","","82","","22","","12","","24.1","","98.04","","","","-16","","NA"
"2017-01-09 21:00","2017","01","09","21:00","-11.1","","-13.8","","81","","21","","11","","24.1","","98.03","","","","-17","","NA"
"2017-01-09 22:00","2017","01","09","22:00","-11.1","","-13.6","","82","","20","","9","","24.1","","98.01","","","","-16","","Cloudy"
"2017-01-09 23:00","2017","01","09","23:00","-10.8","","-13.0","","84","","16","","11","","24.1","","97.98","","","","-17","","NA"
"2017-01-10 00:00","2017","01","10","00:00","-9.5","","-12.0","","82","","16","","4","","24.1","","97.93","","","","-12","","Snow"
"2017-01-10 01:00","2017","01","10","01:00","-9.7","","-12.1","","83","","14","","13","","24.1","","97.91","","","","-16","","Moderate Snow"
"2017-01-10 02:00","2017","01","10","02:00","-9.4","","-11.6","","84","","14","","16","","24.1","","97.87","","","","-16","","Snow"
"2017-01-10 03:00","2017","01","10","03:00","-8.8","","-10.7","","86","","13","","14","","24.1","","97.82","","","","-15","","Snow"
"2017-01-10 04:00","2017","01","10","04:00","-8.4","","-10.0","","88","","13","","17","","9.7","","97.73","","","","-15","","Snow"
"2017-01-10 05:00","2017","01","10","05:00","-7.3","","-8.5","","91","","14","","20","","16.1","","97.62","","","","-14","","Snow"
"2017-01-10 06:00","2017","01","10","06:00","-6.6","","-7.7","","92","","13","","18","","6.4","","97.51","","","","-13","","Snow"
"2017-01-10 07:00","2017","01","10","07:00","-5.9","","-7.1","","91","","14","","21","","4.8","","97.47","","","","-13","","Snow"
"2017-01-10 08:00","2017","01","10","08:00","-6.3","","-7.7","","90","","15","","30","","6.4","","97.38","","","","-15","","Snow,Fog,Blowing Snow"
"2017-01-10 09:00","2017","01","10","09:00","-6.1","","-7.6","","89","","15","","28","","8.1","","97.26","","","","-14","","Fog,Blowing Snow"
"2017-01-10 10:00","2017","01","10","10:00","-5.7","","-7.5","","87","","14","","29","","6.4","","97.18","","","","-14","","Snow,Fog,Blowing Snow"
"2017-01-10 11:00","2017","01","10","11:00","-5.6","","-7.1","","89","","14","","29","","8.1","","97.05","","","","-14","","Snow,Fog,Blowing Snow"
"2017-01-10 12:00","2017","01","10","12:00","-4.9","","-6.3","","90","","14","","26","","6.4","","96.85","","","","-12","","Snow,Fog,Blowing Snow"
"2017-01-10 13:00","2017","01","10","13:00","-4.2","","-5.8","","89","","14","","26","","1.6","","96.61","","","","-11","","Snow,Blowing Snow"
"2017-01-10 14:00","2017","01","10","14:00","-3.9","","-5.5","","89","","14","","29","","1.6","","96.39","","","","-11","","Snow,Blowing Snow"
"2017-01-10 15:00","2017","01","10","15:00","-3.6","","-5.0","","90","","14","","27","","4.8","","96.15","","","","-11","","Snow,Blowing Snow"
"2017-01-10 16:00","2017","01","10","16:00","-3.5","","-4.6","","92","","14","","29","","1.0","","95.97","","","","-11","","Snow,Blowing Snow"
"2017-01-10 17:00","2017","01","10","17:00","-3.1","","-4.4","","91","","14","","29","","1.6","","95.72","","","","-10","","Snow,Blowing Snow"
"2017-01-10 18:00","2017","01","10","18:00","-2.8","","-3.9","","92","","14","","35","","1.6","","95.42","","","","-11","","Snow,Blowing Snow"
"2017-01-10 19:00","2017","01","10","19:00","-2.2","","-3.2","","93","","14","","33","","1.0","","95.21","","","","-10","","Snow,Blowing Snow"
"2017-01-10 20:00","2017","01","10","20:00","-1.5","","-2.3","","94","","14","","34","","2.4","","94.92","","","","-9","","Snow,Blowing Snow"
"2017-01-10 21:00","2017","01","10","21:00","-0.2","","-0.9","","95","","15","","32","","2.4","","94.65","","","","-7","","Snow,Blowing Snow"
"2017-01-10 22:00","2017","01","10","22:00","0.2","","-0.4","","96","","18","","37","","2.4","","94.45","","","","","","Snow,Blowing Snow"
"2017-01-10 23:00","2017","01","10","23:00","2.7","","2.1","","96","","19","","45","","24.1","","94.34","","","","","","Rain"
"2017-01-11 00:00","2017","01","11","00:00","3.4","","2.5","","94","","22","","39","","24.1","","94.39","","","","","","Rain"
"2017-01-11 01:00","2017","01","11","01:00","1.6","","-0.8","","84","","23","","45","","24.1","","94.59","","","","","","Rain"
"2017-01-11 02:00","2017","01","11","02:00","0.1","","-1.2","","91","","24","","38","","2.4","","94.82","","","","","","Snow"
"2017-01-11 03:00","2017","01","11","03:00","-1.1","","-2.1","","93","","24","","36","","2.4","","95.16","","","","-9","","Snow"
"2017-01-11 04:00","2017","01","11","04:00","-1.8","","-4.2","","84","","24","","36","","3.2","","95.48","","","","-9","","Snow"
"2017-01-11 05:00","2017","01","11","05:00","-2.6","","-5.8","","79","","25","","36","","6.4","","95.78","","","","-10","","Moderate Snow"
"2017-01-11 06:00","2017","01","11","06:00","-3.2","","-6.9","","76","","25","","38","","12.9","","96.06","","","","-11","","Snow"
"2017-01-11 07:00","2017","01","11","07:00","-3.9","","-8.1","","73","","24","","34","","24.1","","96.29","","","","-12","","Snow"
"2017-01-11 08:00","2017","01","11","08:00","-4.6","","-8.7","","73","","25","","37","","32.2","","96.57","","","","-13","","Snow"
"2017-01-11 09:00","2017","01","11","09:00","-5.0","","-9.3","","72","","25","","19","","32.2","","96.79","","","","-11","","NA"
"2017-01-11 10:00","2017","01","11","10:00","-5.4","","-9.7","","72","","23","","20","","32.2","","96.83","","","","-12","","Mostly Cloudy"
"2017-01-11 11:00","2017","01","11","11:00","-5.5","","-9.6","","73","","21","","32","","32.2","","96.84","","","","-14","","NA"
"2017-01-11 12:00","2017","01","11","12:00","-4.3","","-7.8","","77","","21","","28","","32.2","","96.81","","","","-12","","NA"
"2017-01-11 13:00","2017","01","11","13:00","-3.6","","-6.6","","80","","21","","30","","3.2","","96.72","","","","-11","","Snow"
"2017-01-11 14:00","2017","01","11","14:00","-3.5","","-4.9","","90","","19","","26","","1.2","","96.74","","","","-11","","Snow"
"2017-01-11 15:00","2017","01","11","15:00","-2.3","","-3.9","","89","","18","","26","","8.1","","96.60","","","","-9","","Snow"
"2017-01-11 16:00","2017","01","11","16:00","-1.1","","-2.8","","88","","19","","30","","1.2","","96.52","","","","-8","","Snow"
"2017-01-11 17:00","2017","01","11","17:00","-0.9","","-3.1","","85","","19","","26","","1.6","","96.49","","","","-7","","Snow"
"2017-01-11 18:00","2017","01","11","18:00","-1.2","","-2.0","","94","","19","","30","","1.2","","96.47","","","","-8","","Snow"
"2017-01-11 19:00","2017","01","11","19:00","-0.5","","-1.2","","95","","21","","28","","1.2","","96.47","","","","-7","","Snow,Blowing Snow"
"2017-01-11 20:00","2017","01","11","20:00","-0.1","","-0.8","","95","","22","","22","","1.6","","96.49","","","","-6","","Snow,Blowing Snow"
"2017-01-11 21:00","2017","01","11","21:00","-0.3","","-1.0","","95","","24","","22","","1.6","","96.47","","","","-6","","Snow,Blowing Snow"
"2017-01-11 22:00","2017","01","11","22:00","-1.5","","-2.5","","93","","27","","14","","3.2","","96.56","","","","-6","","Snow,Blowing Snow"
"2017-01-11 23:00","2017","01","11","23:00","-2.8","","-4.1","","91","","31","","19","","4.8","","96.51","","","","-9","","Snow,Blowing Snow"
"2017-01-12 00:00","2017","01","12","00:00","-3.0","","-4.1","","92","","34","","11","","4.8","","96.52","","","","-7","","Snow,Blowing Snow"
"2017-01-12 01:00","2017","01","12","01:00","-5.0","","-6.8","","87","","1","","27","","3.2","","96.53","","","","-13","","Snow"
"2017-01-12 02:00","2017","01","12","02:00","-6.0","","-8.8","","81","","36","","24","","24.1","","96.61","","","","-13","","Snow"
"2017-01-12 03:00","2017","01","12","03:00","-6.6","","-9.3","","81","","1","","28","","24.1","","96.66","","","","-15","","Snow"
"2017-01-12 04:00","2017","01","12","04:00","-7.1","","-10.0","","80","","1","","27","","24.1","","96.74","","","","-15","","Snow"
"2017-01-12 05:00","2017","01","12","05:00","-8.0","","-10.4","","83","","36","","26","","24.1","","96.78","","","","-16","","Snow"
"2017-01-12 06:00","2017","01","12","06:00","-8.9","","-11.3","","83","","1","","22","","24.1","","96.84","","","","-17","","Snow,Blowing Snow"
"2017-01-12 07:00","2017","01","12","07:00","-9.6","","-12.1","","82","","2","","22","","24.1","","96.97","","","","-18","","Snow,Blowing Snow"
"2017-01-12 08:00","2017","01","12","08:00","-11.1","","-14.1","","79","","1","","18","","24.1","","97.05","","","","-19","","Snow,Blowing Snow"
"2017-01-12 09:00","2017","01","12","09:00","-12.1","","-15.2","","78","","2","","25","","32.2","","96.99","","","","-21","","NA"
"2017-01-12 10:00","2017","01","12","10:00","-12.6","","-15.5","","79","","1","","21","","32.2","","97.10","","","","-21","","Cloudy"
"2017-01-12 11:00","2017","01","12","11:00","-12.5","","-16.1","","75","","3","","17","","32.2","","97.22","","","","-20","","NA"
"2017-01-12 12:00","2017","01","12","12:00","-12.1","","-15.8","","74","","5","","13","","32.2","","97.19","","","","-19","","NA"
"2017-01-12 13:00","2017","01","12","13:00","-11.7","","-15.8","","72","","1","","18","","32.2","","97.08","","","","-20","","Mostly Cloudy"
"2017-01-12 14:00","2017","01","12","14:00","-11.4","","-16.4","","67","","1","","13","","32.2","","97.08","","","","-18","","NA"
"2017-01-12 15:00","2017","01","12","15:00","-10.9","","-15.9","","67","","34","","10","","32.2","","97.10","","","","-16","","NA"
"2017-01-12 16:00","2017","01","12","16:00","-10.5","","-15.0","","70","","34","","5","","32.2","","97.13","","","","-14","","Cloudy"
"2017-01-12 17:00","2017","01","12","17:00","-10.5","","-15.0","","70","","25","","4","","32.2","","97.21","","","","-13","","NA"
"2017-01-12 18:00","2017","01","12","18:00","-11.9","","-15.6","","74","","21","","10","","24.1","","97.22","","","","-18","","NA"
"2017-01-12 19:00","2017","01","12","19:00","-12.4","","-15.5","","78","","21","","12","","24.1","","97.27","","","","-19","","Mostly Cloudy"
"2017-01-12 20:00","2017","01","12","20:00","-13.7","","-16.8","","78","","20","","14","","24.1","","97.32","","","","-21","","NA"
"2017-01-12 21:00","2017","01","12","21:00","-14.3","","-16.4","","84","","22","","13","","24.1","","97.37","","","","-21","","NA"
"2017-01-12 22:00","2017","01","12","22:00","-12.1","","-14.6","","82","","22","","15","","24.1","","97.36","","","","-19","","Snow"
"2017-01-12 23:00","2017","01","12","23:00","-10.2","","-12.9","","81","","25","","22","","24.1","","97.47","","","","-18","","Snow"
"2017-01-13 00:00","2017","01","13","00:00","-11.0","","-14.4","","76","","23","","22","","24.1","","97.52","","","","-20","","NA"
"2017-01-13 01:00","2017","01","13","01:00","-11.0","","-14.9","","73","","24","","20","","24.1","","97.64","","","","-19","","Mainly Clear"
"2017-01-13 02:00","2017","01","13","02:00","-10.7","","-15.2","","70","","26","","29","","24.1","","97.87","","","","-20","","Snow"
"2017-01-13 03:00","2017","01","13","03:00","-11.3","","-17.6","","60","","29","","29","","24.1","","98.09","","","","-21","","Snow,Blowing Snow"
"2017-01-13 04:00","2017","01","13","04:00","-12.3","","-18.6","","60","","28","","22","","24.1","","98.30","","","","-21","","Mainly Clear"
"2017-01-13 05:00","2017","01","13","05:00","-13.0","","-18.5","","64","","28","","20","","24.1","","98.49","","","","-22","","NA"
"2017-01-13 06:00","2017","01","13","06:00","-14.8","","-18.5","","74","","33","","20","","24.1","","98.70","","","","-24","","Snow Showers"
"2017-01-13 07:00","2017","01","13","07:00","-17.1","","-21.9","","67","","33","","21","","24.1","","98.91","","","","-27","","Mainly Clear"
"2017-01-13 08:00","2017","01","13","08:00","-18.6","","-24.2","","62","","31","","27","","32.2","","99.12","","","","-30","","NA"
"2017-01-13 09:00","2017","01","13","09:00","-19.3","","-24.5","","64","","32","","13","","32.2","","99.30","","","","-28","","NA"
"2017-01-13 10:00","2017","01","13","10:00","-18.7","","-24.5","","61","","32","","25","","32.2","","99.43","","","","-30","","Mainly Clear"
"2017-01-13 11:00","2017","01","13","11:00","-18.1","","-24.9","","56","","30","","17","","32.2","","99.54","","","","-27","","Blowing Snow"
"2017-01-13 12:00","2017","01","13","12:00","-17.3","","-24.3","","55","","27","","14","","32.2","","99.58","","","","-25","","NA"
"2017-01-13 13:00","2017","01","13","13:00","-16.5","","-24.2","","52","","27","","8","","32.2","","99.57","","","","-22","","Mainly Clear"
"2017-01-13 14:00","2017","01","13","14:00","-15.8","","-23.6","","52","","26","","9","","32.2","","99.61","","","","-22","","NA"
"2017-01-13 15:00","2017","01","13","15:00","-15.5","","-24.2","","48","","30","","14","","32.2","","99.66","","","","-23","","NA"
"2017-01-13 16:00","2017","01","13","16:00","-15.7","","-24.4","","48","","30","","10","","32.2","","99.71","","","","-22","","Mainly Clear"
"2017-01-13 17:00","2017","01","13","17:00","-16.3","","-24.3","","51","","29","","8","","32.2","","99.76","","","","-22","","NA"
"2017-01-13 18:00","2017","01","13","18:00","-18.0","","-24.8","","56","","31","","7","","24.1","","99.77","","","","-23","","NA"
"2017-01-13 19:00","2017","01","13","19:00","-18.0","","-24.2","","59","","36","","3","","24.1","","99.82","","","","-20","","Clear"
"2017-01-13 20:00","2017","01","13","20:00","-19.5","","-24.5","","65","","36","","2","","24.1","","99.81","","","","-21","","NA"
"2017-01-13 21:00","2017","01","13","21:00","-18.1","","-24.1","","60","","25","","7","","24.1","","99.79","","","","-23","","NA"
"2017-01-13 22:00","2017","01","13","22:00","-18.8","","-24.6","","61","","24","","8","","24.1","","99.75","","","","-25","","Clear"
"2017-01-13 23:00","2017","01","13","23:00","-19.9","","-24.2","","69","","22","","9","","24.1","","99.70","","","","-27","","NA"
"2017-01-14 00:00","2017","01","14","00:00","-21.8","","-25.3","","74","","23","","7","","24.1","","99.64","","","","-28","","NA"
"2017-01-14 01:00","2017","01","14","01:00","-21.0","","-24.2","","76","","24","","9","","24.1","","99.58","","","","-28","","Mainly Clear"
"2017-01-14 02:00","2017","01","14","02:00","-20.9","","-24.1","","76","","36","","2","","24.1","","99.45","","","","-23","","NA"
"2017-01-14 03:00","2017","01","14","03:00","-19.2","","-23.2","","71","","17","","14","","24.1","","99.40","","","","-28","","NA"
"2017-01-14 04:00","2017","01","14","04:00","-18.4","","-22.6","","70","","14","","10","","24.1","","99.32","","","","-25","","Mostly Cloudy"
"2017-01-14 05:00","2017","01","14","05:00","-19.8","","-23.6","","72","","17","","12","","24.1","","99.27","","","","-28","","NA"
"2017-01-14 06:00","2017","01","14","06:00","-20.0","","-23.7","","73","","17","","10","","24.1","","99.12","","","","-27","","NA"
"2017-01-14 07:00","2017","01","14","07:00","-19.5","","-23.2","","73","","17","","13","","24.1","","99.03","","","","-28","","Cloudy"
"2017-01-14 08:00","2017","01","14","08:00","-18.7","","-22.1","","75","","18","","16","","19.3","","98.92","","","","-28","","Snow"
"2017-01-14 09:00","2017","01","14","09:00","-16.6","","-20.1","","75","","20","","21","","24.1","","98.82","","","","-26","","Snow"
"2017-01-14 10:00","2017","01","14","10:00","-16.4","","-19.5","","77","","19","","17","","32.2","","98.73","","","","-25","","Cloudy"
"2017-01-14 11:00","2017","01","14","11:00","-14.5","","-17.5","","78","","19","","16","","32.2","","98.58","","","","-23","","NA"
"2017-01-14 12:00","2017","01","14","12:00","-10.6","","-14.1","","76","","22","","18","","32.2","","98.43","","","","-18","","NA"
"2017-01-14 13:00","2017","01","14","13:00","-7.6","","-11.8","","72","","22","","25","","32.2","","98.27","","","","-16","","Mostly Cloudy"
"2017-01-14 14:00","2017","01","14","14:00","-6.1","","-11.7","","65","","24","","28","","32.2","","98.13","","","","-14","","Blowing Snow"
"2017-01-14 15:00","2017","01","14","15:00","-5.6","","-10.6","","68","","24","","24","","32.2","","98.05","","","","-13","","Blowing Snow"
"2017-01-14 16:00","2017","01","14","16:00","-5.0","","-10.2","","67","","25","","23","","32.2","","98.03","","","","-12","","Blowing Snow"
"2017-01-14 17:00","2017","01","14","17:00","-5.3","","-10.7","","66","","26","","17","","32.2","","98.06","","","","-11","","NA"
"2017-01-14 18:00","2017","01","14","18:00","-5.7","","-11.3","","65","","26","","24","","24.1","","98.08","","","","-13","","Blowing Snow"
"2017-01-14 19:00","2017","01","14","19:00","-6.0","","-10.8","","69","","24","","17","","24.1","","98.06","","","","-12","","Blowing Snow"
"2017-01-14 20:00","2017","01","14","20:00","-6.2","","-10.3","","73","","25","","16","","24.1","","98.08","","","","-12","","Blowing Snow"
"2017-01-14 21:00","2017","01","14","21:00","-7.1","","-10.5","","77","","26","","14","","24.1","","98.10","","","","-13","","NA"
"2017-01-14 22:00","2017","01","14","22:00","-8.4","","-10.8","","83","","27","","12","","24.1","","98.13","","","","-14","","Mainly Clear"
"2017-01-14 23:00","2017","01","14","23:00","-10.2","","-12.1","","86","","30","","12","","24.1","","98.17","","","","-16","","NA"
"2017-01-15 00:00","2017","01","15","00:00","-9.9","","-11.5","","88","","29","","14","","24.1","","98.21","","","","-16","","NA"
"2017-01-15 01:00","2017","01","15","01:00","-10.9","","-12.5","","88","","29","","9","","24.1","","98.26","","","","-16","","Mostly Cloudy"
"2017-01-15 02:00","2017","01","15","02:00","-11.8","","-14.0","","84","","29","","9","","24.1","","98.28","","","","-17","","NA"
"2017-01-15 03:00","2017","01","15","03:00","-13.4","","-15.6","","84","","29","","10","","24.1","","98.35","","","","-19","","NA"
"2017-01-15 04:00","2017","01","15","04:00","-14.1","","-16.0","","86","","29","","8","","24.1","","98.38","","","","-19","","Mainly Clear"
"2017-01-15 05:00","2017","01","15","05:00","-14.9","","-16.8","","86","","29","","8","","24.1","","98.45","","","","-20","","NA"
"2017-01-15 06:00","2017","01","15","06:00","-14.9","","-16.5","","88","","30","","6","","24.1","","98.47","","","","-19","","NA"
"2017-01-15 07:00","2017","01","15","07:00","-14.9","","-16.6","","87","","32","","7","","24.1","","98.49","","","","-20","","Mainly Clear"
"2017-01-15 08:00","2017","01","15","08:00","-15.8","","-17.8","","85","","36","","3","","32.2","","98.50","","","","-18","","NA"
"2017-01-15 09:00","2017","01","15","09:00","-14.2","","-16.2","","85","","36","","2","","32.2","","98.55","","","","-16","","NA"
"2017-01-15 10:00","2017","01","15","10:00","-13.7","","-15.9","","84","","15","","7","","32.2","","98.51","","","","-18","","Mostly Cloudy"
"2017-01-15 11:00","2017","01","15","11:00","-13.2","","-15.4","","84","","18","","10","","32.2","","98.54","","","","-19","","NA"
"2017-01-15 12:00","2017","01","15","12:00","-11.1","","-13.4","","83","","20","","18","","32.2","","98.45","","","","-19","","NA"
"2017-01-15 13:00","2017","01","15","13:00","-10.1","","-13.7","","75","","19","","15","","32.2","","98.35","","","","-17","","Cloudy"
"2017-01-15 14:00","2017","01","15","14:00","-9.1","","-12.8","","75","","20","","14","","24.1","","98.33","","","","-15","","NA"
"2017-01-15 15:00","2017","01","15","15:00","-8.2","","-11.9","","75","","18","","15","","32.2","","98.27","","","","-15","","NA"
"2017-01-15 16:00","2017","01","15","16:00","-7.5","","-10.7","","78","","18","","7","","32.2","","98.26","","","","-11","","Cloudy"
"2017-01-15 17:00","2017","01","15","17:00","-7.0","","-9.9","","80","","19","","10","","24.1","","98.23","","","","-12","","Snow"
"2017-01-15 18:00","2017","01","15","18:00","-6.8","","-9.1","","84","","19","","18","","24.1","","98.14","","","","-13","","Snow"
"2017-01-15 19:00","2017","01","15","19:00","-6.7","","-8.5","","87","","20","","18","","24.1","","98.11","","","","-13","","Snow"
"2017-01-15 20:00","2017","01","15","20:00","-7.4","","-8.9","","89","","20","","17","","24.1","","98.07","","","","-14","","NA"
"2017-01-15 21:00","2017","01","15","21:00","-5.5","","-7.3","","87","","21","","18","","24.1","","98.06","","","","-12","","NA"
"2017-01-15 22:00","2017","01","15","22:00","-5.8","","-7.6","","87","","21","","20","","24.1","","98.01","","","","-13","","Mostly Cloudy"
"2017-01-15 23:00","2017","01","15","23:00","-6.2","","-8.0","","87","","20","","22","","24.1","","97.96","","","","-13","","NA"
"2017-01-16 00:00","2017","01","16","00:00","-6.8","","-8.3","","89","","22","","18","","24.1","","97.93","","","","-13","","NA"
"2017-01-16 01:00","2017","01","16","01:00","-6.3","","-7.7","","90","","21","","26","","24.1","","97.86","","","","-14","","Clear"
"2017-01-16 02:00","2017","01","16","02:00","-6.5","","-7.9","","90","","22","","20","","24.1","","97.83","","","","-13","","NA"
"2017-01-16 03:00","2017","01","16","03:00","-6.2","","-8.0","","87","","23","","22","","24.1","","97.85","","","","-13","","NA"
"2017-01-16 04:00","2017","01","16","04:00","-6.3","","-8.4","","85","","23","","15","","24.1","","97.83","","","","-12","","Clear"
"2017-01-16 05:00","2017","01","16","05:00","-7.2","","-8.7","","89","","23","","16","","24.1","","97.79","","","","-14","","NA"
"2017-01-16 06:00","2017","01","16","06:00","-6.6","","-8.1","","89","","23","","16","","24.1","","97.77","","","","-13","","NA"
"2017-01-16 07:00","2017","01","16","07:00","-6.8","","-8.2","","90","","23","","17","","24.1","","97.78","","","","-13","","Mainly Clear"
"2017-01-16 08:00","2017","01","16","08:00","-5.2","","-6.4","","91","","24","","21","","16.1","","97.81","","","","-12","","NA"
"2017-01-16 09:00","2017","01","16","09:00","-4.8","","-6.1","","91","","24","","26","","16.1","","97.82","","","","-12","","NA"
"2017-01-16 10:00","2017","01","16","10:00","-4.1","","-6.1","","86","","24","","21","","16.1","","97.88","","","","-11","","Mostly Cloudy"
"2017-01-16 11:00","2017","01","16","11:00","-3.3","","-5.8","","83","","23","","23","","16.1","","97.92","","","","-10","","NA"
"2017-01-16 12:00","2017","01","16","12:00","-2.1","","-5.1","","80","","24","","20","","32.2","","97.91","","","","-8","","NA"
"2017-01-16 13:00","2017","01","16","13:00","-1.2","","-4.7","","77","","23","","18","","24.1","","97.88","","","","-6","","Mainly Clear"
"2017-01-16 14:00","2017","01","16","14:00","-0.4","","-4.7","","73","","22","","17","","32.2","","97.83","","","","-5","","NA"
"2017-01-16 15:00","2017","01","16","15:00","0.3","","-4.5","","70","","22","","19","","24.1","","97.82","","","","","","NA"
"2017-01-16 16:00","2017","01","16","16:00","-0.2","","-5.0","","70","","22","","17","","24.1","","97.84","","","","-5","","Mainly Clear"
"2017-01-16 17:00","2017","01","16","17:00","-2.3","","-6.1","","75","","23","","7","","24.1","","97.86","","","","-5","","NA"
"2017-01-16 18:00","2017","01","16","18:00","-1.6","","-5.6","","74","","25","","5","","24.1","","97.91","","","","-3","","NA"
"2017-01-16 19:00","2017","01","16","19:00","-2.1","","-5.8","","76","","23","","8","","24.1","","97.90","","","","-5","","Mainly Clear"
"2017-01-16 20:00","2017","01","16","20:00","-2.9","","-6.0","","79","","23","","12","","24.1","","97.96","","","","-7","","NA"
"2017-01-16 21:00","2017","01","16","21:00","-3.1","","-5.4","","84","","27","","8","","24.1","","97.93","","","","-6","","NA"
"2017-01-16 22:00","2017","01","16","22:00","-4.8","","-6.8","","86","","1","","8","","24.1","","97.95","","","","-8","","Mainly Clear"
"2017-01-16 23:00","2017","01","16","23:00","-6.8","","-7.9","","92","","4","","13","","24.1","","97.91","","","","-12","","NA"
"2017-01-17 00:00","2017","01","17","00:00","-6.4","","-7.5","","92","","6","","10","","24.1","","97.92","","","","-11","","NA"
"2017-01-17 01:00","2017","01","17","01:00","-7.0","","-8.1","","92","","6","","17","","24.1","","97.87","","","","-13","","Mostly Cloudy"
"2017-01-17 02:00","2017","01","17","02:00","-6.9","","-7.9","","93","","6","","14","","24.1","","97.87","","","","-13","","NA"
"2017-01-17 03:00","2017","01","17","03:00","-6.5","","-7.6","","92","","9","","16","","24.1","","97.84","","","","-13","","NA"
"2017-01-17 04:00","2017","01","17","04:00","-5.7","","-6.7","","93","","10","","17","","0.8","","97.80","","","","-12","","Freezing Fog"
"2017-01-17 05:00","2017","01","17","05:00","-6.7","","-7.5","","94","","10","","14","","0.6","","97.80","","","","-12","","Freezing Fog"
"2017-01-17 06:00","2017","01","17","06:00","-6.4","","-7.2","","94","","7","","13","","0.2","","97.75","","","","-12","","Freezing Fog"
"2017-01-17 07:00","2017","01","17","07:00","-6.1","","-6.9","","94","","6","","14","","0.4","","97.69","","","","-12","","Freezing Fog"
"2017-01-17 08:00","2017","01","17","08:00","-5.7","","-6.5","","94","","6","","13","","0.6","","97.67","","","","-11","","Freezing Fog"
"2017-01-17 09:00","2017","01","17","09:00","-4.9","","-5.7","","94","","7","","16","","4.0","","97.62","","","","-11","","Fog"
"2017-01-17 10:00","2017","01","17","10:00","-4.7","","-5.7","","93","","9","","17","","9.7","","97.52","","","","-11","","Fog"
"2017-01-17 11:00","2017","01","17","11:00","-4.2","","-5.2","","93","","9","","14","","9.7","","97.47","","","","-9","","Fog"
"2017-01-17 12:00","2017","01","17","12:00","-3.5","","-4.5","","93","","7","","14","","32.2","","97.37","","","","-9","","NA"
"2017-01-17 13:00","2017","01","17","13:00","-2.7","","-4.1","","90","","7","","16","","24.1","","97.26","","","","-8","","Mostly Cloudy"
"2017-01-17 14:00","2017","01","17","14:00","-1.7","","-4.5","","81","","7","","14","","24.1","","97.15","","","","-6","","NA"
"2017-01-17 15:00","2017","01","17","15:00","-1.4","","-4.4","","80","","8","","17","","24.1","","97.10","","","","-7","","NA"
"2017-01-17 16:00","2017","01","17","16:00","-1.2","","-4.2","","80","","6","","14","","24.1","","97.15","","","","-6","","Cloudy"
"2017-01-17 17:00","2017","01","17","17:00","-1.2","","-3.9","","82","","7","","17","","32.2","","97.10","","","","-6","","NA"
"2017-01-17 18:00","2017","01","17","18:00","-1.4","","-3.9","","83","","5","","19","","24.1","","97.12","","","","-7","","NA"
"2017-01-17 19:00","2017","01","17","19:00","-1.8","","-3.7","","87","","6","","19","","16.1","","97.11","","","","-7","","Snow"
"2017-01-17 20:00","2017","01","17","20:00","-2.2","","-3.5","","91","","5","","17","","16.1","","97.08","","","","-8","","Snow"
"2017-01-17 21:00","2017","01","17","21:00","-2.4","","-3.7","","91","","6","","16","","24.1","","96.98","","","","-8","","NA"
"2017-01-17 22:00","2017","01","17","22:00","-2.5","","-3.9","","90","","5","","16","","24.1","","96.97","","","","-8","","Cloudy"
"2017-01-17 23:00","2017","01","17","23:00","-2.5","","-3.9","","90","","7","","13","","24.1","","96.96","","","","-7","","NA"
"2017-01-18 00:00","2017","01","18","00:00","-2.6","","-3.9","","91","","4","","10","","16.1","","96.99","","","","-6","","Snow"
"2017-01-18 01:00","2017","01","18","01:00","-2.9","","-3.6","","95","","5","","9","","4.0","","96.95","","","","-6","","Freezing Drizzle,Fog"
"2017-01-18 02:00","2017","01","18","02:00","-2.9","","-3.6","","95","","4","","7","","4.8","","96.94","","","","-6","","Freezing Drizzle,Fog"
"2017-01-18 03:00","2017","01","18","03:00","-2.8","","-3.4","","96","","1","","6","","11.3","","96.98","","","","-5","","NA"
"2017-01-18 04:00","2017","01","18","04:00","-2.8","","-3.4","","96","","5","","3","","11.3","","96.98","","","","-4","","Cloudy"
"2017-01-18 05:00","2017","01","18","05:00","-2.9","","-3.5","","96","","36","","2","","4.8","","97.00","","","","-4","","Fog"
"2017-01-18 06:00","2017","01","18","06:00","-3.0","","-3.6","","96","","36","","2","","0.8","","96.98","","","","-4","","Freezing Fog"
"2017-01-18 07:00","2017","01","18","07:00","-3.0","","-3.6","","96","","23","","3","","0.8","","97.00","","","","-4","","Freezing Fog"
"2017-01-18 08:00","2017","01","18","08:00","-2.9","","-3.3","","97","","22","","8","","3.2","","97.05","","","","-6","","Fog"
"2017-01-18 09:00","2017","01","18","09:00","-2.9","","-3.3","","97","","25","","9","","2.4","","97.13","","","","-6","","Fog"
"2017-01-18 10:00","2017","01","18","10:00","-2.8","","-3.4","","96","","21","","14","","2.4","","97.07","","","","-8","","Fog"
"2017-01-18 11:00","2017","01","18","11:00","-2.8","","-3.4","","96","","23","","17","","1.2","","97.10","","","","-8","","Fog"
"2017-01-18 12:00","2017","01","18","12:00","-2.3","","-2.9","","96","","23","","17","","0.4","","97.02","","","","-8","","Freezing Fog"
"2017-01-18 13:00","2017","01","18","13:00","-2.0","","-2.6","","96","","23","","17","","0.4","","97.01","","","","-7","","Freezing Fog"
"2017-01-18 14:00","2017","01","18","14:00","-1.6","","-2.2","","96","","22","","22","","4.0","","96.94","","","","-8","","Fog"
"2017-01-18 15:00","2017","01","18","15:00","-1.2","","-1.9","","95","","20","","24","","9.7","","96.84","","","","-7","","Fog"
"2017-01-18 16:00","2017","01","18","16:00","-0.9","","-2.0","","92","","21","","23","","32.2","","96.85","","","","-7","","Cloudy"
"2017-01-18 17:00","2017","01","18","17:00","-0.9","","-2.2","","91","","22","","22","","32.2","","96.91","","","","-7","","NA"
"2017-01-18 18:00","2017","01","18","18:00","-0.9","","-2.0","","92","","19","","19","","24.1","","96.86","","","","-6","","NA"
"2017-01-18 19:00","2017","01","18","19:00","-0.9","","-1.9","","93","","22","","16","","19.3","","96.91","","","","-6","","Cloudy"
"2017-01-18 20:00","2017","01","18","20:00","-0.5","","-1.1","","96","","23","","17","","1.6","","96.95","","","","-5","","Freezing Drizzle,Fog"
"2017-01-18 21:00","2017","01","18","21:00","-0.4","","-1.0","","96","","23","","16","","3.2","","96.95","","","","-5","","Snow,Fog"
"2017-01-18 22:00","2017","01","18","22:00","-0.2","","-0.8","","96","","24","","12","","16.1","","96.99","","","","-4","","Cloudy"
"2017-01-18 23:00","2017","01","18","23:00","-0.3","","-0.9","","96","","22","","8","","9.7","","96.95","","","","-3","","Snow"
"2017-01-19 00:00","2017","01","19","00:00","-0.3","","-0.7","","97","","22","","9","","12.9","","96.98","","","","-3","","Snow"
"2017-01-19 01:00","2017","01","19","01:00","-0.3","","-0.7","","97","","22","","4","","12.9","","97.03","","","","-2","","Cloudy"
"2017-01-19 02:00","2017","01","19","02:00","-0.5","","-0.9","","97","","36","","3","","8.1","","97.10","","","","-1","","Fog"
"2017-01-19 03:00","2017","01","19","03:00","-0.5","","-0.9","","97","","36","","1","","24.1","","97.13","","","","-1","","NA"
"2017-01-19 04:00","2017","01","19","04:00","-0.5","","-0.9","","97","","25","","3","","19.3","","97.14","","","","-1","","Cloudy"
"2017-01-19 05:00","2017","01","19","05:00","-0.5","","-1.1","","96","","28","","3","","24.1","","97.17","","","","-1","","NA"
"2017-01-19 06:00","2017","01","19","06:00","-0.4","","-1.3","","94","","27","","4","","24.1","","97.23","","","","-2","","NA"
"2017-01-19 07:00","2017","01","19","07:00","-0.4","","-1.4","","93","","36","","2","","24.1","","97.28","","","","-1","","Cloudy"
"2017-01-19 08:00","2017","01","19","08:00","-0.4","","-1.5","","92","","24","","5","","24.1","","97.33","","","","-2","","NA"
"2017-01-19 09:00","2017","01","19","09:00","-0.6","","-1.6","","93","","21","","9","","24.1","","97.37","","","","-4","","NA"
"2017-01-19 10:00","2017","01","19","10:00","-0.4","","-1.4","","93","","23","","4","","24.1","","97.40","","","","-2","","Cloudy"
"2017-01-19 11:00","2017","01","19","11:00","-0.4","","-1.4","","93","","21","","16","","16.1","","97.37","","","","-5","","NA"
"2017-01-19 12:00","2017","01","19","12:00","-0.4","","-1.4","","93","","20","","13","","16.1","","97.33","","","","-5","","Snow"
"2017-01-19 13:00","2017","01","19","13:00","-0.5","","-1.5","","93","","23","","12","","16.1","","97.28","","","","-4","","Cloudy"
"2017-01-19 14:00","2017","01","19","14:00","-0.5","","-1.5","","93","","21","","13","","24.1","","97.23","","","","-5","","NA"
"2017-01-19 15:00","2017","01","19","15:00","-0.1","","-1.7","","89","","22","","15","","24.1","","97.17","","","","-5","","NA"
"2017-01-19 16:00","2017","01","19","16:00","-0.1","","-1.5","","90","","19","","11","","16.1","","97.16","","","","-4","","Cloudy"
"2017-01-19 17:00","2017","01","19","17:00","0.1","","-1.2","","91","","22","","13","","16.1","","97.25","","","","","","NA"
"2017-01-19 18:00","2017","01","19","18:00","0.1","","-0.9","","93","","20","","12","","12.9","","97.28","","","","","","NA"
"2017-01-19 19:00","2017","01","19","19:00","0.1","","-0.8","","94","","21","","17","","12.9","","97.33","","","","","","Cloudy"
"2017-01-19 20:00","2017","01","19","20:00","0.0","","-0.7","","95","","19","","12","","4.0","","97.30","","","","-4","","Drizzle,Fog"
"2017-01-19 21:00","2017","01","19","21:00","-0.1","","-0.7","","96","","20","","16","","3.6","","97.19","","","","-5","","Freezing Drizzle,Fog"
"2017-01-19 22:00","2017","01","19","22:00","-0.2","","-0.8","","96","","20","","14","","3.6","","97.11","","","","-4","","Freezing Drizzle,Fog"
"2017-01-19 23:00","2017","01","19","23:00","-0.2","","-0.6","","97","","20","","16","","4.0","","97.08","","","","-5","","Freezing Drizzle,Fog"
"2017-01-20 00:00","2017","01","20","00:00","-0.1","","-0.5","","97","","20","","15","","4.0","","97.08","","","","-5","","Freezing Drizzle,Fog"
"2017-01-20 01:00","2017","01","20","01:00","-0.1","","-0.5","","97","","21","","19","","4.0","","97.05","","","","-5","","Freezing Drizzle,Fog"
"2017-01-20 02:00","2017","01","20","02:00","-0.1","","-0.5","","97","","20","","20","","4.0","","97.04","","","","-5","","Freezing Drizzle,Fog"
"2017-01-20 03:00","2017","01","20","03:00","-0.2","","-0.6","","97","","21","","19","","4.0","","97.03","","","","-5","","Freezing Drizzle,Fog"
"2017-01-20 04:00","2017","01","20","04:00","-0.3","","-0.7","","97","","19","","19","","4.0","","96.94","","","","-5","","Freezing Drizzle,Fog"
"2017-01-20 05:00","2017","01","20","05:00","-0.6","","-1.0","","97","","21","","14","","4.0","","96.88","","","","-5","","Freezing Drizzle,Fog"
"2017-01-20 06:00","2017","01","20","06:00","-0.8","","-1.2","","97","","20","","21","","4.0","","96.85","","","","-6","","Freezing Drizzle,Fog"
"2017-01-20 07:00","2017","01","20","07:00","-1.0","","-1.4","","97","","22","","14","","4.0","","96.82","","","","-5","","Freezing Drizzle,Fog"
"2017-01-20 08:00","2017","01","20","08:00","-1.1","","-1.5","","97","","18","","13","","2.4","","96.80","","","","-5","","Freezing Drizzle,Fog"
"2017-01-20 09:00","2017","01","20","09:00","-1.1","","-1.5","","97","","20","","11","","3.2","","96.81","","","","-5","","Freezing Drizzle,Fog"
"2017-01-20 10:00","2017","01","20","10:00","-1.2","","-1.8","","96","","16","","7","","4.0","","96.83","","","","-4","","Freezing Drizzle,Fog"
"2017-01-20 11:00","2017","01","20","11:00","-1.2","","-1.8","","96","","16","","9","","3.2","","96.81","","","","-4","","Freezing Drizzle,Fog"
"2017-01-20 12:00","2017","01","20","12:00","-1.1","","-1.7","","96","","14","","9","","3.2","","96.73","","","","-4","","Freezing Drizzle,Fog"
"2017-01-20 13:00","2017","01","20","13:00","-0.9","","-1.8","","94","","19","","7","","3.2","","96.64","","","","-3","","Snow,Fog"
"2017-01-20 14:00","2017","01","20","14:00","-1.0","","-1.8","","94","","16","","8","","4.8","","96.57","","","","-4","","Snow,Fog"
"2017-01-20 15:00","2017","01","20","15:00","-0.4","","-2.2","","88","","12","","7","","19.3","","96.52","","","","-3","","NA"
"2017-01-20 16:00","2017","01","20","16:00","-0.3","","-1.9","","89","","15","","10","","19.3","","96.53","","","","-4","","Snow"
"2017-01-20 17:00","2017","01","20","17:00","-0.6","","-2.3","","88","","12","","9","","32.2","","96.53","","","","-4","","NA"
"2017-01-20 18:00","2017","01","20","18:00","-0.9","","-2.0","","92","","16","","12","","4.0","","96.56","","","","-5","","Snow"
"2017-01-20 19:00","2017","01","20","19:00","-1.2","","-1.9","","95","","18","","12","","0.8","","96.58","","","","-5","","Snow,Freezing Fog"
"2017-01-20 20:00","2017","01","20","20:00","-1.2","","-1.8","","96","","18","","16","","0.8","","96.59","","","","-6","","Freezing Drizzle,Freezing Fog"
"2017-01-20 21:00","2017","01","20","21:00","-1.1","","-1.5","","97","","19","","11","","4.0","","96.58","","","","-5","","Freezing Drizzle,Fog"
"2017-01-20 22:00","2017","01","20","22:00","-0.9","","-1.3","","97","","18","","8","","4.0","","96.57","","","","-4","","Freezing Drizzle,Fog"
"2017-01-20 23:00","2017","01","20","23:00","-0.9","","-1.3","","97","","22","","5","","1.6","","96.58","","","","-3","","Freezing Drizzle,Fog"
"2017-01-21 00:00","2017","01","21","00:00","-0.9","","-1.3","","97","","24","","3","","0.8","","96.55","","","","-2","","Freezing Drizzle,Freezing Fog"
"2017-01-21 01:00","2017","01","21","01:00","-0.8","","-1.2","","97","","36","","1","","0.8","","96.52","","","","-1","","Freezing Drizzle,Freezing Fog"
"2017-01-21 02:00","2017","01","21","02:00","-0.6","","-1.0","","97","","11","","4","","0.8","","96.54","","","","-2","","Freezing Drizzle,Freezing Fog"
"2017-01-21 03:00","2017","01","21","03:00","-0.6","","-1.0","","97","","11","","4","","0.8","","96.56","","","","-2","","Freezing Drizzle,Freezing Fog"
"2017-01-21 04:00","2017","01","21","04:00","-0.5","","-0.8","","98","","8","","6","","1.2","","96.52","","","","-3","","Freezing Drizzle,Fog"
"2017-01-21 05:00","2017","01","21","05:00","-0.4","","-0.7","","98","","16","","8","","1.0","","96.51","","","","-3","","Freezing Drizzle,Fog"
"2017-01-21 06:00","2017","01","21","06:00","-0.4","","-0.7","","98","","13","","7","","0.6","","96.49","","","","-3","","Freezing Fog"
"2017-01-21 07:00","2017","01","21","07:00","-0.3","","-0.6","","98","","15","","9","","0.4","","96.49","","","","-3","","Freezing Fog"
"2017-01-21 08:00","2017","01","21","08:00","-0.3","","-0.6","","98","","15","","8","","0.4","","96.51","","","","-3","","Freezing Fog"
"2017-01-21 09:00","2017","01","21","09:00","-0.3","","-0.6","","98","","17","","10","","0.4","","96.51","","","","-4","","Freezing Fog"
"2017-01-21 10:00","2017","01","21","10:00","-0.1","","-0.4","","98","","11","","8","","0.6","","96.47","","","","-3","","Freezing Fog"
"2017-01-21 11:00","2017","01","21","11:00","0.1","","-0.2","","98","","17","","4","","0.4","","96.49","","","","","","Fog"
"2017-01-21 12:00","2017","01","21","12:00","0.4","","0.1","","98","","16","","5","","0.4","","96.45","","","","","","Fog"
"2017-01-21 13:00","2017","01","21","13:00","0.7","","0.4","","98","","20","","10","","1.0","","96.46","","","","","","Fog"
"2017-01-21 14:00","2017","01","21","14:00","1.1","","0.8","","98","","19","","5","","0.4","","96.38","","","","","","Fog"
"2017-01-21 15:00","2017","01","21","15:00","1.0","","0.7","","98","","19","","4","","0.8","","96.39","","","","","","Fog"
"2017-01-21 16:00","2017","01","21","16:00","0.9","","0.6","","98","","18","","4","","0.4","","96.49","","","","","","Fog"
"2017-01-21 17:00","2017","01","21","17:00","1.1","","0.8","","98","","36","","2","","0.2","","96.48","","","","","","Fog"
"2017-01-21 18:00","2017","01","21","18:00","0.8","","0.5","","98","","9","","5","","0.2","","96.47","","","","","","Fog"
"2017-01-21 19:00","2017","01","21","19:00","0.8","","0.5","","98","","5","","8","","0.2","","96.47","","","","","","Fog"
"2017-01-21 20:00","2017","01","21","20:00","0.8","","0.5","","98","","9","","14","","0.2","","96.42","","","","","","Fog"
"2017-01-21 21:00","2017","01","21","21:00","0.8","","0.5","","98","","10","","15","","0.2","","96.45","","","","","","Fog"
"2017-01-21 22:00","2017","01","21","22:00","0.9","","0.6","","98","","11","","8","","0.4","","96.47","","","","","","Fog"
"2017-01-21 23:00","2017","01","21","23:00","1.0","","0.7","","98","","10","","7","","0.4","","96.47","","","","","","Fog"
"2017-01-22 00:00","2017","01","22","00:00","0.8","","0.5","","98","","7","","17","","0.4","","96.43","","","","","","Fog"
"2017-01-22 01:00","2017","01","22","01:00","0.8","","0.5","","98","","7","","15","","0.4","","96.41","","","","","","Fog"
"2017-01-22 02:00","2017","01","22","02:00","0.8","","0.5","","98","","7","","11","","0.4","","96.43","","","","","","Fog"
"2017-01-22 03:00","2017","01","22","03:00","0.8","","0.5","","98","","7","","12","","0.4","","96.49","","","","","","Fog"
"2017-01-22 04:00","2017","01","22","04:00","0.5","","0.2","","98","","6","","23","","0.4","","96.45","","","","","","Fog"
"2017-01-22 05:00","2017","01","22","05:00","0.9","","0.6","","98","","7","","19","","1.6","","96.43","","","","","","Fog"
"2017-01-22 06:00","2017","01","22","06:00","1.0","","0.7","","98","","6","","21","","1.2","","96.42","","","","","","Fog"
"2017-01-22 07:00","2017","01","22","07:00","0.8","","0.5","","98","","6","","24","","0.8","","96.41","","","","","","Drizzle,Fog"
"2017-01-22 08:00","2017","01","22","08:00","0.8","","0.5","","98","","6","","24","","1.0","","96.42","","","","","","Drizzle,Fog"
"2017-01-22 09:00","2017","01","22","09:00","1.1","","0.8","","98","","6","","25","","1.6","","96.47","","","","","","Fog"
"2017-01-22 10:00","2017","01","22","10:00","1.4","","1.1","","98","","8","","20","","2.4","","96.59","","","","","","Fog"
"2017-01-22 11:00","2017","01","22","11:00","1.7","","1.4","","98","","9","","26","","3.2","","96.59","","","","","","Fog"
"2017-01-22 12:00","2017","01","22","12:00","2.0","","1.7","","98","","10","","18","","11.3","","96.59","","","","","","NA"
"2017-01-22 13:00","2017","01","22","13:00","2.5","","2.2","","98","","10","","18","","1.6","","96.56","","","","","","Fog"
"2017-01-22 14:00","2017","01","22","14:00","2.2","","1.9","","98","","10","","21","","3.2","","96.55","","","","","","Fog"
"2017-01-22 15:00","2017","01","22","15:00","2.1","","1.8","","98","","9","","22","","3.2","","96.55","","","","","","Drizzle,Fog"
"2017-01-22 16:00","2017","01","22","16:00","1.9","","1.6","","98","","9","","17","","2.4","","96.61","","","","","","Drizzle,Fog"
"2017-01-22 17:00","2017","01","22","17:00","1.8","","1.5","","98","","8","","21","","2.4","","96.63","","","","","","Drizzle,Fog"
"2017-01-22 18:00","2017","01","22","18:00","1.5","","1.2","","98","","7","","22","","2.4","","96.64","","","","","","Rain,Fog"
"2017-01-22 19:00","2017","01","22","19:00","1.4","","1.1","","98","","8","","17","","8.1","","96.73","","","","","","Rain,Fog"
"2017-01-22 20:00","2017","01","22","20:00","1.1","","0.7","","97","","8","","21","","4.0","","96.71","","","","","","Rain,Fog"
"2017-01-22 21:00","2017","01","22","21:00","0.9","","0.5","","97","","9","","22","","4.0","","96.74","","","","","","Rain,Fog"
"2017-01-22 22:00","2017","01","22","22:00","0.8","","0.4","","97","","9","","20","","4.0","","96.73","","","","","","Rain,Fog"
"2017-01-22 23:00","2017","01","22","23:00","0.7","","0.3","","97","","10","","19","","9.7","","96.78","","","","","","Rain,Fog"
"2017-01-23 00:00","2017","01","23","00:00","0.5","","-0.1","","96","","9","","22","","9.7","","96.80","","","","","","Rain,Fog"
"2017-01-23 01:00","2017","01","23","01:00","0.3","","-0.3","","96","","11","","19","","9.7","","96.80","","","","","","Rain,Fog"
"2017-01-23 02:00","2017","01","23","02:00","0.1","","-0.5","","96","","9","","20","","9.7","","96.84","","","","","","Rain,Fog"
"2017-01-23 03:00","2017","01","23","03:00","0.0","","-0.6","","96","","9","","22","","9.7","","96.86","","","","-6","","Moderate Rain,Fog"
"2017-01-23 04:00","2017","01","23","04:00","-0.2","","-0.9","","95","","9","","23","","9.7","","96.88","","","","-6","","Freezing Rain,Fog"
"2017-01-23 05:00","2017","01","23","05:00","-0.3","","-1.0","","95","","9","","28","","19.3","","96.85","","","","-7","","Freezing Rain"
"2017-01-23 06:00","2017","01","23","06:00","-0.5","","-1.2","","95","","8","","18","","24.1","","96.86","","","","-6","","NA"
"2017-01-23 07:00","2017","01","23","07:00","-0.6","","-1.6","","93","","9","","24","","24.1","","96.87","","","","-7","","Cloudy"
"2017-01-23 08:00","2017","01","23","08:00","-0.7","","-1.8","","92","","8","","21","","24.1","","96.89","","","","-6","","NA"
"2017-01-23 09:00","2017","01","23","09:00","-0.9","","-2.0","","92","","8","","21","","24.1","","96.92","","","","-7","","NA"
"2017-01-23 10:00","2017","01","23","10:00","-1.1","","-1.9","","94","","8","","18","","4.0","","96.97","","","","-6","","Fog"
"2017-01-23 11:00","2017","01","23","11:00","-0.8","","-1.5","","95","","8","","18","","4.8","","96.99","","","","-6","","Fog"
"2017-01-23 12:00","2017","01","23","12:00","-0.4","","-1.3","","94","","9","","17","","4.8","","96.96","","","","-5","","Fog"
"2017-01-23 13:00","2017","01","23","13:00","-0.2","","-1.1","","94","","9","","18","","4.0","","96.89","","","","-5","","Fog"
"2017-01-23 14:00","2017","01","23","14:00","0.1","","-0.8","","94","","8","","16","","4.0","","96.83","","","","","","Freezing Drizzle"
"2017-01-23 15:00","2017","01","23","15:00","0.3","","-0.4","","95","","8","","17","","4.0","","96.81","","","","","","Drizzle,Fog"
"2017-01-23 16:00","2017","01","23","16:00","0.4","","-0.3","","95","","9","","14","","4.0","","96.87","","","","","","Drizzle"
"2017-01-23 17:00","2017","01","23","17:00","0.1","","-0.5","","96","","8","","15","","4.0","","96.90","","","","","","Drizzle"
"2017-01-23 18:00","2017","01","23","18:00","0.0","","-0.6","","96","","7","","16","","4.0","","96.89","","","","-5","","Drizzle"
"2017-01-23 19:00","2017","01","23","19:00","-0.2","","-0.8","","96","","7","","18","","4.0","","96.88","","","","-5","","Freezing Drizzle"
"2017-01-23 20:00","2017","01","23","20:00","-0.2","","-0.8","","96","","9","","17","","4.0","","96.92","","","","-5","","Freezing Drizzle"
"2017-01-23 21:00","2017","01","23","21:00","-0.3","","-0.9","","96","","11","","18","","4.0","","96.97","","","","-5","","Freezing Drizzle"
"2017-01-23 22:00","2017","01","23","22:00","-0.6","","-1.3","","95","","11","","23","","4.0","","96.95","","","","-6","","Freezing Drizzle"
"2017-01-23 23:00","2017","01","23","23:00","-0.8","","-1.4","","96","","9","","18","","9.7","","96.88","","","","-6","","Freezing Drizzle,Fog"
"2017-01-24 00:00","2017","01","24","00:00","-0.8","","-1.4","","96","","9","","16","","16.1","","96.83","","","","-6","","NA"
"2017-01-24 01:00","2017","01","24","01:00","-0.9","","-1.8","","94","","10","","16","","24.1","","96.82","","","","-6","","Cloudy"
"2017-01-24 02:00","2017","01","24","02:00","-1.1","","-2.1","","93","","8","","11","","24.1","","96.74","","","","-5","","NA"
"2017-01-24 03:00","2017","01","24","03:00","-1.2","","-2.5","","91","","9","","15","","24.1","","96.77","","","","-6","","NA"
"2017-01-24 04:00","2017","01","24","04:00","-1.4","","-2.7","","91","","8","","12","","24.1","","96.78","","","","-5","","Cloudy"
"2017-01-24 05:00","2017","01","24","05:00","-1.4","","-3.0","","89","","7","","12","","24.1","","96.77","","","","-5","","NA"
"2017-01-24 06:00","2017","01","24","06:00","-1.5","","-3.1","","89","","4","","7","","24.1","","96.73","","","","-4","","NA"
"2017-01-24 07:00","2017","01","24","07:00","-1.6","","-3.3","","88","","4","","11","","24.1","","96.72","","","","-5","","Cloudy"
"2017-01-24 08:00","2017","01","24","08:00","-1.8","","-3.5","","88","","3","","16","","24.1","","96.69","","","","-7","","NA"
"2017-01-24 09:00","2017","01","24","09:00","-2.0","","-3.7","","88","","3","","13","","32.2","","96.69","","","","-6","","NA"
"2017-01-24 10:00","2017","01","24","10:00","-1.9","","-3.8","","87","","3","","17","","32.2","","96.69","","","","-7","","Cloudy"
"2017-01-24 11:00","2017","01","24","11:00","-1.8","","-3.8","","86","","2","","18","","32.2","","96.67","","","","-7","","NA"
"2017-01-24 12:00","2017","01","24","12:00","-1.7","","-3.9","","85","","2","","19","","32.2","","96.59","","","","-7","","NA"
"2017-01-24 13:00","2017","01","24","13:00","-1.4","","-3.6","","85","","2","","15","","32.2","","96.52","","","","-6","","Cloudy"
"2017-01-24 14:00","2017","01","24","14:00","-1.2","","-3.7","","83","","2","","12","","32.2","","96.47","","","","-5","","NA"
"2017-01-24 15:00","2017","01","24","15:00","-1.0","","-3.5","","83","","36","","17","","32.2","","96.46","","","","-6","","NA"
"2017-01-24 16:00","2017","01","24","16:00","-0.9","","-3.6","","82","","1","","17","","32.2","","96.45","","","","-6","","Cloudy"
"2017-01-24 17:00","2017","01","24","17:00","-1.0","","-3.4","","84","","36","","11","","32.2","","96.44","","","","-5","","NA"
"2017-01-24 18:00","2017","01","24","18:00","-1.1","","-3.2","","86","","1","","11","","24.1","","96.43","","","","-5","","NA"
"2017-01-24 19:00","2017","01","24","19:00","-1.2","","-3.3","","86","","2","","16","","24.1","","96.42","","","","-6","","Cloudy"
"2017-01-24 20:00","2017","01","24","20:00","-1.3","","-4.3","","80","","2","","14","","24.1","","96.44","","","","-6","","NA"
"2017-01-24 21:00","2017","01","24","21:00","-2.0","","-4.8","","81","","4","","8","","24.1","","96.42","","","","-5","","NA"
"2017-01-24 22:00","2017","01","24","22:00","-2.2","","-4.7","","83","","36","","4","","19.3","","96.43","","","","-4","","Snow"
"2017-01-24 23:00","2017","01","24","23:00","-2.2","","-3.5","","91","","34","","12","","16.1","","96.38","","","","-6","","Snow"
"2017-01-25 00:00","2017","01","25","00:00","-2.3","","-3.7","","90","","34","","9","","24.1","","96.34","","","","-6","","Snow"
"2017-01-25 01:00","2017","01","25","01:00","-2.2","","-3.6","","90","","34","","10","","24.1","","96.30","","","","-6","","Cloudy"
"2017-01-25 02:00","2017","01","25","02:00","-2.4","","-3.8","","90","","34","","9","","24.1","","96.28","","","","-6","","NA"
"2017-01-25 03:00","2017","01","25","03:00","-3.1","","-4.2","","92","","31","","9","","24.1","","96.26","","","","-7","","NA"
"2017-01-25 04:00","2017","01","25","04:00","-2.9","","-4.0","","92","","28","","8","","24.1","","96.26","","","","-6","","Cloudy"
"2017-01-25 05:00","2017","01","25","05:00","-2.5","","-3.5","","93","","30","","11","","24.1","","96.21","","","","-7","","NA"
"2017-01-25 06:00","2017","01","25","06:00","-2.3","","-3.1","","94","","28","","5","","16.1","","96.18","","","","-4","","NA"
"2017-01-25 07:00","2017","01","25","07:00","-2.1","","-3.1","","93","","31","","11","","4.8","","96.15","","","","-6","","Snow"
"2017-01-25 08:00","2017","01","25","08:00","-2.3","","-4.0","","88","","33","","9","","24.1","","96.10","","","","-6","","NA"
"2017-01-25 09:00","2017","01","25","09:00","-1.9","","-3.5","","89","","32","","5","","16.1","","96.09","","","","-4","","Snow"
"2017-01-25 10:00","2017","01","25","10:00","-1.0","","-2.4","","90","","29","","10","","32.2","","96.06","","","","-5","","Cloudy"
"2017-01-25 11:00","2017","01","25","11:00","-0.4","","-3.4","","80","","34","","15","","32.2","","96.01","","","","-5","","NA"
"2017-01-25 12:00","2017","01","25","12:00","-0.3","","-3.9","","77","","32","","12","","32.2","","95.90","","","","-4","","NA"
"2017-01-25 13:00","2017","01","25","13:00","0.4","","-3.3","","76","","31","","6","","32.2","","95.82","","","","","","Mostly Cloudy"
"2017-01-25 14:00","2017","01","25","14:00","0.2","","-2.7","","81","","28","","10","","32.2","","95.77","","","","","","Snow Showers"
"2017-01-25 15:00","2017","01","25","15:00","0.5","","-3.1","","77","","30","","8","","32.2","","95.72","","","","","","Snow Showers"
"2017-01-25 16:00","2017","01","25","16:00","0.8","","-3.1","","75","","25","","8","","32.2","","95.67","","","","","","Snow Showers"
"2017-01-25 17:00","2017","01","25","17:00","0.4","","-3.0","","78","","30","","3","","32.2","","95.63","","","","","","NA"
"2017-01-25 18:00","2017","01","25","18:00","-0.6","","-2.7","","86","","21","","3","","24.1","","95.60","","","","-2","","NA"
"2017-01-25 19:00","2017","01","25","19:00","-0.1","","-2.3","","85","","28","","5","","24.1","","95.56","","","","-2","","Snow"
"2017-01-25 20:00","2017","01","25","20:00","-0.1","","-2.3","","85","","27","","4","","24.1","","95.54","","","","-1","","NA"
"2017-01-25 21:00","2017","01","25","21:00","-0.7","","-2.4","","88","","30","","7","","24.1","","95.51","","","","-3","","NA"
"2017-01-25 22:00","2017","01","25","22:00","-1.0","","-2.1","","92","","34","","6","","24.1","","95.47","","","","-3","","Cloudy"
"2017-01-25 23:00","2017","01","25","23:00","-1.4","","-2.4","","93","","33","","8","","24.1","","95.45","","","","-4","","NA"
"2017-01-26 00:00","2017","01","26","00:00","-1.4","","-3.9","","83","","33","","5","","24.1","","95.42","","","","-3","","NA"
"2017-01-26 01:00","2017","01","26","01:00","-1.8","","-4.0","","85","","34","","9","","24.1","","95.35","","","","-5","","Cloudy"
"2017-01-26 02:00","2017","01","26","02:00","-2.1","","-3.8","","88","","32","","7","","24.1","","95.32","","","","-5","","NA"
"2017-01-26 03:00","2017","01","26","03:00","-1.9","","-3.9","","86","","34","","10","","24.1","","95.33","","","","-6","","NA"
"2017-01-26 04:00","2017","01","26","04:00","-1.9","","-3.6","","88","","34","","10","","24.1","","95.30","","","","-6","","Cloudy"
"2017-01-26 05:00","2017","01","26","05:00","-2.1","","-3.7","","89","","34","","12","","24.1","","95.29","","","","-6","","NA"
"2017-01-26 06:00","2017","01","26","06:00","-2.2","","-3.5","","91","","34","","10","","24.1","","95.28","","","","-6","","NA"
"2017-01-26 07:00","2017","01","26","07:00","-2.0","","-3.7","","88","","34","","11","","24.1","","95.31","","","","-6","","Cloudy"
"2017-01-26 08:00","2017","01","26","08:00","-2.1","","-4.0","","87","","31","","14","","32.2","","95.32","","","","-7","","NA"
"2017-01-26 09:00","2017","01","26","09:00","-1.7","","-3.7","","86","","33","","17","","32.2","","95.35","","","","-7","","NA"
"2017-01-26 10:00","2017","01","26","10:00","-1.4","","-4.4","","80","","33","","26","","32.2","","95.37","","","","-8","","Cloudy"
"2017-01-26 11:00","2017","01","26","11:00","-1.3","","-4.8","","77","","32","","27","","32.2","","95.40","","","","-8","","Snow Showers"
"2017-01-26 12:00","2017","01","26","12:00","-1.2","","-4.6","","78","","31","","21","","32.2","","95.37","","","","-7","","Snow Showers"
"2017-01-26 13:00","2017","01","26","13:00","-1.5","","-4.7","","79","","30","","21","","32.2","","95.34","","","","-7","","Snow Showers"
"2017-01-26 14:00","2017","01","26","14:00","-1.9","","-5.6","","76","","31","","28","","32.2","","95.35","","","","-9","","Snow Showers"
"2017-01-26 15:00","2017","01","26","15:00","-1.6","","-5.8","","73","","30","","22","","32.2","","95.40","","","","-8","","NA"
"2017-01-26 16:00","2017","01","26","16:00","-1.5","","-5.9","","72","","30","","18","","32.2","","95.45","","","","-7","","Snow Showers"
"2017-01-26 17:00","2017","01","26","17:00","-1.7","","-5.7","","74","","30","","30","","32.2","","95.49","","","","-9","","NA"
"2017-01-26 18:00","2017","01","26","18:00","-2.0","","-5.5","","77","","30","","23","","24.1","","95.54","","","","-8","","NA"
"2017-01-26 19:00","2017","01","26","19:00","-2.9","","-6.6","","76","","30","","25","","24.1","","95.56","","","","-10","","Cloudy"
"2017-01-26 20:00","2017","01","26","20:00","-3.1","","-7.3","","73","","29","","22","","24.1","","95.57","","","","-9","","NA"
"2017-01-26 21:00","2017","01","26","21:00","-3.5","","-7.5","","74","","29","","25","","24.1","","95.60","","","","-10","","NA"
"2017-01-26 22:00","2017","01","26","22:00","-4.0","","-7.8","","75","","28","","20","","24.1","","95.61","","","","-10","","Cloudy"
"2017-01-26 23:00","2017","01","26","23:00","-4.4","","-8.4","","74","","29","","28","","24.1","","95.62","","","","-12","","NA"
"2017-01-27 00:00","2017","01","27","00:00","-4.6","","-8.4","","75","","29","","19","","24.1","","95.63","","","","-11","","NA"
"2017-01-27 01:00","2017","01","27","01:00","-5.1","","-8.7","","76","","28","","20","","24.1","","95.62","","","","-12","","Cloudy"
"2017-01-27 02:00","2017","01","27","02:00","-5.4","","-9.3","","74","","29","","27","","24.1","","95.62","","","","-13","","NA"
"2017-01-27 03:00","2017","01","27","03:00","-5.5","","-9.3","","75","","29","","26","","24.1","","95.63","","","","-13","","NA"
"2017-01-27 04:00","2017","01","27","04:00","-5.6","","-9.2","","76","","30","","17","","24.1","","95.63","","","","-12","","Cloudy"
"2017-01-27 05:00","2017","01","27","05:00","-5.9","","-9.5","","76","","27","","14","","24.1","","95.62","","","","-11","","NA"
"2017-01-27 06:00","2017","01","27","06:00","-5.9","","-9.6","","75","","28","","16","","24.1","","95.64","","","","-12","","Snow"
"2017-01-27 07:00","2017","01","27","07:00","-5.8","","-9.6","","75","","28","","17","","24.1","","95.65","","","","-12","","Snow"
"2017-01-27 08:00","2017","01","27","08:00","-6.0","","-9.4","","77","","27","","17","","12.9","","95.68","","","","-12","","Snow"
"2017-01-27 09:00","2017","01","27","09:00","-6.0","","-8.9","","80","","27","","18","","12.9","","95.70","","","","-12","","Snow"
"2017-01-27 10:00","2017","01","27","10:00","-5.8","","-8.6","","81","","28","","19","","9.7","","95.71","","","","-12","","Snow"
"2017-01-27 11:00","2017","01","27","11:00","-5.3","","-8.2","","80","","27","","19","","9.7","","95.71","","","","-12","","Snow"
"2017-01-27 12:00","2017","01","27","12:00","-4.6","","-7.7","","79","","28","","21","","4.0","","95.69","","","","-11","","Snow"
"2017-01-27 13:00","2017","01","27","13:00","-3.9","","-8.1","","73","","28","","17","","32.2","","95.62","","","","-10","","Snow"
"2017-01-27 14:00","2017","01","27","14:00","-3.2","","-8.3","","68","","30","","23","","32.2","","95.58","","","","-10","","Snow"
"2017-01-27 15:00","2017","01","27","15:00","-2.9","","-7.8","","69","","30","","21","","32.2","","95.56","","","","-9","","Snow"
"2017-01-27 16:00","2017","01","27","16:00","-2.8","","-7.7","","69","","30","","16","","32.2","","95.59","","","","-8","","Snow"
"2017-01-27 17:00","2017","01","27","17:00","-2.7","","-8.2","","66","","30","","21","","32.2","","95.64","","","","-9","","Snow"
"2017-01-27 18:00","2017","01","27","18:00","-3.2","","-7.9","","70","","30","","8","","32.2","","95.66","","","","-6","","Snow"
"2017-01-27 19:00","2017","01","27","19:00","-3.1","","-7.8","","70","","28","","7","","24.1","","95.66","","","","-6","","Snow"
"2017-01-27 20:00","2017","01","27","20:00","-2.9","","-7.8","","69","","28","","12","","24.1","","95.69","","","","-7","","NA"
"2017-01-27 21:00","2017","01","27","21:00","-3.0","","-8.1","","68","","27","","13","","24.1","","95.69","","","","-8","","NA"
"2017-01-27 22:00","2017","01","27","22:00","-3.2","","-7.7","","71","","27","","9","","24.1","","95.67","","","","-7","","Cloudy"
"2017-01-27 23:00","2017","01","27","23:00","-3.4","","-7.0","","76","","25","","10","","24.1","","95.64","","","","-7","","NA"
"2017-01-28 00:00","2017","01","28","00:00","-3.4","","-6.0","","82","","24","","16","","24.1","","95.60","","","","-9","","Snow"
"2017-01-28 01:00","2017","01","28","01:00","-3.6","","-5.0","","90","","24","","12","","4.8","","95.55","","","","-8","","Snow"
"2017-01-28 02:00","2017","01","28","02:00","-3.5","","-4.3","","94","","24","","10","","24.1","","95.53","","","","-7","","Snow"
"2017-01-28 03:00","2017","01","28","03:00","-3.4","","-4.1","","95","","23","","12","","4.0","","95.54","","","","-8","","Freezing Drizzle,Snow"
"2017-01-28 04:00","2017","01","28","04:00","-3.5","","-4.2","","95","","25","","17","","4.0","","95.52","","","","-9","","Moderate Freezing Drizzle,Snow"
"2017-01-28 05:00","2017","01","28","05:00","-3.5","","-4.3","","94","","25","","12","","16.1","","95.52","","","","-8","","Freezing Drizzle,Snow"
"2017-01-28 06:00","2017","01","28","06:00","-3.5","","-4.5","","93","","26","","9","","16.1","","95.50","","","","-7","","Snow"
"2017-01-28 07:00","2017","01","28","07:00","-3.6","","-4.6","","93","","24","","6","","12.9","","95.50","","","","-6","","Snow"
"2017-01-28 08:00","2017","01","28","08:00","-3.5","","-4.3","","94","","24","","7","","8.1","","95.48","","","","-6","","Snow"
"2017-01-28 09:00","2017","01","28","09:00","-3.5","","-4.3","","94","","25","","9","","6.4","","95.48","","","","-7","","Snow"
"2017-01-28 10:00","2017","01","28","10:00","-4.3","","-5.4","","92","","2","","14","","3.6","","95.49","","","","-9","","Snow"
"2017-01-28 11:00","2017","01","28","11:00","-4.9","","-6.4","","89","","2","","20","","3.6","","95.50","","","","-11","","Snow"
"2017-01-28 12:00","2017","01","28","12:00","-5.3","","-7.3","","86","","1","","17","","3.2","","95.49","","","","-11","","Snow"
"2017-01-28 13:00","2017","01","28","13:00","-5.3","","-7.8","","83","","36","","18","","2.4","","95.45","","","","-12","","Snow,Blowing Snow"
"2017-01-28 14:00","2017","01","28","14:00","-4.7","","-7.6","","80","","35","","14","","9.7","","95.45","","","","-10","","Snow"
"2017-01-28 15:00","2017","01","28","15:00","-4.6","","-8.0","","77","","33","","16","","24.1","","95.48","","","","-10","","Snow"
"2017-01-28 16:00","2017","01","28","16:00","-4.8","","-8.8","","74","","32","","13","","24.1","","95.53","","","","-10","","Snow"
"2017-01-28 17:00","2017","01","28","17:00","-5.5","","-8.9","","77","","34","","9","","24.1","","95.55","","","","-10","","Snow"
"2017-01-28 18:00","2017","01","28","18:00","-5.9","","-8.2","","84","","29","","6","","4.8","","95.62","","","","-9","","Snow"
"2017-01-28 19:00","2017","01","28","19:00","-6.5","","-8.5","","86","","34","","11","","4.0","","95.66","","","","-11","","Snow"
"2017-01-28 20:00","2017","01","28","20:00","-7.0","","-9.1","","85","","36","","15","","8.1","","95.69","","","","-13","","Snow"
"2017-01-28 21:00","2017","01","28","21:00","-8.2","","-10.3","","85","","2","","16","","4.8","","95.75","","","","-15","","Snow"
"2017-01-28 22:00","2017","01","28","22:00","-9.5","","-11.9","","83","","34","","20","","4.8","","95.79","","","","-17","","Snow"
"2017-01-28 23:00","2017","01","28","23:00","-10.5","","-13.3","","80","","36","","25","","16.1","","95.80","","","","-19","","Snow"
"2017-01-29 00:00","2017","01","29","00:00","-11.6","","-14.6","","79","","1","","23","","6.4","","95.85","","","","-20","","Snow,Blowing Snow"
"2017-01-29 01:00","2017","01","29","01:00","-12.6","","-16.5","","73","","36","","21","","19.3","","95.88","","","","-21","","Snow,Blowing Snow"
"2017-01-29 02:00","2017","01","29","02:00","-13.1","","-16.7","","75","","35","","18","","24.1","","95.92","","","","-21","","Snow,Blowing Snow"
"2017-01-29 03:00","2017","01","29","03:00","-13.4","","-17.4","","72","","35","","23","","24.1","","95.95","","","","-23","","Snow,Blowing Snow"
"2017-01-29 04:00","2017","01","29","04:00","-14.0","","-17.5","","75","","36","","15","","12.9","","95.99","","","","-22","","Snow,Blowing Snow"
"2017-01-29 05:00","2017","01","29","05:00","-14.3","","-17.7","","76","","36","","15","","8.1","","96.01","","","","-22","","Snow"
"2017-01-29 06:00","2017","01","29","06:00","-14.5","","-17.7","","77","","35","","13","","12.9","","96.05","","","","-22","","Snow"
"2017-01-29 07:00","2017","01","29","07:00","-15.6","","-19.1","","75","","32","","10","","4.8","","96.11","","","","-22","","Snow"
"2017-01-29 08:00","2017","01","29","08:00","-17.1","","-20.2","","77","","33","","14","","24.1","","96.16","","","","-25","","NA"
"2017-01-29 09:00","2017","01","29","09:00","-16.8","","-20.3","","75","","34","","9","","24.1","","96.22","","","","-23","","NA"
"2017-01-29 10:00","2017","01","29","10:00","-15.8","","-20.3","","69","","34","","17","","24.1","","96.27","","","","-24","","Mostly Cloudy"
"2017-01-29 11:00","2017","01","29","11:00","-15.3","","-20.5","","65","","34","","17","","32.2","","96.30","","","","-24","","NA"
"2017-01-29 12:00","2017","01","29","12:00","-14.1","","-19.7","","63","","34","","13","","32.2","","96.30","","","","-21","","NA"
"2017-01-29 13:00","2017","01","29","13:00","-13.2","","-19.4","","60","","33","","20","","32.2","","96.29","","","","-22","","Mostly Cloudy"
"2017-01-29 14:00","2017","01","29","14:00","-12.4","","-18.7","","60","","32","","19","","32.2","","96.29","","","","-21","","NA"
"2017-01-29 15:00","2017","01","29","15:00","-12.5","","-18.8","","60","","34","","15","","32.2","","96.34","","","","-20","","NA"
"2017-01-29 16:00","2017","01","29","16:00","-12.3","","-18.6","","60","","33","","15","","32.2","","96.40","","","","-20","","Mostly Cloudy"
"2017-01-29 17:00","2017","01","29","17:00","-12.5","","-18.6","","61","","35","","16","","32.2","","96.46","","","","-20","","NA"
"2017-01-29 18:00","2017","01","29","18:00","-13.0","","-18.5","","64","","31","","13","","24.1","","96.52","","","","-20","","NA"
"2017-01-29 19:00","2017","01","29","19:00","-13.4","","-19.0","","63","","32","","14","","24.1","","96.59","","","","-21","","Snow"
"2017-01-29 20:00","2017","01","29","20:00","-13.6","","-18.9","","65","","33","","17","","24.1","","96.64","","","","-22","","Snow"
"2017-01-29 21:00","2017","01","29","21:00","-13.9","","-19.1","","65","","34","","13","","24.1","","96.65","","","","-21","","Snow"
"2017-01-29 22:00","2017","01","29","22:00","-14.8","","-18.5","","74","","34","","19","","24.1","","96.65","","","","-24","","Snow"
"2017-01-29 23:00","2017","01","29","23:00","-15.8","","-20.1","","70","","36","","15","","24.1","","96.67","","","","-24","","NA"
"2017-01-30 00:00","2017","01","30","00:00","-16.2","","-20.3","","71","","35","","12","","16.1","","96.68","","","","-23","","Snow"
"2017-01-30 01:00","2017","01","30","01:00","-16.3","","-19.6","","76","","35","","11","","12.9","","96.68","","","","-23","","Snow"
"2017-01-30 02:00","2017","01","30","02:00","-16.9","","-20.0","","77","","35","","6","","19.3","","96.71","","","","-21","","NA"
"2017-01-30 03:00","2017","01","30","03:00","-17.6","","-20.3","","80","","33","","8","","16.1","","96.75","","","","-23","","Snow"
"2017-01-30 04:00","2017","01","30","04:00","-19.1","","-21.4","","82","","31","","7","","24.1","","96.76","","","","-25","","Snow"
"2017-01-30 05:00","2017","01","30","05:00","-19.4","","-21.7","","82","","31","","8","","24.1","","96.78","","","","-26","","Snow"
"2017-01-30 06:00","2017","01","30","06:00","-19.6","","-22.1","","81","","30","","8","","24.1","","96.82","","","","-26","","NA"
"2017-01-30 07:00","2017","01","30","07:00","-19.2","","-21.8","","80","","33","","5","","24.1","","96.84","","","","-23","","Mostly Cloudy"
"2017-01-30 08:00","2017","01","30","08:00","-19.6","","-22.4","","79","","32","","5","","32.2","","96.89","","","","-24","","NA"
"2017-01-30 09:00","2017","01","30","09:00","-19.0","","-21.6","","80","","33","","5","","32.2","","96.91","","","","-23","","NA"
"2017-01-30 10:00","2017","01","30","10:00","-16.8","","-20.3","","75","","2","","9","","32.2","","96.96","","","","-23","","Mostly Cloudy"
"2017-01-30 11:00","2017","01","30","11:00","-16.3","","-20.6","","70","","0","","1","","32.2","","96.94","","","","-17","","NA"
"2017-01-30 12:00","2017","01","30","12:00","-15.1","","-20.3","","65","","36","","1","","32.2","","96.93","","","","-16","","NA"
"2017-01-30 13:00","2017","01","30","13:00","-14.5","","-20.1","","63","","21","","14","","32.2","","96.88","","","","-22","","Mainly Clear"
"2017-01-30 14:00","2017","01","30","14:00","-13.8","","-20.4","","58","","24","","13","","32.2","","96.85","","","","-21","","NA"
"2017-01-30 15:00","2017","01","30","15:00","-13.3","","-20.6","","55","","23","","12","","32.2","","96.85","","","","-20","","NA"
"2017-01-30 16:00","2017","01","30","16:00","-13.3","","-20.3","","56","","21","","12","","32.2","","96.83","","","","-20","","Mainly Clear"
"2017-01-30 17:00","2017","01","30","17:00","-13.5","","-20.1","","58","","17","","8","","32.2","","96.82","","","","-19","","NA"
"2017-01-30 18:00","2017","01","30","18:00","-14.2","","-20.6","","59","","18","","11","","24.1","","96.83","","","","-21","","NA"
"2017-01-30 19:00","2017","01","30","19:00","-15.2","","-21.3","","60","","19","","15","","24.1","","96.82","","","","-23","","Clear"
"2017-01-30 20:00","2017","01","30","20:00","-15.3","","-20.9","","63","","21","","16","","24.1","","96.81","","","","-24","","NA"
"2017-01-30 21:00","2017","01","30","21:00","-17.1","","-21.4","","70","","19","","7","","24.1","","96.75","","","","-22","","NA"
"2017-01-30 22:00","2017","01","30","22:00","-17.5","","-21.6","","71","","17","","9","","24.1","","96.71","","","","-24","","Clear"
"2017-01-30 23:00","2017","01","30","23:00","-16.4","","-20.0","","74","","17","","7","","24.1","","96.72","","","","-21","","NA"
"2017-01-31 00:00","2017","01","31","00:00","-15.3","","-19.0","","74","","14","","11","","24.1","","96.69","","","","-22","","NA"
"2017-01-31 01:00","2017","01","31","01:00","-15.2","","-18.7","","75","","15","","12","","24.1","","96.63","","","","-22","","Mostly Cloudy"
"2017-01-31 02:00","2017","01","31","02:00","-15.3","","-18.3","","78","","13","","14","","24.1","","96.57","","","","-23","","Snow"
"2017-01-31 03:00","2017","01","31","03:00","-15.2","","-17.9","","80","","12","","18","","24.1","","96.52","","","","-24","","Snow"
"2017-01-31 04:00","2017","01","31","04:00","-15.4","","-17.8","","82","","11","","14","","24.1","","96.46","","","","-23","","Snow"
"2017-01-31 05:00","2017","01","31","05:00","-15.1","","-17.4","","83","","10","","17","","24.1","","96.42","","","","-24","","Snow"
"2017-01-31 06:00","2017","01","31","06:00","-14.4","","-16.7","","83","","10","","17","","19.3","","96.38","","","","-23","","Snow"
"2017-01-31 07:00","2017","01","31","07:00","-14.2","","-16.5","","83","","10","","18","","19.3","","96.37","","","","-23","","Snow"
"2017-01-31 08:00","2017","01","31","08:00","-13.8","","-16.1","","83","","10","","17","","24.1","","96.40","","","","-22","","Snow"
"2017-01-31 09:00","2017","01","31","09:00","-13.3","","-15.9","","81","","10","","16","","24.1","","96.42","","","","-21","","Snow"
"2017-01-31 10:00","2017","01","31","10:00","-12.9","","-15.8","","79","","15","","9","","32.2","","96.44","","","","-18","","Mostly Cloudy"
"2017-01-31 11:00","2017","01","31","11:00","-11.7","","-15.3","","75","","15","","12","","32.2","","96.43","","","","-18","","Snow"
"2017-01-31 12:00","2017","01","31","12:00","-9.3","","-14.5","","66","","14","","18","","32.2","","96.38","","","","-17","","Snow"
"2017-01-31 13:00","2017","01","31","13:00","-7.7","","-14.2","","60","","14","","22","","32.2","","96.31","","","","-15","","Snow"
"2017-01-31 14:00","2017","01","31","14:00","-7.0","","-14.2","","57","","14","","16","","32.2","","96.28","","","","-13","","NA"
"2017-01-31 15:00","2017","01","31","15:00","-6.3","","-13.7","","56","","15","","6","","32.2","","96.30","","","","-9","","NA"
"2017-01-31 16:00","2017","01","31","16:00","-6.5","","-13.5","","58","","11","","7","","32.2","","96.32","","","","-10","","Cloudy"
"2017-01-31 17:00","2017","01","31","17:00","-7.5","","-13.2","","64","","7","","10","","32.2","","96.35","","","","-12","","NA"
"2017-01-31 18:00","2017","01","31","18:00","-7.4","","-13.1","","64","","12","","10","","24.1","","96.39","","","","-12","","NA"
"2017-01-31 19:00","2017","01","31","19:00","-7.8","","-12.9","","67","","15","","15","","24.1","","96.39","","","","-14","","Cloudy"
"2017-01-31 20:00","2017","01","31","20:00","-8.6","","-13.0","","71","","14","","17","","24.1","","96.38","","","","-15","","NA"
"2017-01-31 21:00","2017","01","31","21:00","-8.9","","-13.1","","72","","15","","14","","24.1","","96.36","","","","-15","","NA"
"2017-01-31 22:00","2017","01","31","22:00","-8.7","","-13.1","","71","","13","","14","","24.1","","96.32","","","","-15","","Cloudy"
"2017-01-31 23:00","2017","01","31","23:00","-8.8","","-13.0","","72","","13","","14","","24.1","","96.29","","","","-15","","NA"
