"Station Name","SUDBURY A"
"Province","ONTARIO"
"Current Station Operator","NAV Canada"
"Latitude","46.63"
"Longitude","-80.80"
"Elevation","348.40"
"Climate Identifier","6068153"
"WMO Identifier","71730"
"TC Identifier","YSB"
"All times are specified in Local Standard Time (LST). Add 1 hour to adjust for Daylight Saving Time where and when it is observed."

"Legend"
"E","Estimated"
"M","Missing"
"NA","Not Available"

"Date/Time","Year","Month","Day","Time","Temp (°C)","Temp Flag","Dew Point Temp (°C)","Dew Point Temp Flag","Rel Hum (%)","Rel Hum Flag","Wind Dir (10s deg)","Wind Dir Flag","Wind Spd (km/h)","Wind Spd Flag","Visibility (km)","Visibility Flag","Stn Press (kPa)","Stn Press Flag","Hmdx","Hmdx Flag","Wind Chill","Wind Chill Flag","Weather"
"2018-09-01 00:00","2018","09","01","00:00","13.6","","12.5","","93","","17","","9","","24.1","","97.89","","","","","","NA"
"2018-09-01 01:00","2018","09","01","01:00","13.8","","12.6","","92","","16","","12","","24.1","","97.86","","","","","","Mostly Cloudy"
"2018-09-01 02:00","2018","09","01","02:00","13.9","","12.6","","92","","15","","15","","24.1","","97.80","","","","","","NA"
"2018-09-01 03:00","2018","09","01","03:00","13.7","","13.1","","96","","15","","16","","24.1","","97.78","","","","","","NA"
"2018-09-01 04:00","2018","09","01","04:00","14.0","","13.6","","98","","16","","17","","16.1","","97.71","","","","","","Mostly Cloudy"
"2018-09-01 05:00","2018","09","01","05:00","14.3","","14.0","","98","","16","","17","","3.2","","97.69","","","","","","Fog"
"2018-09-01 06:00","2018","09","01","06:00","15.2","","14.9","","98","","16","","16","","3.2","","97.70","","","","","","Fog"
"2018-09-01 07:00","2018","09","01","07:00","15.6","","15.4","","98","","17","","18","","2.4","","97.70","","","","","","Fog"
"2018-09-01 08:00","2018","09","01","08:00","17.9","","16.2","","90","","19","","19","","9.7","","97.70","","","","","","Fog"
"2018-09-01 09:00","2018","09","01","09:00","17.8","","16.5","","92","","19","","18","","19.3","","97.72","","","","","","Thunderstorms,Rain Showers"
"2018-09-01 10:00","2018","09","01","10:00","18.0","","17.3","","96","","17","","12","","24.1","","97.72","","","","","","Cloudy"
"2018-09-01 11:00","2018","09","01","11:00","20.9","","18.5","","86","","18","","27","","32.2","","97.65","","27","","","","NA"
"2018-09-01 12:00","2018","09","01","12:00","19.9","","17.9","","88","","17","","24","","24.1","","97.67","","","","","","NA"
"2018-09-01 13:00","2018","09","01","13:00","20.3","","18.5","","89","","19","","20","","24.1","","97.61","","27","","","","Cloudy"
"2018-09-01 14:00","2018","09","01","14:00","20.7","","19.0","","90","","19","","22","","19.3","","97.57","","27","","","","NA"
"2018-09-01 15:00","2018","09","01","15:00","21.1","","19.5","","90","","19","","27","","16.1","","97.49","","28","","","","Rain Showers"
"2018-09-01 16:00","2018","09","01","16:00","21.8","","19.9","","89","","19","","18","","16.1","","97.50","","29","","","","Rain Showers"
"2018-09-01 17:00","2018","09","01","17:00","21.6","","20.1","","91","","19","","13","","16.1","","97.46","","29","","","","NA"
"2018-09-01 18:00","2018","09","01","18:00","21.5","","20.2","","92","","18","","14","","16.1","","97.47","","29","","","","NA"
"2018-09-01 19:00","2018","09","01","19:00","21.0","","20.0","","94","","17","","21","","16.1","","97.44","","29","","","","Mostly Cloudy"
"2018-09-01 20:00","2018","09","01","20:00","20.5","","20.0","","97","","20","","14","","8.1","","97.52","","28","","","","Rain Showers,Fog"
"2018-09-01 21:00","2018","09","01","21:00","20.3","","19.9","","98","","21","","9","","8.1","","97.52","","28","","","","Rain Showers,Fog"
"2018-09-01 22:00","2018","09","01","22:00","20.2","","19.9","","98","","21","","12","","4.8","","97.52","","28","","","","Rain Showers,Fog"
"2018-09-01 23:00","2018","09","01","23:00","19.9","","19.7","","98","","23","","9","","2.4","","97.49","","","","","","Fog"
"2018-09-02 00:00","2018","09","02","00:00","20.1","","19.9","","98","","21","","14","","4.8","","97.53","","28","","","","Fog"
"2018-09-02 01:00","2018","09","02","01:00","20.0","","19.7","","98","","24","","9","","4.8","","97.55","","27","","","","Fog"
"2018-09-02 02:00","2018","09","02","02:00","19.7","","19.4","","98","","20","","8","","4.8","","97.52","","","","","","Fog"
"2018-09-02 03:00","2018","09","02","03:00","19.6","","19.3","","98","","17","","10","","0.8","","97.52","","","","","","Fog"
"2018-09-02 04:00","2018","09","02","04:00","19.4","","19.1","","98","","22","","9","","0.4","","97.52","","","","","","Fog"
"2018-09-02 05:00","2018","09","02","05:00","19.2","","18.9","","98","","20","","11","","0.4","","97.57","","","","","","Fog"
"2018-09-02 06:00","2018","09","02","06:00","19.0","","18.8","","98","","20","","11","","0.4","","97.64","","","","","","Fog"
"2018-09-02 07:00","2018","09","02","07:00","19.1","","18.8","","98","","20","","10","","0.4","","97.68","","","","","","Fog"
"2018-09-02 08:00","2018","09","02","08:00","19.4","","19.2","","99","","22","","9","","0.4","","97.70","","","","","","Fog"
"2018-09-02 09:00","2018","09","02","09:00","20.0","","19.8","","99","","22","","13","","1.2","","97.70","","27","","","","Fog"
"2018-09-02 10:00","2018","09","02","10:00","21.1","","19.9","","93","","21","","11","","8.1","","97.66","","29","","","","Fog"
"2018-09-02 11:00","2018","09","02","11:00","23.6","","19.4","","77","","22","","10","","32.2","","97.61","","31","","","","NA"
"2018-09-02 12:00","2018","09","02","12:00","24.7","","19.7","","73","","27","","7","","32.2","","97.57","","32","","","","NA"
"2018-09-02 13:00","2018","09","02","13:00","25.7","","19.7","","69","","17","","11","","32.2","","97.51","","33","","","","Mostly Cloudy"
"2018-09-02 14:00","2018","09","02","14:00","24.6","","20.0","","75","","19","","26","","32.2","","97.55","","32","","","","NA"
"2018-09-02 15:00","2018","09","02","15:00","26.1","","19.4","","66","","20","","22","","32.2","","97.53","","33","","","","NA"
"2018-09-02 16:00","2018","09","02","16:00","25.4","","19.5","","70","","19","","28","","32.2","","97.55","","33","","","","Mostly Cloudy"
"2018-09-02 17:00","2018","09","02","17:00","23.5","","19.1","","76","","19","","23","","32.2","","97.55","","30","","","","NA"
"2018-09-02 18:00","2018","09","02","18:00","22.6","","19.0","","80","","21","","19","","32.2","","97.55","","29","","","","NA"
"2018-09-02 19:00","2018","09","02","19:00","21.6","","19.3","","87","","20","","15","","32.2","","97.55","","29","","","","Mostly Cloudy"
"2018-09-02 20:00","2018","09","02","20:00","20.9","","19.4","","91","","18","","15","","24.1","","97.56","","28","","","","NA"
"2018-09-02 21:00","2018","09","02","21:00","20.2","","19.3","","94","","18","","21","","24.1","","97.60","","27","","","","NA"
"2018-09-02 22:00","2018","09","02","22:00","19.8","","19.2","","96","","20","","14","","24.1","","97.61","","","","","","Cloudy"
"2018-09-02 23:00","2018","09","02","23:00","19.5","","19.0","","97","","20","","16","","24.1","","97.58","","","","","","NA"
"2018-09-03 00:00","2018","09","03","00:00","19.5","","19.0","","97","","20","","16","","24.1","","97.55","","","","","","NA"
"2018-09-03 01:00","2018","09","03","01:00","19.9","","19.2","","96","","20","","13","","24.1","","97.56","","","","","","Rain Showers"
"2018-09-03 02:00","2018","09","03","02:00","19.7","","19.3","","97","","19","","14","","24.1","","97.57","","","","","","Rain Showers"
"2018-09-03 03:00","2018","09","03","03:00","19.5","","19.1","","98","","22","","7","","8.1","","97.52","","","","","","Rain Showers,Fog"
"2018-09-03 04:00","2018","09","03","04:00","19.6","","19.3","","98","","25","","8","","4.8","","97.50","","","","","","Rain Showers,Fog"
"2018-09-03 05:00","2018","09","03","05:00","19.5","","19.3","","98","","21","","7","","1.2","","97.56","","","","","","Rain Showers,Fog"
"2018-09-03 06:00","2018","09","03","06:00","20.0","","19.8","","98","","24","","12","","1.2","","97.64","","27","","","","Fog"
"2018-09-03 07:00","2018","09","03","07:00","20.3","","20.0","","98","","23","","11","","4.8","","97.71","","28","","","","Fog"
"2018-09-03 08:00","2018","09","03","08:00","20.7","","20.2","","97","","25","","11","","12.9","","97.79","","28","","","","NA"
"2018-09-03 09:00","2018","09","03","09:00","21.7","","20.1","","91","","25","","16","","32.2","","97.84","","29","","","","NA"
"2018-09-03 10:00","2018","09","03","10:00","22.7","","19.4","","81","","27","","12","","32.2","","97.84","","30","","","","Cloudy"
"2018-09-03 11:00","2018","09","03","11:00","23.2","","18.0","","72","","28","","16","","32.2","","97.90","","29","","","","NA"
"2018-09-03 12:00","2018","09","03","12:00","25.3","","16.8","","59","","26","","18","","32.2","","97.93","","30","","","","NA"
"2018-09-03 13:00","2018","09","03","13:00","24.4","","15.3","","56","","31","","17","","32.2","","97.97","","29","","","","Mostly Cloudy"
"2018-09-03 14:00","2018","09","03","14:00","23.4","","14.8","","58","","28","","16","","32.2","","98.00","","27","","","","NA"
"2018-09-03 15:00","2018","09","03","15:00","24.6","","15.1","","55","","25","","12","","32.2","","97.98","","29","","","","NA"
"2018-09-03 16:00","2018","09","03","16:00","24.1","","14.6","","55","","23","","9","","32.2","","98.00","","28","","","","Mostly Cloudy"
"2018-09-03 17:00","2018","09","03","17:00","23.9","","15.8","","60","","24","","10","","32.2","","98.05","","28","","","","NA"
"2018-09-03 18:00","2018","09","03","18:00","22.6","","16.0","","66","","27","","8","","32.2","","98.11","","27","","","","NA"
"2018-09-03 19:00","2018","09","03","19:00","20.8","","14.0","","65","","29","","8","","32.2","","98.17","","","","","","Mostly Cloudy"
"2018-09-03 20:00","2018","09","03","20:00","18.6","","13.7","","73","","32","","7","","24.1","","98.24","","","","","","NA"
"2018-09-03 21:00","2018","09","03","21:00","17.6","","13.2","","76","","32","","5","","24.1","","98.32","","","","","","NA"
"2018-09-03 22:00","2018","09","03","22:00","17.8","","12.7","","72","","36","","10","","24.1","","98.34","","","","","","Clear"
"2018-09-03 23:00","2018","09","03","23:00","16.0","","12.9","","82","","34","","8","","24.1","","98.37","","","","","","NA"
"2018-09-04 00:00","2018","09","04","00:00","15.6","","12.3","","81","","2","","10","","24.1","","98.38","","","","","","NA"
"2018-09-04 01:00","2018","09","04","01:00","15.6","","12.3","","81","","3","","10","","24.1","","98.43","","","","","","Mainly Clear"
"2018-09-04 02:00","2018","09","04","02:00","15.9","","13.4","","85","","3","","9","","24.1","","98.42","","","","","","NA"
"2018-09-04 03:00","2018","09","04","03:00","15.5","","14.2","","92","","3","","13","","24.1","","98.40","","","","","","NA"
"2018-09-04 04:00","2018","09","04","04:00","15.6","","14.7","","94","","4","","9","","24.1","","98.46","","","","","","Mostly Cloudy"
"2018-09-04 05:00","2018","09","04","05:00","15.9","","14.9","","94","","7","","8","","24.1","","98.47","","","","","","Rain Showers"
"2018-09-04 06:00","2018","09","04","06:00","15.9","","14.9","","94","","8","","10","","24.1","","98.43","","","","","","Rain Showers"
"2018-09-04 07:00","2018","09","04","07:00","16.2","","14.1","","87","","5","","11","","32.2","","98.43","","","","","","Rain Showers"
"2018-09-04 08:00","2018","09","04","08:00","16.9","","13.4","","80","","10","","13","","32.2","","98.42","","","","","","NA"
"2018-09-04 09:00","2018","09","04","09:00","17.5","","14.9","","84","","12","","12","","32.2","","98.41","","","","","","NA"
"2018-09-04 10:00","2018","09","04","10:00","17.7","","16.4","","92","","17","","15","","9.7","","98.46","","","","","","Rain Showers"
"2018-09-04 11:00","2018","09","04","11:00","17.3","","16.7","","96","","18","","13","","4.0","","98.43","","","","","","Rain Showers,Fog"
"2018-09-04 12:00","2018","09","04","12:00","17.7","","16.3","","92","","14","","10","","24.1","","98.34","","","","","","Rain Showers"
"2018-09-04 13:00","2018","09","04","13:00","18.4","","17.4","","94","","14","","16","","32.2","","98.26","","","","","","Cloudy"
"2018-09-04 14:00","2018","09","04","14:00","17.4","","15.0","","85","","18","","26","","32.2","","98.21","","","","","","NA"
"2018-09-04 15:00","2018","09","04","15:00","17.9","","15.3","","85","","15","","22","","32.2","","98.08","","","","","","NA"
"2018-09-04 16:00","2018","09","04","16:00","18.1","","16.0","","87","","16","","21","","32.2","","98.02","","","","","","Cloudy"
"2018-09-04 17:00","2018","09","04","17:00","18.1","","16.5","","90","","16","","14","","32.2","","97.96","","","","","","NA"
"2018-09-04 18:00","2018","09","04","18:00","17.8","","17.0","","95","","16","","13","","16.1","","97.93","","","","","","Rain Showers"
"2018-09-04 19:00","2018","09","04","19:00","18.1","","17.5","","97","","16","","16","","16.1","","97.87","","","","","","Rain Showers"
"2018-09-04 20:00","2018","09","04","20:00","18.4","","17.9","","97","","17","","15","","16.1","","97.86","","","","","","NA"
"2018-09-04 21:00","2018","09","04","21:00","19.4","","19.0","","98","","20","","16","","4.0","","97.86","","","","","","Fog"
"2018-09-04 22:00","2018","09","04","22:00","20.0","","19.7","","98","","20","","16","","0.8","","97.85","","27","","","","Fog"
"2018-09-04 23:00","2018","09","04","23:00","20.3","","20.0","","98","","22","","13","","0.6","","97.83","","28","","","","Fog"
"2018-09-05 00:00","2018","09","05","00:00","20.4","","20.2","","98","","22","","16","","0.6","","97.82","","28","","","","Fog"
"2018-09-05 01:00","2018","09","05","01:00","20.4","","20.1","","99","","24","","13","","0.6","","97.79","","28","","","","Fog"
"2018-09-05 02:00","2018","09","05","02:00","20.3","","20.1","","99","","21","","7","","1.2","","97.76","","28","","","","Fog"
"2018-09-05 03:00","2018","09","05","03:00","20.1","","19.8","","99","","20","","12","","1.2","","97.72","","28","","","","Fog"
"2018-09-05 04:00","2018","09","05","04:00","19.5","","19.2","","99","","17","","11","","0.4","","97.70","","","","","","Fog"
"2018-09-05 05:00","2018","09","05","05:00","19.5","","19.3","","99","","18","","15","","0.4","","97.68","","","","","","Fog"
"2018-09-05 06:00","2018","09","05","06:00","19.3","","19.0","","99","","17","","13","","0.2","","97.65","","","","","","Fog"
"2018-09-05 07:00","2018","09","05","07:00","20.0","","19.8","","99","","17","","20","","0.2","","97.61","","27","","","","Fog"
"2018-09-05 08:00","2018","09","05","08:00","21.2","","21.0","","99","","20","","21","","4.8","","97.55","","30","","","","Fog"
"2018-09-05 09:00","2018","09","05","09:00","23.8","","21.7","","88","","21","","21","","24.1","","97.52","","33","","","","NA"
"2018-09-05 10:00","2018","09","05","10:00","24.8","","21.2","","80","","22","","17","","32.2","","97.48","","33","","","","Cloudy"
"2018-09-05 11:00","2018","09","05","11:00","25.5","","21.4","","78","","21","","22","","32.2","","97.42","","34","","","","NA"
"2018-09-05 12:00","2018","09","05","12:00","26.0","","21.0","","74","","20","","34","","32.2","","97.33","","34","","","","NA"
"2018-09-05 13:00","2018","09","05","13:00","26.5","","21.3","","73","","20","","38","","32.2","","97.20","","35","","","","Mostly Cloudy"
"2018-09-05 14:00","2018","09","05","14:00","27.0","","20.8","","68","","20","","39","","24.1","","97.10","","35","","","","NA"
"2018-09-05 15:00","2018","09","05","15:00","23.2","","21.4","","89","","23","","45","","2.0","","97.16","","32","","","","Rain Showers,Fog"
"2018-09-05 16:00","2018","09","05","16:00","21.2","","20.4","","95","","28","","17","","32.2","","97.22","","29","","","","Rain Showers"
"2018-09-05 17:00","2018","09","05","17:00","19.5","","18.1","","91","","31","","15","","32.2","","97.36","","","","","","Rain Showers"
"2018-09-05 18:00","2018","09","05","18:00","18.7","","17.5","","93","","33","","17","","24.1","","97.48","","","","","","NA"
"2018-09-05 19:00","2018","09","05","19:00","18.3","","17.3","","94","","34","","8","","24.1","","97.59","","","","","","Mostly Cloudy"
"2018-09-05 20:00","2018","09","05","20:00","17.9","","17.0","","94","","31","","8","","24.1","","97.70","","","","","","NA"
"2018-09-05 21:00","2018","09","05","21:00","17.4","","16.7","","96","","30","","6","","24.1","","97.77","","","","","","NA"
"2018-09-05 22:00","2018","09","05","22:00","17.4","","16.6","","95","","32","","8","","24.1","","97.81","","","","","","Mostly Cloudy"
"2018-09-05 23:00","2018","09","05","23:00","17.4","","16.6","","95","","32","","13","","24.1","","97.87","","","","","","NA"
"2018-09-06 00:00","2018","09","06","00:00","17.4","","15.8","","90","","34","","17","","24.1","","97.93","","","","","","NA"
"2018-09-06 01:00","2018","09","06","01:00","15.7","","14.2","","91","","35","","15","","24.1","","98.06","","","","","","Mostly Cloudy"
"2018-09-06 02:00","2018","09","06","02:00","14.3","","12.3","","87","","36","","18","","24.1","","98.12","","","","","","NA"
"2018-09-06 03:00","2018","09","06","03:00"
"2018-09-06 04:00","2018","09","06","04:00","12.9","","12.1","","95","","35","","10","","24.1","","98.17","","","","","","Mostly Cloudy"
"2018-09-06 05:00","2018","09","06","05:00","12.2","","11.6","","96","","1","","7","","24.1","","98.25","","","","","","NA"
"2018-09-06 06:00","2018","09","06","06:00","11.5","","11.0","","96","","35","","5","","24.1","","98.32","","","","","","NA"
"2018-09-06 07:00","2018","09","06","07:00","11.5","","11.0","","97","","36","","9","","32.2","","98.40","","","","","","Mainly Clear"
"2018-09-06 08:00","2018","09","06","08:00","14.2","","12.1","","87","","35","","8","","32.2","","98.44","","","","","","NA"
"2018-09-06 09:00","2018","09","06","09:00","15.8","","10.8","","72","","36","","9","","32.2","","98.48","","","","","","NA"
"2018-09-06 10:00","2018","09","06","10:00","17.2","","8.2","","55","","36","","12","","32.2","","98.51","","","","","","Mainly Clear"
"2018-09-06 11:00","2018","09","06","11:00","18.0","","7.1","","49","","2","","17","","32.2","","98.53","","","","","","NA"
"2018-09-06 12:00","2018","09","06","12:00","18.6","","7.5","","48","","5","","14","","32.2","","98.51","","","","","","NA"
"2018-09-06 13:00","2018","09","06","13:00","19.2","","7.1","","45","","2","","8","","32.2","","98.46","","","","","","Mainly Clear"
"2018-09-06 14:00","2018","09","06","14:00","20.5","","6.9","","41","","33","","11","","32.2","","98.43","","","","","","NA"
"2018-09-06 15:00","2018","09","06","15:00","20.5","","5.4","","37","","27","","13","","32.2","","98.39","","","","","","NA"
"2018-09-06 16:00","2018","09","06","16:00","20.8","","5.0","","35","","33","","18","","32.2","","98.35","","","","","","Mainly Clear"
"2018-09-06 17:00","2018","09","06","17:00","20.2","","6.0","","39","","35","","7","","32.2","","98.32","","","","","","NA"
"2018-09-06 18:00","2018","09","06","18:00","18.8","","8.4","","50","","34","","9","","32.2","","98.33","","","","","","NA"
"2018-09-06 19:00","2018","09","06","19:00","15.9","","7.2","","56","","35","","10","","32.2","","98.34","","","","","","Mainly Clear"
"2018-09-06 20:00","2018","09","06","20:00","14.7","","7.3","","61","","36","","10","","24.1","","98.38","","","","","","NA"
"2018-09-06 21:00","2018","09","06","21:00","12.7","","7.5","","71","","2","","8","","24.1","","98.43","","","","","","NA"
"2018-09-06 22:00","2018","09","06","22:00","12.9","","7.0","","67","","1","","10","","24.1","","98.42","","","","","","Clear"
"2018-09-06 23:00","2018","09","06","23:00","10.9","","7.5","","79","","35","","5","","24.1","","98.43","","","","","","NA"
"2018-09-07 00:00","2018","09","07","00:00","10.2","","7.0","","81","","34","","5","","24.1","","98.42","","","","","","NA"
"2018-09-07 01:00","2018","09","07","01:00","9.3","","7.2","","86","","35","","4","","24.1","","98.40","","","","","","Clear"
"2018-09-07 02:00","2018","09","07","02:00","9.1","","6.2","","82","","1","","5","","24.1","","98.42","","","","","","NA"
"2018-09-07 03:00","2018","09","07","03:00","8.2","","6.7","","90","","32","","9","","24.1","","98.40","","","","","","NA"
"2018-09-07 04:00","2018","09","07","04:00","6.8","","6.4","","97","","32","","8","","24.1","","98.39","","","","","","Clear"
"2018-09-07 05:00","2018","09","07","05:00","6.5","","6.1","","97","","32","","15","","24.1","","98.40","","","","","","NA"
"2018-09-07 06:00","2018","09","07","06:00","5.9","","5.5","","97","","34","","8","","32.2","","98.42","","","","","","NA"
"2018-09-07 07:00","2018","09","07","07:00","9.6","","7.5","","86","","35","","9","","32.2","","98.44","","","","","","Mainly Clear"
"2018-09-07 08:00","2018","09","07","08:00","11.9","","7.8","","76","","33","","7","","32.2","","98.44","","","","","","NA"
"2018-09-07 09:00","2018","09","07","09:00","13.8","","9.2","","73","","31","","7","","32.2","","98.45","","","","","","NA"
"2018-09-07 10:00","2018","09","07","10:00","16.4","","7.1","","54","","30","","7","","32.2","","98.44","","","","","","Mainly Clear"
"2018-09-07 11:00","2018","09","07","11:00","18.5","","5.0","","41","","31","","16","","32.2","","98.42","","","","","","NA"
"2018-09-07 12:00","2018","09","07","12:00","19.1","","3.5","","35","","1","","10","","32.2","","98.39","","","","","","NA"
"2018-09-07 13:00","2018","09","07","13:00","20.1","","4.7","","36","","31","","8","","32.2","","98.36","","","","","","Mainly Clear"
"2018-09-07 14:00","2018","09","07","14:00","20.9","","5.1","","35","","35","","18","","32.2","","98.33","","","","","","NA"
"2018-09-07 15:00","2018","09","07","15:00","21.0","","6.3","","38","","34","","19","","32.2","","98.30","","","","","","NA"
"2018-09-07 16:00","2018","09","07","16:00","20.3","","7.6","","43","","35","","19","","32.2","","98.31","","","","","","Mainly Clear"
"2018-09-07 17:00","2018","09","07","17:00","19.1","","8.1","","48","","36","","23","","32.2","","98.32","","","","","","NA"
"2018-09-07 18:00","2018","09","07","18:00","17.4","","8.1","","54","","36","","16","","32.2","","98.35","","","","","","NA"
"2018-09-07 19:00","2018","09","07","19:00","14.7","","7.4","","61","","36","","18","","32.2","","98.41","","","","","","Mainly Clear"
"2018-09-07 20:00","2018","09","07","20:00","13.7","","5.0","","55","","1","","22","","24.1","","98.49","","","","","","NA"
"2018-09-07 21:00","2018","09","07","21:00","12.0","","4.7","","61","","2","","18","","24.1","","98.54","","","","","","NA"
"2018-09-07 22:00","2018","09","07","22:00","11.7","","2.2","","52","","2","","26","","24.1","","98.61","","","","","","Clear"
"2018-09-07 23:00","2018","09","07","23:00","10.4","","2.5","","58","","3","","19","","24.1","","98.63","","","","","","NA"
"2018-09-08 00:00","2018","09","08","00:00","9.3","","1.3","","57","","4","","17","","24.1","","98.69","","","","","","NA"
"2018-09-08 01:00","2018","09","08","01:00","9.1","","0.8","","56","","3","","23","","24.1","","98.71","","","","","","Clear"
"2018-09-08 02:00","2018","09","08","02:00","8.1","","1.5","","63","","4","","22","","24.1","","98.72","","","","","","NA"
"2018-09-08 03:00","2018","09","08","03:00","7.2","","2.2","","70","","4","","16","","24.1","","98.74","","","","","","NA"
"2018-09-08 04:00","2018","09","08","04:00","6.5","","2.6","","76","","4","","12","","24.1","","98.74","","","","","","Clear"
"2018-09-08 05:00","2018","09","08","05:00","5.8","","2.7","","80","","4","","11","","24.1","","98.75","","","","","","NA"
"2018-09-08 06:00","2018","09","08","06:00","5.6","","3.1","","84","","4","","9","","32.2","","98.81","","","","","","NA"
"2018-09-08 07:00","2018","09","08","07:00","7.5","","3.7","","77","","4","","21","","32.2","","98.83","","","","","","Clear"
"2018-09-08 08:00","2018","09","08","08:00","8.6","","3.8","","71","","5","","25","","32.2","","98.84","","","","","","NA"
"2018-09-08 09:00","2018","09","08","09:00","9.8","","3.3","","64","","4","","26","","32.2","","98.83","","","","","","NA"
"2018-09-08 10:00","2018","09","08","10:00","11.4","","3.6","","59","","4","","24","","32.2","","98.83","","","","","","Mainly Clear"
"2018-09-08 11:00","2018","09","08","11:00","12.4","","2.5","","51","","5","","25","","32.2","","98.81","","","","","","NA"
"2018-09-08 12:00","2018","09","08","12:00","13.1","","2.5","","49","","4","","20","","32.2","","98.76","","","","","","NA"
"2018-09-08 13:00","2018","09","08","13:00","13.7","","1.7","","44","","3","","25","","32.2","","98.71","","","","","","Clear"
"2018-09-08 14:00","2018","09","08","14:00","14.5","","1.6","","41","","3","","20","","32.2","","98.64","","","","","","NA"
"2018-09-08 15:00","2018","09","08","15:00","14.7","","1.6","","41","","3","","19","","32.2","","98.63","","","","","","NA"
"2018-09-08 16:00","2018","09","08","16:00","15.0","","1.6","","40","","5","","15","","32.2","","98.61","","","","","","Mainly Clear"
"2018-09-08 17:00","2018","09","08","17:00","14.6","","1.2","","40","","3","","17","","32.2","","98.58","","","","","","NA"
"2018-09-08 18:00","2018","09","08","18:00","13.5","","2.7","","48","","6","","14","","32.2","","98.58","","","","","","NA"
"2018-09-08 19:00","2018","09","08","19:00","11.1","","3.7","","60","","8","","10","","32.2","","98.58","","","","","","Clear"
"2018-09-08 20:00","2018","09","08","20:00","9.9","","3.6","","65","","8","","11","","24.1","","98.60","","","","","","NA"
"2018-09-08 21:00","2018","09","08","21:00","9.3","","3.7","","68","","7","","14","","24.1","","98.62","","","","","","NA"
"2018-09-08 22:00","2018","09","08","22:00","8.9","","3.5","","69","","7","","13","","24.1","","98.65","","","","","","Clear"
"2018-09-08 23:00","2018","09","08","23:00","8.3","","3.2","","70","","7","","14","","24.1","","98.63","","","","","","NA"
"2018-09-09 00:00","2018","09","09","00:00","7.8","","3.9","","76","","7","","14","","24.1","","98.65","","","","","","NA"
"2018-09-09 01:00","2018","09","09","01:00","7.5","","3.6","","76","","7","","16","","24.1","","98.66","","","","","","Clear"
"2018-09-09 02:00","2018","09","09","02:00","6.9","","3.6","","80","","7","","13","","24.1","","98.65","","","","","","NA"
"2018-09-09 03:00","2018","09","09","03:00","6.4","","3.4","","81","","8","","11","","24.1","","98.62","","","","","","NA"
"2018-09-09 04:00","2018","09","09","04:00","6.1","","3.2","","82","","8","","14","","24.1","","98.58","","","","","","Clear"
"2018-09-09 05:00","2018","09","09","05:00","5.5","","2.9","","83","","7","","14","","24.1","","98.55","","","","","","NA"
"2018-09-09 06:00","2018","09","09","06:00","4.5","","3.0","","90","","6","","13","","32.2","","98.59","","","","","","NA"
"2018-09-09 07:00","2018","09","09","07:00","7.0","","4.0","","81","","7","","14","","32.2","","98.63","","","","","","Mainly Clear"
"2018-09-09 08:00","2018","09","09","08:00","9.6","","3.8","","67","","10","","13","","32.2","","98.67","","","","","","NA"
"2018-09-09 09:00","2018","09","09","09:00","11.5","","4.7","","63","","13","","13","","32.2","","98.66","","","","","","NA"
"2018-09-09 10:00","2018","09","09","10:00","12.8","","3.5","","53","","13","","19","","32.2","","98.64","","","","","","Mainly Clear"
"2018-09-09 11:00","2018","09","09","11:00","14.4","","3.6","","48","","11","","15","","32.2","","98.63","","","","","","NA"
"2018-09-09 12:00","2018","09","09","12:00","15.5","","3.4","","44","","11","","17","","32.2","","98.57","","","","","","NA"
"2018-09-09 13:00","2018","09","09","13:00","16.2","","3.4","","42","","9","","17","","32.2","","98.51","","","","","","Mainly Clear"
"2018-09-09 14:00","2018","09","09","14:00","16.9","","3.8","","41","","11","","7","","32.2","","98.44","","","","","","NA"
"2018-09-09 15:00","2018","09","09","15:00","16.9","","3.4","","40","","9","","9","","32.2","","98.36","","","","","","NA"
"2018-09-09 16:00","2018","09","09","16:00","16.9","","2.7","","38","","8","","14","","32.2","","98.31","","","","","","Mainly Clear"
"2018-09-09 17:00","2018","09","09","17:00","16.6","","2.4","","38","","12","","12","","32.2","","98.28","","","","","","NA"
"2018-09-09 18:00","2018","09","09","18:00","15.4","","5.2","","50","","14","","10","","32.2","","98.27","","","","","","NA"
"2018-09-09 19:00","2018","09","09","19:00","12.6","","5.6","","62","","14","","9","","32.2","","98.27","","","","","","Mainly Clear"
"2018-09-09 20:00","2018","09","09","20:00","12.2","","4.8","","60","","12","","9","","24.1","","98.30","","","","","","NA"
"2018-09-09 21:00","2018","09","09","21:00","10.9","","4.8","","66","","11","","10","","24.1","","98.29","","","","","","NA"
"2018-09-09 22:00","2018","09","09","22:00","10.5","","4.7","","67","","11","","14","","24.1","","98.28","","","","","","Clear"
"2018-09-09 23:00","2018","09","09","23:00","8.6","","4.8","","77","","13","","11","","24.1","","98.28","","","","","","NA"
"2018-09-10 00:00","2018","09","10","00:00","8.2","","4.7","","78","","13","","12","","24.1","","98.27","","","","","","NA"
"2018-09-10 01:00","2018","09","10","01:00","7.8","","4.8","","81","","13","","14","","24.1","","98.23","","","","","","Clear"
"2018-09-10 02:00","2018","09","10","02:00","7.0","","4.5","","84","","13","","12","","24.1","","98.20","","","","","","NA"
"2018-09-10 03:00","2018","09","10","03:00","7.0","","4.3","","83","","11","","13","","24.1","","98.10","","","","","","NA"
"2018-09-10 04:00","2018","09","10","04:00","6.5","","3.9","","83","","13","","11","","24.1","","98.14","","","","","","Clear"
"2018-09-10 05:00","2018","09","10","05:00","6.4","","4.1","","85","","11","","11","","24.1","","98.10","","","","","","NA"
"2018-09-10 06:00","2018","09","10","06:00","6.8","","4.6","","86","","10","","14","","32.2","","98.08","","","","","","NA"
"2018-09-10 07:00","2018","09","10","07:00","7.1","","5.2","","88","","11","","13","","32.2","","98.09","","","","","","Mostly Cloudy"
"2018-09-10 08:00","2018","09","10","08:00","8.4","","5.8","","84","","10","","18","","32.2","","98.08","","","","","","NA"
"2018-09-10 09:00","2018","09","10","09:00","8.9","","6.2","","83","","9","","14","","32.2","","98.06","","","","","","NA"
"2018-09-10 10:00","2018","09","10","10:00","9.7","","6.4","","80","","8","","17","","32.2","","98.05","","","","","","Mostly Cloudy"
"2018-09-10 11:00","2018","09","10","11:00","11.2","","7.1","","76","","9","","16","","32.2","","98.04","","","","","","NA"
"2018-09-10 12:00","2018","09","10","12:00","12.9","","7.9","","71","","11","","16","","32.2","","97.97","","","","","","NA"
"2018-09-10 13:00","2018","09","10","13:00","13.8","","8.0","","68","","11","","18","","32.2","","97.87","","","","","","Mostly Cloudy"
"2018-09-10 14:00","2018","09","10","14:00","14.4","","8.2","","66","","11","","19","","32.2","","97.84","","","","","","NA"
"2018-09-10 15:00","2018","09","10","15:00","14.0","","7.3","","64","","11","","22","","32.2","","97.81","","","","","","NA"
"2018-09-10 16:00","2018","09","10","16:00","14.1","","8.6","","69","","12","","13","","32.2","","97.75","","","","","","Mostly Cloudy"
"2018-09-10 17:00","2018","09","10","17:00","13.5","","8.3","","70","","10","","14","","32.2","","97.73","","","","","","NA"
"2018-09-10 18:00","2018","09","10","18:00","12.2","","8.9","","80","","14","","25","","32.2","","97.71","","","","","","NA"
"2018-09-10 19:00","2018","09","10","19:00","10.5","","9.8","","96","","13","","14","","4.0","","97.74","","","","","","Drizzle,Fog"
"2018-09-10 20:00","2018","09","10","20:00","9.9","","9.4","","97","","10","","13","","4.0","","97.78","","","","","","Drizzle,Fog"
"2018-09-10 21:00","2018","09","10","21:00","9.5","","9.0","","97","","10","","11","","9.7","","97.78","","","","","","Drizzle,Fog"
"2018-09-10 22:00","2018","09","10","22:00","9.6","","9.1","","97","","10","","8","","12.9","","97.76","","","","","","Cloudy"
"2018-09-10 23:00","2018","09","10","23:00","9.7","","9.1","","96","","7","","4","","16.1","","97.74","","","","","","NA"
"2018-09-11 00:00","2018","09","11","00:00","9.8","","9.1","","95","","36","","2","","24.1","","97.72","","","","","","NA"
"2018-09-11 01:00","2018","09","11","01:00","9.7","","9.2","","97","","33","","5","","24.1","","97.74","","","","","","Cloudy"
"2018-09-11 02:00","2018","09","11","02:00","9.9","","9.2","","95","","6","","4","","24.1","","97.72","","","","","","NA"
"2018-09-11 03:00","2018","09","11","03:00","9.9","","9.2","","96","","31","","5","","24.1","","97.75","","","","","","NA"
"2018-09-11 04:00","2018","09","11","04:00","9.8","","9.4","","98","","27","","4","","24.1","","97.79","","","","","","Cloudy"
"2018-09-11 05:00","2018","09","11","05:00","10.0","","9.6","","98","","26","","4","","24.1","","97.84","","","","","","NA"
"2018-09-11 06:00","2018","09","11","06:00","10.2","","9.5","","95","","26","","4","","32.2","","97.86","","","","","","NA"
"2018-09-11 07:00","2018","09","11","07:00","10.7","","9.6","","93","","20","","3","","32.2","","97.90","","","","","","Mostly Cloudy"
"2018-09-11 08:00","2018","09","11","08:00","11.6","","9.9","","89","","18","","8","","32.2","","97.93","","","","","","NA"
"2018-09-11 09:00","2018","09","11","09:00","12.4","","10.3","","87","","24","","7","","32.2","","97.98","","","","","","NA"
"2018-09-11 10:00","2018","09","11","10:00","12.8","","10.4","","85","","19","","13","","32.2","","98.00","","","","","","Cloudy"
"2018-09-11 11:00","2018","09","11","11:00","14.0","","10.5","","79","","23","","12","","32.2","","98.02","","","","","","NA"
"2018-09-11 12:00","2018","09","11","12:00","14.8","","10.7","","76","","20","","12","","32.2","","98.04","","","","","","NA"
"2018-09-11 13:00","2018","09","11","13:00","16.0","","11.2","","73","","22","","18","","32.2","","98.03","","","","","","Mostly Cloudy"
"2018-09-11 14:00","2018","09","11","14:00","17.1","","11.3","","69","","18","","21","","32.2","","98.01","","","","","","NA"
"2018-09-11 15:00","2018","09","11","15:00","19.0","","11.5","","62","","22","","10","","32.2","","98.01","","","","","","NA"
"2018-09-11 16:00","2018","09","11","16:00","18.9","","10.9","","59","","20","","17","","32.2","","97.99","","","","","","Clear"
"2018-09-11 17:00","2018","09","11","17:00","18.6","","10.8","","60","","21","","15","","32.2","","97.99","","","","","","NA"
"2018-09-11 18:00","2018","09","11","18:00","17.5","","11.7","","69","","21","","10","","32.2","","98.00","","","","","","NA"
"2018-09-11 19:00","2018","09","11","19:00","15.0","","11.3","","78","","20","","15","","24.1","","98.03","","","","","","Clear"
"2018-09-11 20:00","2018","09","11","20:00","14.0","","11.6","","85","","19","","13","","24.1","","98.06","","","","","","NA"
"2018-09-11 21:00","2018","09","11","21:00","13.3","","12.0","","92","","20","","14","","24.1","","98.03","","","","","","NA"
"2018-09-11 22:00","2018","09","11","22:00","12.6","","11.9","","95","","22","","14","","24.1","","98.02","","","","","","Clear"
"2018-09-11 23:00","2018","09","11","23:00","12.1","","11.7","","97","","20","","14","","24.1","","98.06","","","","","","NA"
"2018-09-12 00:00","2018","09","12","00:00","12.1","","11.7","","98","","22","","10","","8.1","","98.12","","","","","","Fog"
"2018-09-12 01:00","2018","09","12","01:00","12.4","","12.1","","98","","23","","8","","2.4","","98.16","","","","","","Fog"
"2018-09-12 02:00","2018","09","12","02:00","13.2","","13.0","","98","","21","","14","","1.6","","98.19","","","","","","Fog"
"2018-09-12 03:00","2018","09","12","03:00","13.1","","12.8","","98","","22","","8","","4.8","","98.21","","","","","","Fog"
"2018-09-12 04:00","2018","09","12","04:00","13.2","","12.9","","98","","21","","11","","16.1","","98.18","","","","","","Cloudy"
"2018-09-12 05:00","2018","09","12","05:00","13.1","","12.7","","98","","20","","8","","24.1","","98.18","","","","","","NA"
"2018-09-12 06:00","2018","09","12","06:00","13.2","","12.9","","98","","18","","13","","0.4","","98.21","","","","","","Fog"
"2018-09-12 07:00","2018","09","12","07:00","13.3","","13.1","","98","","17","","9","","0.8","","98.26","","","","","","Fog"
"2018-09-12 08:00","2018","09","12","08:00","13.5","","13.3","","98","","21","","15","","0.4","","98.27","","","","","","Fog"
"2018-09-12 09:00","2018","09","12","09:00","14.7","","14.4","","98","","20","","13","","2.4","","98.29","","","","","","Fog"
"2018-09-12 10:00","2018","09","12","10:00","16.2","","14.7","","90","","19","","13","","24.1","","98.30","","","","","","Cloudy"
"2018-09-12 11:00","2018","09","12","11:00","18.4","","15.5","","83","","19","","8","","32.2","","98.31","","","","","","NA"
"2018-09-12 12:00","2018","09","12","12:00","19.8","","16.1","","79","","25","","8","","32.2","","98.31","","","","","","NA"
"2018-09-12 13:00","2018","09","12","13:00","23.2","","15.0","","59","","19","","19","","32.2","","98.24","","27","","","","Mostly Cloudy"
"2018-09-12 14:00","2018","09","12","14:00","23.6","","15.2","","59","","20","","22","","32.2","","98.19","","28","","","","NA"
"2018-09-12 15:00","2018","09","12","15:00","23.5","","15.7","","61","","19","","23","","32.2","","98.19","","28","","","","NA"
"2018-09-12 16:00","2018","09","12","16:00","23.3","","14.4","","57","","22","","22","","32.2","","98.21","","27","","","","Mainly Clear"
"2018-09-12 17:00","2018","09","12","17:00","22.1","","15.2","","64","","23","","21","","32.2","","98.25","","26","","","","NA"
"2018-09-12 18:00","2018","09","12","18:00","20.2","","15.2","","72","","20","","20","","32.2","","98.23","","","","","","NA"
"2018-09-12 19:00","2018","09","12","19:00","17.6","","14.9","","84","","20","","14","","32.2","","98.25","","","","","","Mainly Clear"
"2018-09-12 20:00","2018","09","12","20:00","16.5","","15.0","","91","","20","","17","","24.1","","98.30","","","","","","NA"
"2018-09-12 21:00","2018","09","12","21:00","15.3","","14.6","","95","","20","","13","","24.1","","98.30","","","","","","NA"
"2018-09-12 22:00","2018","09","12","22:00","14.4","","14.0","","97","","20","","13","","24.1","","98.34","","","","","","Clear"
"2018-09-12 23:00","2018","09","12","23:00","14.5","","14.2","","98","","22","","8","","24.1","","98.37","","","","","","NA"
"2018-09-13 00:00","2018","09","13","00:00","13.7","","13.4","","98","","24","","9","","0.8","","98.39","","","","","","Fog"
"2018-09-13 01:00","2018","09","13","01:00","12.6","","12.4","","98","","26","","8","","0.4","","98.39","","","","","","Fog"
"2018-09-13 02:00","2018","09","13","02:00","12.5","","12.3","","98","","25","","5","","1.2","","98.41","","","","","","Fog"
"2018-09-13 03:00","2018","09","13","03:00","11.5","","11.2","","98","","29","","7","","0.8","","98.42","","","","","","Fog"
"2018-09-13 04:00","2018","09","13","04:00","11.3","","11.1","","98","","8","","5","","0.6","","98.47","","","","","","Fog"
"2018-09-13 05:00","2018","09","13","05:00","12.0","","11.8","","98","","20","","8","","24.1","","98.44","","","","","","NA"
"2018-09-13 06:00","2018","09","13","06:00","12.5","","12.2","","98","","22","","9","","24.1","","98.47","","","","","","NA"
"2018-09-13 07:00","2018","09","13","07:00","12.6","","12.4","","98","","21","","5","","0.8","","98.49","","","","","","Clear"
"2018-09-13 08:00","2018","09","13","08:00","12.4","","12.2","","98","","11","","6","","0.4","","98.50","","","","","","Fog"
"2018-09-13 09:00","2018","09","13","09:00","14.7","","14.4","","98","","16","","5","","2.4","","98.54","","","","","","Fog"
"2018-09-13 10:00","2018","09","13","10:00","17.8","","15.1","","84","","18","","8","","32.2","","98.57","","","","","","Mainly Clear"
"2018-09-13 11:00","2018","09","13","11:00","20.9","","15.7","","71","","17","","9","","32.2","","98.53","","25","","","","NA"
"2018-09-13 12:00","2018","09","13","12:00","22.9","","15.4","","62","","23","","13","","32.2","","98.48","","27","","","","NA"
"2018-09-13 13:00","2018","09","13","13:00","23.8","","15.8","","60","","20","","14","","32.2","","98.45","","28","","","","Mainly Clear"
"2018-09-13 14:00","2018","09","13","14:00","24.4","","15.4","","57","","19","","14","","32.2","","98.38","","29","","","","NA"
"2018-09-13 15:00","2018","09","13","15:00","25.4","","14.6","","51","","20","","16","","32.2","","98.30","","29","","","","NA"
"2018-09-13 16:00","2018","09","13","16:00","25.4","","15.4","","53","","17","","11","","32.2","","98.24","","30","","","","Mainly Clear"
"2018-09-13 17:00","2018","09","13","17:00","24.6","","15.2","","55","","20","","7","","32.2","","98.24","","29","","","","NA"
"2018-09-13 18:00","2018","09","13","18:00","22.8","","15.6","","64","","21","","6","","32.2","","98.20","","27","","","","NA"
"2018-09-13 19:00","2018","09","13","19:00","19.8","","15.5","","76","","22","","7","","32.2","","98.18","","","","","","Clear"
"2018-09-13 20:00","2018","09","13","20:00","19.0","","15.3","","79","","22","","4","","24.1","","98.21","","","","","","NA"
"2018-09-13 21:00","2018","09","13","21:00","18.2","","15.2","","82","","22","","4","","24.1","","98.21","","","","","","NA"
"2018-09-13 22:00","2018","09","13","22:00","17.4","","14.8","","84","","17","","7","","24.1","","98.19","","","","","","Clear"
"2018-09-13 23:00","2018","09","13","23:00","17.1","","14.8","","86","","18","","9","","24.1","","98.20","","","","","","NA"
"2018-09-14 00:00","2018","09","14","00:00","16.9","","14.9","","87","","25","","3","","24.1","","98.19","","","","","","NA"
"2018-09-14 01:00","2018","09","14","01:00","16.9","","15.1","","89","","36","","1","","24.1","","98.18","","","","","","Mainly Clear"
"2018-09-14 02:00","2018","09","14","02:00","17.3","","14.9","","86","","17","","4","","24.1","","98.15","","","","","","NA"
"2018-09-14 03:00","2018","09","14","03:00","15.7","","14.5","","93","","36","","2","","24.1","","98.17","","","","","","NA"
"2018-09-14 04:00","2018","09","14","04:00","16.1","","15.1","","94","","8","","9","","24.1","","98.15","","","","","","Mainly Clear"
"2018-09-14 05:00","2018","09","14","05:00","15.8","","15.2","","96","","11","","10","","24.1","","98.13","","","","","","NA"
"2018-09-14 06:00","2018","09","14","06:00","16.0","","15.5","","97","","14","","10","","32.2","","98.14","","","","","","NA"
"2018-09-14 07:00","2018","09","14","07:00","17.1","","16.2","","94","","15","","9","","32.2","","98.14","","","","","","Mainly Clear"
"2018-09-14 08:00","2018","09","14","08:00","18.1","","16.5","","90","","15","","9","","32.2","","98.12","","","","","","NA"
"2018-09-14 09:00","2018","09","14","09:00","18.9","","16.9","","88","","14","","14","","32.2","","98.10","","","","","","NA"
"2018-09-14 10:00","2018","09","14","10:00","22.3","","17.3","","73","","16","","13","","32.2","","98.09","","28","","","","Mostly Cloudy"
"2018-09-14 11:00","2018","09","14","11:00","23.8","","17.5","","67","","19","","9","","32.2","","98.07","","29","","","","NA"
"2018-09-14 12:00","2018","09","14","12:00","24.5","","18.0","","66","","20","","14","","32.2","","98.04","","31","","","","NA"
"2018-09-14 13:00","2018","09","14","13:00","25.2","","18.3","","65","","20","","7","","32.2","","97.99","","31","","","","Mostly Cloudy"
"2018-09-14 14:00","2018","09","14","14:00","26.1","","17.4","","58","","22","","16","","32.2","","97.96","","32","","","","NA"
"2018-09-14 15:00","2018","09","14","15:00","26.1","","17.3","","58","","22","","15","","32.2","","97.92","","32","","","","NA"
"2018-09-14 16:00","2018","09","14","16:00","25.2","","17.2","","61","","25","","12","","32.2","","97.91","","31","","","","Mainly Clear"
"2018-09-14 17:00","2018","09","14","17:00","25.8","","17.2","","59","","23","","13","","32.2","","97.92","","31","","","","NA"
"2018-09-14 18:00","2018","09","14","18:00","23.3","","17.5","","70","","25","","8","","32.2","","97.93","","29","","","","NA"
"2018-09-14 19:00","2018","09","14","19:00","21.0","","17.0","","77","","24","","7","","32.2","","97.96","","26","","","","Mainly Clear"
"2018-09-14 20:00","2018","09","14","20:00","20.0","","16.6","","80","","22","","5","","24.1","","97.97","","25","","","","NA"
"2018-09-14 21:00","2018","09","14","21:00","18.9","","16.6","","86","","24","","8","","24.1","","98.01","","","","","","NA"
"2018-09-14 22:00","2018","09","14","22:00","18.2","","16.2","","88","","25","","7","","24.1","","98.03","","","","","","Clear"
"2018-09-14 23:00","2018","09","14","23:00","16.9","","15.9","","94","","23","","7","","24.1","","98.05","","","","","","NA"
"2018-09-15 00:00","2018","09","15","00:00","16.9","","15.1","","89","","29","","8","","24.1","","98.06","","","","","","NA"
"2018-09-15 01:00","2018","09","15","01:00","16.9","","15.4","","91","","28","","8","","24.1","","98.04","","","","","","Clear"
"2018-09-15 02:00","2018","09","15","02:00","15.1","","14.6","","97","","31","","9","","24.1","","98.04","","","","","","NA"
"2018-09-15 03:00","2018","09","15","03:00","15.0","","14.7","","98","","28","","5","","24.1","","98.05","","","","","","NA"
"2018-09-15 04:00","2018","09","15","04:00","14.6","","14.4","","98","","31","","9","","24.1","","98.03","","","","","","Clear"
"2018-09-15 05:00","2018","09","15","05:00","13.6","","13.4","","98","","31","","7","","24.1","","98.08","","","","","","NA"
"2018-09-15 06:00","2018","09","15","06:00","14.2","","13.9","","98","","30","","6","","24.1","","98.12","","","","","","NA"
"2018-09-15 07:00","2018","09","15","07:00","14.7","","14.4","","98","","30","","5","","32.2","","98.18","","","","","","Clear"
"2018-09-15 08:00","2018","09","15","08:00","15.9","","15.5","","97","","30","","8","","32.2","","98.18","","","","","","NA"
"2018-09-15 09:00","2018","09","15","09:00","20.4","","17.5","","83","","14","","5","","32.2","","98.17","","26","","","","NA"
"2018-09-15 10:00","2018","09","15","10:00","23.0","","16.8","","68","","21","","9","","32.2","","98.20","","28","","","","Clear"
"2018-09-15 11:00","2018","09","15","11:00","24.0","","16.2","","61","","22","","11","","32.2","","98.19","","29","","","","NA"
"2018-09-15 12:00","2018","09","15","12:00","25.4","","16.1","","56","","21","","11","","32.2","","98.20","","30","","","","NA"
"2018-09-15 13:00","2018","09","15","13:00","26.6","","16.2","","52","","22","","11","","32.2","","98.16","","31","","","","Mainly Clear"
"2018-09-15 14:00","2018","09","15","14:00","26.5","","16.8","","55","","11","","3","","32.2","","98.13","","32","","","","NA"
"2018-09-15 15:00","2018","09","15","15:00","27.1","","16.6","","52","","29","","9","","32.2","","98.07","","32","","","","NA"
"2018-09-15 16:00","2018","09","15","16:00","26.5","","16.6","","54","","26","","3","","32.2","","98.05","","32","","","","Mainly Clear"
"2018-09-15 17:00","2018","09","15","17:00","26.5","","17.0","","55","","4","","4","","32.2","","98.06","","32","","","","NA"
"2018-09-15 18:00","2018","09","15","18:00","24.6","","17.4","","64","","15","","7","","32.2","","98.06","","30","","","","NA"
"2018-09-15 19:00","2018","09","15","19:00","23.1","","17.7","","71","","17","","8","","32.2","","98.07","","29","","","","Mainly Clear"
"2018-09-15 20:00","2018","09","15","20:00","20.3","","17.8","","85","","21","","9","","24.1","","98.12","","26","","","","NA"
"2018-09-15 21:00","2018","09","15","21:00","19.9","","18.0","","89","","26","","7","","24.1","","98.14","","","","","","NA"
"2018-09-15 22:00","2018","09","15","22:00","19.7","","18.0","","90","","23","","8","","24.1","","98.16","","","","","","Clear"
"2018-09-15 23:00","2018","09","15","23:00","19.0","","17.6","","91","","25","","10","","24.1","","98.15","","","","","","NA"
"2018-09-16 00:00","2018","09","16","00:00","18.3","","17.4","","95","","3","","12","","24.1","","98.17","","","","","","NA"
"2018-09-16 01:00","2018","09","16","01:00","18.6","","18.3","","98","","5","","15","","1.2","","98.17","","","","","","Fog"
"2018-09-16 02:00","2018","09","16","02:00","18.7","","18.3","","98","","6","","16","","4.8","","98.18","","","","","","Fog"
"2018-09-16 03:00","2018","09","16","03:00","18.6","","18.1","","97","","9","","14","","4.8","","98.19","","","","","","Fog"
"2018-09-16 04:00","2018","09","16","04:00","18.4","","17.9","","97","","7","","14","","4.8","","98.22","","","","","","Fog"
"2018-09-16 05:00","2018","09","16","05:00","18.1","","17.7","","98","","8","","12","","1.2","","98.23","","","","","","Fog"
"2018-09-16 06:00","2018","09","16","06:00","17.9","","17.6","","98","","11","","10","","0.4","","98.24","","","","","","Fog"
"2018-09-16 07:00","2018","09","16","07:00","17.8","","17.5","","98","","8","","9","","0.4","","98.28","","","","","","Fog"
"2018-09-16 08:00","2018","09","16","08:00","18.0","","17.7","","98","","9","","7","","3.2","","98.30","","","","","","Fog"
"2018-09-16 09:00","2018","09","16","09:00","18.8","","17.2","","90","","36","","1","","11.3","","98.30","","","","","","NA"
"2018-09-16 10:00","2018","09","16","10:00","20.9","","17.5","","81","","17","","14","","16.1","","98.28","","27","","","","Mostly Cloudy"
"2018-09-16 11:00","2018","09","16","11:00","22.9","","18.0","","73","","15","","16","","32.2","","98.21","","29","","","","NA"
"2018-09-16 12:00","2018","09","16","12:00","24.1","","18.5","","70","","18","","13","","32.2","","98.14","","30","","","","NA"
"2018-09-16 13:00","2018","09","16","13:00","24.0","","18.0","","69","","19","","10","","32.2","","98.09","","30","","","","Mainly Clear"
"2018-09-16 14:00","2018","09","16","14:00","25.1","","18.2","","65","","16","","19","","32.2","","98.01","","31","","","","NA"
"2018-09-16 15:00","2018","09","16","15:00","26.1","","17.1","","57","","17","","16","","32.2","","97.94","","31","","","","NA"
"2018-09-16 16:00","2018","09","16","16:00","26.0","","14.9","","50","","19","","20","","32.2","","97.83","","30","","","","Mainly Clear"
"2018-09-16 17:00","2018","09","16","17:00","24.7","","15.2","","55","","20","","22","","32.2","","97.82","","29","","","","NA"
"2018-09-16 18:00","2018","09","16","18:00","22.8","","16.0","","65","","21","","18","","32.2","","97.80","","27","","","","NA"
"2018-09-16 19:00","2018","09","16","19:00","20.5","","16.1","","76","","20","","18","","32.2","","97.79","","25","","","","Clear"
"2018-09-16 20:00","2018","09","16","20:00","18.6","","16.0","","85","","20","","13","","24.1","","97.80","","","","","","NA"
"2018-09-16 21:00","2018","09","16","21:00","18.9","","16.9","","88","","20","","16","","24.1","","97.77","","","","","","NA"
"2018-09-16 22:00","2018","09","16","22:00","18.1","","16.9","","93","","20","","13","","24.1","","97.72","","","","","","Clear"
"2018-09-16 23:00","2018","09","16","23:00","17.4","","16.4","","94","","20","","13","","24.1","","97.65","","","","","","NA"
"2018-09-17 00:00","2018","09","17","00:00","17.2","","16.0","","93","","20","","13","","24.1","","97.58","","","","","","NA"
"2018-09-17 01:00","2018","09","17","01:00","16.4","","15.6","","95","","23","","8","","24.1","","97.54","","","","","","Clear"
"2018-09-17 02:00","2018","09","17","02:00","16.3","","15.6","","95","","21","","9","","24.1","","97.49","","","","","","NA"
"2018-09-17 03:00","2018","09","17","03:00","16.2","","15.6","","96","","22","","7","","24.1","","97.47","","","","","","NA"
"2018-09-17 04:00","2018","09","17","04:00","16.8","","16.2","","96","","20","","12","","24.1","","97.42","","","","","","Mainly Clear"
"2018-09-17 05:00","2018","09","17","05:00","15.3","","15.0","","98","","25","","5","","8.1","","97.40","","","","","","Fog"
"2018-09-17 06:00","2018","09","17","06:00","16.0","","15.7","","98","","21","","9","","16.1","","97.36","","","","","","NA"
"2018-09-17 07:00","2018","09","17","07:00","17.2","","17.0","","98","","20","","8","","12.9","","97.35","","","","","","Mainly Clear"
"2018-09-17 08:00","2018","09","17","08:00","19.9","","18.4","","91","","20","","19","","24.1","","97.28","","","","","","NA"
"2018-09-17 09:00","2018","09","17","09:00","22.5","","19.1","","80","","21","","20","","32.2","","97.22","","29","","","","NA"
"2018-09-17 10:00","2018","09","17","10:00","24.9","","19.1","","70","","22","","19","","32.2","","97.19","","32","","","","Mainly Clear"
"2018-09-17 11:00","2018","09","17","11:00","26.3","","19.1","","64","","22","","26","","32.2","","97.12","","33","","","","NA"
"2018-09-17 12:00","2018","09","17","12:00","27.3","","18.8","","59","","22","","23","","32.2","","97.07","","34","","","","NA"
"2018-09-17 13:00","2018","09","17","13:00","27.8","","18.2","","55","","20","","34","","32.2","","97.01","","34","","","","Mostly Cloudy"
"2018-09-17 14:00","2018","09","17","14:00","28.1","","18.4","","55","","21","","32","","32.2","","96.95","","34","","","","NA"
"2018-09-17 15:00","2018","09","17","15:00","27.8","","18.6","","57","","23","","26","","32.2","","96.92","","34","","","","NA"
"2018-09-17 16:00","2018","09","17","16:00","27.7","","18.3","","56","","22","","24","","32.2","","96.86","","34","","","","Mainly Clear"
"2018-09-17 17:00","2018","09","17","17:00","26.3","","18.2","","60","","23","","28","","32.2","","96.81","","32","","","","NA"
"2018-09-17 18:00","2018","09","17","18:00","24.1","","18.4","","70","","21","","22","","32.2","","96.81","","30","","","","NA"
"2018-09-17 19:00","2018","09","17","19:00","22.5","","18.3","","77","","21","","22","","24.1","","96.80","","29","","","","Mainly Clear"
"2018-09-17 20:00","2018","09","17","20:00","20.9","","18.1","","84","","21","","16","","24.1","","96.85","","27","","","","NA"
"2018-09-17 21:00","2018","09","17","21:00","21.1","","18.0","","82","","23","","17","","24.1","","96.89","","27","","","","NA"
"2018-09-17 22:00","2018","09","17","22:00","19.1","","17.2","","89","","1","","21","","24.1","","96.98","","","","","","Mostly Cloudy"
"2018-09-17 23:00","2018","09","17","23:00","17.2","","15.2","","88","","36","","18","","24.1","","97.07","","","","","","NA"
"2018-09-18 00:00","2018","09","18","00:00","13.4","","12.0","","91","","35","","24","","24.1","","97.15","","","","","","Drizzle"
"2018-09-18 01:00","2018","09","18","01:00","11.4","","9.0","","85","","36","","20","","24.1","","97.18","","","","","","Cloudy"
"2018-09-18 02:00","2018","09","18","02:00","10.1","","8.1","","87","","36","","20","","24.1","","97.17","","","","","","NA"
"2018-09-18 03:00","2018","09","18","03:00","9.9","","7.5","","85","","1","","20","","24.1","","97.20","","","","","","NA"
"2018-09-18 04:00","2018","09","18","04:00","9.2","","7.4","","88","","2","","25","","9.7","","97.18","","","","","","Fog"
"2018-09-18 05:00","2018","09","18","05:00","8.2","","7.6","","96","","1","","19","","4.8","","97.26","","","","","","Drizzle,Fog"
"2018-09-18 06:00","2018","09","18","06:00","8.4","","7.0","","91","","36","","19","","32.2","","97.35","","","","","","NA"
"2018-09-18 07:00","2018","09","18","07:00","8.2","","6.3","","87","","1","","18","","32.2","","97.37","","","","","","Mostly Cloudy"
"2018-09-18 08:00","2018","09","18","08:00","8.7","","6.2","","85","","3","","19","","32.2","","97.38","","","","","","NA"
"2018-09-18 09:00","2018","09","18","09:00","9.7","","6.2","","79","","1","","22","","32.2","","97.40","","","","","","NA"
"2018-09-18 10:00","2018","09","18","10:00","9.9","","6.3","","78","","3","","17","","32.2","","97.40","","","","","","Mostly Cloudy"
"2018-09-18 11:00","2018","09","18","11:00","10.8","","6.4","","74","","3","","18","","32.2","","97.34","","","","","","NA"
"2018-09-18 12:00","2018","09","18","12:00","12.6","","6.7","","67","","2","","11","","32.2","","97.31","","","","","","NA"
"2018-09-18 13:00","2018","09","18","13:00","14.4","","7.8","","64","","5","","17","","32.2","","97.28","","","","","","Mainly Clear"
"2018-09-18 14:00","2018","09","18","14:00","15.0","","7.6","","61","","3","","16","","32.2","","97.29","","","","","","NA"
"2018-09-18 15:00","2018","09","18","15:00","15.6","","8.1","","60","","1","","15","","32.2","","97.24","","","","","","NA"
"2018-09-18 16:00","2018","09","18","16:00","15.7","","8.6","","62","","3","","16","","32.2","","97.28","","","","","","Cloudy"
"2018-09-18 17:00","2018","09","18","17:00","14.8","","8.8","","67","","2","","21","","32.2","","97.29","","","","","","NA"
"2018-09-18 18:00","2018","09","18","18:00","12.9","","8.6","","75","","1","","19","","32.2","","97.36","","","","","","NA"
"2018-09-18 19:00","2018","09","18","19:00","11.3","","8.2","","81","","1","","15","","24.1","","97.40","","","","","","Mostly Cloudy"
"2018-09-18 20:00","2018","09","18","20:00","11.1","","7.6","","78","","1","","16","","24.1","","97.45","","","","","","NA"
"2018-09-18 21:00","2018","09","18","21:00","9.7","","7.6","","87","","35","","9","","24.1","","97.51","","","","","","NA"
"2018-09-18 22:00","2018","09","18","22:00","10.2","","7.6","","84","","36","","10","","24.1","","97.52","","","","","","Mostly Cloudy"
"2018-09-18 23:00","2018","09","18","23:00","10.2","","7.7","","84","","1","","9","","24.1","","97.54","","","","","","NA"
"2018-09-19 00:00","2018","09","19","00:00","9.2","","7.4","","88","","35","","9","","24.1","","97.53","","","","","","NA"
"2018-09-19 01:00","2018","09","19","01:00","8.7","","7.5","","92","","34","","8","","24.1","","97.56","","","","","","Mainly Clear"
"2018-09-19 02:00","2018","09","19","02:00","9.0","","7.6","","91","","6","","6","","24.1","","97.60","","","","","","NA"
"2018-09-19 03:00","2018","09","19","03:00","8.1","","7.3","","95","","31","","7","","24.1","","97.65","","","","","","NA"
"2018-09-19 04:00","2018","09","19","04:00","7.6","","7.0","","96","","32","","7","","24.1","","97.67","","","","","","Cloudy"
"2018-09-19 05:00","2018","09","19","05:00","8.4","","7.3","","93","","35","","10","","32.2","","97.73","","","","","","NA"
"2018-09-19 06:00","2018","09","19","06:00","7.7","","6.7","","93","","1","","9","","32.2","","97.77","","","","","","NA"
"2018-09-19 07:00","2018","09","19","07:00","9.1","","6.1","","81","","3","","19","","32.2","","97.82","","","","","","Mainly Clear"
"2018-09-19 08:00","2018","09","19","08:00","9.6","","6.3","","80","","5","","20","","32.2","","97.85","","","","","","NA"
"2018-09-19 09:00","2018","09","19","09:00","8.9","","6.1","","82","","3","","18","","32.2","","97.90","","","","","","NA"
"2018-09-19 10:00","2018","09","19","10:00","10.6","","6.0","","73","","4","","18","","32.2","","97.84","","","","","","Mostly Cloudy"
"2018-09-19 11:00","2018","09","19","11:00","11.2","","6.1","","70","","3","","13","","32.2","","97.95","","","","","","NA"
"2018-09-19 12:00","2018","09","19","12:00","12.6","","6.2","","65","","5","","14","","32.2","","97.93","","","","","","NA"
"2018-09-19 13:00","2018","09","19","13:00","13.7","","6.0","","59","","3","","8","","32.2","","97.93","","","","","","Mainly Clear"
"2018-09-19 14:00","2018","09","19","14:00","14.5","","4.9","","52","","2","","9","","32.2","","97.91","","","","","","NA"
"2018-09-19 15:00","2018","09","19","15:00","15.8","","5.8","","51","","5","","12","","32.2","","97.83","","","","","","NA"
"2018-09-19 16:00","2018","09","19","16:00","16.1","","5.6","","50","","8","","9","","32.2","","97.80","","","","","","Mainly Clear"
"2018-09-19 17:00","2018","09","19","17:00","15.6","","6.1","","53","","36","","3","","32.2","","97.88","","","","","","NA"
"2018-09-19 18:00","2018","09","19","18:00","14.5","","7.3","","62","","10","","8","","32.2","","97.86","","","","","","NA"
"2018-09-19 19:00","2018","09","19","19:00","12.7","","7.2","","69","","10","","8","","24.1","","97.88","","","","","","Mostly Cloudy"
"2018-09-19 20:00","2018","09","19","20:00","12.6","","7.1","","69","","9","","7","","24.1","","97.92","","","","","","NA"
"2018-09-19 21:00","2018","09","19","21:00","11.9","","6.5","","70","","11","","10","","24.1","","97.92","","","","","","NA"
"2018-09-19 22:00","2018","09","19","22:00","11.9","","6.0","","67","","12","","9","","24.1","","97.94","","","","","","Mostly Cloudy"
"2018-09-19 23:00","2018","09","19","23:00","11.6","","6.1","","69","","9","","8","","24.1","","98.00","","","","","","NA"
"2018-09-20 00:00","2018","09","20","00:00","11.8","","6.2","","69","","13","","7","","24.1","","97.97","","","","","","NA"
"2018-09-20 01:00","2018","09","20","01:00","11.9","","5.8","","66","","9","","9","","24.1","","97.93","","","","","","Cloudy"
"2018-09-20 02:00","2018","09","20","02:00","11.4","","6.5","","72","","13","","11","","24.1","","97.92","","","","","","NA"
"2018-09-20 03:00","2018","09","20","03:00","11.1","","6.8","","75","","11","","9","","24.1","","97.91","","","","","","NA"
"2018-09-20 04:00","2018","09","20","04:00","10.4","","7.5","","82","","6","","9","","24.1","","97.94","","","","","","Mostly Cloudy"
"2018-09-20 05:00","2018","09","20","05:00","10.7","","8.0","","84","","11","","6","","24.1","","97.98","","","","","","NA"
"2018-09-20 06:00","2018","09","20","06:00","10.4","","8.4","","88","","4","","5","","32.2","","97.99","","","","","","NA"
"2018-09-20 07:00","2018","09","20","07:00","11.1","","9.1","","87","","4","","9","","32.2","","98.05","","","","","","Cloudy"
"2018-09-20 08:00","2018","09","20","08:00","11.8","","9.7","","87","","5","","13","","32.2","","98.07","","","","","","NA"
"2018-09-20 09:00","2018","09","20","09:00","12.2","","10.1","","87","","9","","11","","32.2","","98.13","","","","","","NA"
"2018-09-20 10:00","2018","09","20","10:00","13.1","","10.3","","83","","11","","11","","32.2","","98.13","","","","","","Cloudy"
"2018-09-20 11:00","2018","09","20","11:00","13.6","","10.4","","81","","7","","12","","32.2","","98.13","","","","","","NA"
"2018-09-20 12:00","2018","09","20","12:00","14.1","","10.8","","81","","12","","16","","32.2","","98.13","","","","","","NA"
"2018-09-20 13:00","2018","09","20","13:00","14.4","","11.5","","82","","12","","14","","32.2","","98.03","","","","","","Cloudy"
"2018-09-20 14:00","2018","09","20","14:00","14.8","","12.0","","83","","11","","15","","32.2","","97.97","","","","","","NA"
"2018-09-20 15:00","2018","09","20","15:00","14.3","","13.1","","92","","8","","11","","9.7","","97.97","","","","","","Rain Showers,Fog"
"2018-09-20 16:00","2018","09","20","16:00","13.9","","13.3","","96","","11","","15","","6.4","","97.94","","","","","","Rain Showers,Fog"
"2018-09-20 17:00","2018","09","20","17:00","13.8","","13.1","","96","","12","","26","","4.8","","97.88","","","","","","Rain Showers,Fog"
"2018-09-20 18:00","2018","09","20","18:00","12.9","","11.8","","93","","13","","18","","8.1","","97.86","","","","","","Rain Showers,Fog"
"2018-09-20 19:00","2018","09","20","19:00","11.7","","10.0","","89","","13","","22","","12.9","","97.85","","","","","","Rain Showers"
"2018-09-20 20:00","2018","09","20","20:00","11.1","","10.3","","94","","12","","18","","11.3","","97.82","","","","","","Rain Showers"
"2018-09-20 21:00","2018","09","20","21:00","11.4","","10.5","","94","","12","","19","","12.9","","97.74","","","","","","Rain Showers"
"2018-09-20 22:00","2018","09","20","22:00","11.5","","10.9","","96","","13","","18","","11.3","","97.61","","","","","","Rain Showers"
"2018-09-20 23:00","2018","09","20","23:00","11.0","","10.3","","96","","15","","26","","11.3","","97.48","","","","","","Rain Showers"
"2018-09-21 00:00","2018","09","21","00:00","11.0","","10.4","","96","","14","","8","","12.9","","97.40","","","","","","Rain Showers"
"2018-09-21 01:00","2018","09","21","01:00","11.8","","11.3","","97","","11","","22","","16.1","","97.11","","","","","","Rain Showers"
"2018-09-21 02:00","2018","09","21","02:00","12.2","","11.5","","95","","13","","32","","16.1","","96.85","","","","","","Thunderstorms,Rain Showers"
"2018-09-21 03:00","2018","09","21","03:00","12.0","","11.6","","97","","15","","17","","16.1","","96.79","","","","","","Rain Showers"
"2018-09-21 04:00","2018","09","21","04:00","12.3","","12.0","","98","","13","","17","","9.7","","96.57","","","","","","Rain Showers,Fog"
"2018-09-21 05:00","2018","09","21","05:00","13.2","","12.9","","98","","15","","22","","4.0","","96.31","","","","","","Rain Showers,Fog"
"2018-09-21 06:00","2018","09","21","06:00","15.2","","14.9","","98","","18","","19","","0.6","","96.29","","","","","","Rain Showers,Fog"
"2018-09-21 07:00","2018","09","21","07:00","17.2","","16.9","","98","","17","","27","","0.8","","96.11","","","","","","Rain Showers,Fog"
"2018-09-21 08:00","2018","09","21","08:00","18.8","","18.5","","98","","18","","38","","1.2","","95.92","","","","","","Rain Showers,Fog"
"2018-09-21 09:00","2018","09","21","09:00","20.0","","19.5","","97","","19","","39","","9.7","","95.84","","27","","","","Fog"
"2018-09-21 10:00","2018","09","21","10:00","21.5","","19.7","","89","","20","","47","","24.1","","95.72","","29","","","","Cloudy"
"2018-09-21 11:00","2018","09","21","11:00","22.8","","19.7","","82","","21","","37","","24.1","","95.63","","30","","","","NA"
"2018-09-21 12:00","2018","09","21","12:00","21.2","","18.9","","87","","23","","35","","32.2","","95.60","","28","","","","Rain Showers"
"2018-09-21 13:00","2018","09","21","13:00","22.1","","16.9","","72","","23","","41","","32.2","","95.60","","27","","","","Rain Showers"
"2018-09-21 14:00","2018","09","21","14:00","21.2","","14.5","","65","","24","","46","","32.2","","95.59","","25","","","","NA"
"2018-09-21 15:00","2018","09","21","15:00","21.9","","12.9","","56","","24","","61","","32.2","","95.62","","25","","","","NA"
"2018-09-21 16:00","2018","09","21","16:00","17.4","","13.5","","78","","28","","37","","32.2","","95.77","","","","","","Rain Showers"
"2018-09-21 17:00","2018","09","21","17:00","15.4","","10.0","","70","","27","","36","","32.2","","95.95","","","","","","NA"
"2018-09-21 18:00","2018","09","21","18:00","13.6","","6.0","","60","","27","","36","","32.2","","96.19","","","","","","NA"
"2018-09-21 19:00","2018","09","21","19:00","12.0","","5.2","","63","","28","","28","","24.1","","96.43","","","","","","Mostly Cloudy"
"2018-09-21 20:00","2018","09","21","20:00","10.5","","5.7","","72","","31","","33","","24.1","","96.74","","","","","","NA"
"2018-09-21 21:00","2018","09","21","21:00","8.4","","4.6","","77","","32","","40","","24.1","","97.07","","","","","","Rain Showers"
"2018-09-21 22:00","2018","09","21","22:00","7.3","","4.0","","79","","31","","27","","24.1","","97.27","","","","","","Mostly Cloudy"
"2018-09-21 23:00","2018","09","21","23:00","6.8","","4.4","","84","","33","","23","","24.1","","97.55","","","","","","Rain Showers"
"2018-09-22 00:00","2018","09","22","00:00","6.8","","3.4","","79","","33","","18","","24.1","","97.73","","","","","","NA"
"2018-09-22 01:00","2018","09","22","01:00","5.8","","3.2","","83","","32","","14","","24.1","","97.87","","","","","","Mostly Cloudy"
"2018-09-22 02:00","2018","09","22","02:00","5.4","","2.8","","83","","32","","16","","24.1","","97.96","","","","","","NA"
"2018-09-22 03:00","2018","09","22","03:00","4.9","","1.8","","80","","34","","16","","24.1","","98.03","","","","","","NA"
"2018-09-22 04:00","2018","09","22","04:00","4.0","","2.2","","88","","31","","12","","24.1","","98.15","","","","","","Mainly Clear"
"2018-09-22 05:00","2018","09","22","05:00","3.9","","1.5","","84","","33","","6","","24.1","","98.20","","","","","","NA"
"2018-09-22 06:00","2018","09","22","06:00","3.4","","1.7","","89","","26","","8","","32.2","","98.32","","","","","","NA"
"2018-09-22 07:00","2018","09","22","07:00","4.4","","2.2","","85","","28","","8","","32.2","","98.40","","","","","","Mostly Cloudy"
"2018-09-22 08:00","2018","09","22","08:00","5.7","","1.3","","73","","28","","8","","32.2","","98.45","","","","","","NA"
"2018-09-22 09:00","2018","09","22","09:00","6.7","","0.4","","64","","28","","12","","32.2","","98.46","","","","","","NA"
"2018-09-22 10:00","2018","09","22","10:00","8.2","","0.5","","58","","24","","9","","32.2","","98.48","","","","","","Mostly Cloudy"
"2018-09-22 11:00","2018","09","22","11:00","9.3","","1.2","","57","","22","","12","","32.2","","98.44","","","","","","NA"
"2018-09-22 12:00","2018","09","22","12:00","10.7","","1.1","","51","","19","","12","","32.2","","98.35","","","","","","NA"
"2018-09-22 13:00","2018","09","22","13:00","11.6","","1.0","","48","","27","","17","","32.2","","98.29","","","","","","Mainly Clear"
"2018-09-22 14:00","2018","09","22","14:00","12.5","","0.7","","44","","22","","18","","32.2","","98.24","","","","","","NA"
"2018-09-22 15:00","2018","09","22","15:00","13.2","","0.1","","41","","25","","21","","32.2","","98.16","","","","","","NA"
"2018-09-22 16:00","2018","09","22","16:00","13.5","","1.1","","42","","24","","17","","32.2","","98.10","","","","","","Mainly Clear"
"2018-09-22 17:00","2018","09","22","17:00","12.8","","1.3","","45","","23","","21","","32.2","","98.06","","","","","","NA"
"2018-09-22 18:00","2018","09","22","18:00","11.1","","2.9","","57","","22","","15","","32.2","","98.06","","","","","","NA"
"2018-09-22 19:00","2018","09","22","19:00","8.6","","3.1","","68","","22","","12","","24.1","","98.05","","","","","","Mainly Clear"
"2018-09-22 20:00","2018","09","22","20:00","8.4","","3.6","","72","","22","","11","","24.1","","98.08","","","","","","NA"
"2018-09-22 21:00","2018","09","22","21:00","8.7","","4.4","","74","","23","","9","","24.1","","98.08","","","","","","NA"
"2018-09-22 22:00","2018","09","22","22:00","7.8","","4.5","","79","","22","","7","","24.1","","98.04","","","","","","Mainly Clear"
"2018-09-22 23:00","2018","09","22","23:00","7.8","","5.2","","83","","22","","10","","24.1","","98.08","","","","","","NA"
"2018-09-23 00:00","2018","09","23","00:00","7.9","","5.5","","85","","22","","5","","24.1","","98.06","","","","","","NA"
"2018-09-23 01:00","2018","09","23","01:00","8.6","","6.0","","84","","24","","8","","24.1","","98.03","","","","","","Mostly Cloudy"
"2018-09-23 02:00","2018","09","23","02:00","8.7","","6.5","","86","","23","","9","","24.1","","98.04","","","","","","NA"
"2018-09-23 03:00","2018","09","23","03:00","8.6","","6.7","","88","","28","","6","","24.1","","98.05","","","","","","NA"
"2018-09-23 04:00","2018","09","23","04:00","8.3","","6.5","","89","","32","","4","","24.1","","98.08","","","","","","Mostly Cloudy"
"2018-09-23 05:00","2018","09","23","05:00","8.7","","7.3","","91","","2","","21","","24.1","","98.13","","","","","","Rain Showers"
"2018-09-23 06:00","2018","09","23","06:00","5.8","","3.9","","88","","4","","28","","32.2","","98.23","","","","","","NA"
"2018-09-23 07:00","2018","09","23","07:00","4.2","","2.7","","90","","3","","34","","24.1","","98.30","","","","","","Drizzle"
"2018-09-23 08:00","2018","09","23","08:00","3.7","","2.3","","90","","4","","26","","16.1","","98.37","","","","","","Rain Showers"
"2018-09-23 09:00","2018","09","23","09:00","3.6","","2.6","","94","","4","","28","","24.1","","98.41","","","","","","Rain Showers"
"2018-09-23 10:00","2018","09","23","10:00","3.6","","2.3","","91","","5","","23","","32.2","","98.50","","","","","","Rain Showers"
"2018-09-23 11:00","2018","09","23","11:00","3.6","","1.5","","86","","5","","26","","32.2","","98.53","","","","","","Rain Showers"
"2018-09-23 12:00","2018","09","23","12:00","3.3","","1.7","","89","","5","","24","","24.1","","98.59","","","","","","Rain Showers"
"2018-09-23 13:00","2018","09","23","13:00","3.2","","1.9","","91","","5","","25","","24.1","","98.58","","","","","","Rain Showers"
"2018-09-23 14:00","2018","09","23","14:00","3.3","","1.9","","91","","4","","22","","8.1","","98.63","","","","","","Rain Showers,Fog"
"2018-09-23 15:00","2018","09","23","15:00","3.0","","1.8","","92","","6","","21","","8.1","","98.65","","","","","","Rain Showers,Fog"
"2018-09-23 16:00","2018","09","23","16:00","3.0","","1.0","","87","","6","","22","","32.2","","98.67","","","","","","Cloudy"
"2018-09-23 17:00","2018","09","23","17:00","3.4","","1.1","","85","","6","","18","","32.2","","98.69","","","","","","NA"
"2018-09-23 18:00","2018","09","23","18:00","3.3","","1.4","","88","","7","","18","","32.2","","98.72","","","","","","NA"
"2018-09-23 19:00","2018","09","23","19:00","3.5","","1.3","","85","","7","","16","","24.1","","98.75","","","","","","Mostly Cloudy"
"2018-09-23 20:00","2018","09","23","20:00","3.2","","1.0","","85","","8","","17","","24.1","","98.78","","","","","","NA"
"2018-09-23 21:00","2018","09","23","21:00","3.4","","1.1","","85","","7","","15","","32.2","","98.79","","","","","","NA"
"2018-09-23 22:00","2018","09","23","22:00","3.3","","1.2","","86","","7","","13","","24.1","","98.82","","","","","","Mostly Cloudy"
"2018-09-23 23:00","2018","09","23","23:00","3.8","","1.0","","82","","8","","17","","24.1","","98.80","","","","","","NA"
"2018-09-24 00:00","2018","09","24","00:00","3.1","","0.5","","83","","5","","12","","24.1","","98.85","","","","","","NA"
"2018-09-24 01:00","2018","09","24","01:00","3.4","","0.1","","79","","7","","18","","24.1","","98.85","","","","","","Mostly Cloudy"
"2018-09-24 02:00","2018","09","24","02:00","3.9","","-0.6","","73","","9","","22","","24.1","","98.85","","","","","","NA"
"2018-09-24 03:00","2018","09","24","03:00","3.4","","-0.9","","73","","9","","22","","24.1","","98.81","","","","","","NA"
"2018-09-24 04:00","2018","09","24","04:00","2.8","","-0.7","","77","","7","","18","","24.1","","98.79","","","","","","Mainly Clear"
"2018-09-24 05:00","2018","09","24","05:00","2.9","","-0.7","","77","","8","","21","","24.1","","98.78","","","","","","NA"
"2018-09-24 06:00","2018","09","24","06:00","2.7","","-0.4","","80","","8","","18","","24.1","","98.84","","","","","","NA"
"2018-09-24 07:00","2018","09","24","07:00","3.6","","0.5","","80","","9","","23","","32.2","","98.79","","","","","","Cloudy"
"2018-09-24 08:00","2018","09","24","08:00","4.2","","1.4","","82","","11","","16","","24.1","","98.87","","","","","","NA"
"2018-09-24 09:00","2018","09","24","09:00","5.6","","2.8","","82","","11","","13","","32.2","","98.84","","","","","","NA"
"2018-09-24 10:00","2018","09","24","10:00","7.7","","4.2","","79","","11","","16","","32.2","","98.77","","","","","","Mostly Cloudy"
"2018-09-24 11:00","2018","09","24","11:00","10.2","","5.6","","73","","10","","19","","32.2","","98.70","","","","","","NA"
"2018-09-24 12:00","2018","09","24","12:00","12.5","","6.7","","67","","15","","24","","32.2","","98.59","","","","","","NA"
"2018-09-24 13:00","2018","09","24","13:00","14.4","","7.4","","63","","14","","27","","32.2","","98.48","","","","","","Mostly Cloudy"
"2018-09-24 14:00","2018","09","24","14:00","14.8","","7.9","","63","","13","","17","","32.2","","98.41","","","","","","NA"
"2018-09-24 15:00","2018","09","24","15:00","14.9","","7.9","","63","","13","","19","","32.2","","98.30","","","","","","NA"
"2018-09-24 16:00","2018","09","24","16:00","15.2","","8.3","","63","","11","","17","","32.2","","98.22","","","","","","Mostly Cloudy"
"2018-09-24 17:00","2018","09","24","17:00","14.9","","8.7","","66","","10","","15","","32.2","","98.17","","","","","","NA"
"2018-09-24 18:00","2018","09","24","18:00","13.8","","9.1","","73","","11","","17","","32.2","","98.13","","","","","","NA"
"2018-09-24 19:00","2018","09","24","19:00","13.7","","9.2","","74","","12","","18","","24.1","","98.07","","","","","","Cloudy"
"2018-09-24 20:00","2018","09","24","20:00","14.1","","8.8","","70","","13","","22","","24.1","","98.02","","","","","","NA"
"2018-09-24 21:00","2018","09","24","21:00","14.0","","8.7","","70","","15","","27","","24.1","","98.00","","","","","","NA"
"2018-09-24 22:00","2018","09","24","22:00","13.7","","8.9","","73","","14","","20","","24.1","","97.94","","","","","","Cloudy"
"2018-09-24 23:00","2018","09","24","23:00","13.4","","9.0","","74","","14","","21","","24.1","","97.85","","","","","","NA"
"2018-09-25 00:00","2018","09","25","00:00","13.2","","9.6","","79","","15","","20","","24.1","","97.77","","","","","","Rain Showers,Drizzle"
"2018-09-25 01:00","2018","09","25","01:00","12.7","","10.2","","85","","14","","22","","16.1","","97.68","","","","","","Drizzle"
"2018-09-25 02:00","2018","09","25","02:00","12.3","","11.1","","92","","14","","21","","11.3","","97.62","","","","","","Drizzle"
"2018-09-25 03:00","2018","09","25","03:00","12.6","","12.1","","97","","14","","17","","8.1","","97.52","","","","","","Drizzle,Fog"
"2018-09-25 04:00","2018","09","25","04:00","13.8","","13.4","","98","","16","","23","","6.4","","97.46","","","","","","Moderate Drizzle,Fog"
"2018-09-25 05:00","2018","09","25","05:00","13.4","","13.0","","97","","15","","23","","4.0","","97.39","","","","","","Drizzle,Fog"
"2018-09-25 06:00","2018","09","25","06:00","13.6","","13.2","","97","","15","","23","","8.1","","97.35","","","","","","Rain Showers,Fog"
"2018-09-25 07:00","2018","09","25","07:00","14.0","","13.6","","98","","15","","26","","4.8","","97.28","","","","","","Rain Showers,Fog"
"2018-09-25 08:00","2018","09","25","08:00","14.3","","14.0","","98","","16","","26","","4.8","","97.21","","","","","","Rain Showers,Fog"
"2018-09-25 09:00","2018","09","25","09:00","15.2","","14.8","","98","","17","","30","","3.2","","97.20","","","","","","Rain Showers,Fog"
"2018-09-25 10:00","2018","09","25","10:00","15.9","","15.5","","97","","18","","30","","4.0","","97.17","","","","","","Rain,Fog"
"2018-09-25 11:00","2018","09","25","11:00","16.1","","15.8","","98","","18","","33","","2.4","","97.14","","","","","","Rain,Fog"
"2018-09-25 12:00","2018","09","25","12:00","16.6","","16.2","","97","","18","","26","","3.2","","97.13","","","","","","Rain,Fog"
"2018-09-25 13:00","2018","09","25","13:00","16.8","","16.4","","97","","20","","23","","8.1","","97.10","","","","","","Rain,Fog"
"2018-09-25 14:00","2018","09","25","14:00","17.2","","16.8","","97","","20","","18","","4.8","","97.06","","","","","","Rain,Fog"
"2018-09-25 15:00","2018","09","25","15:00","18.0","","17.0","","94","","19","","21","","24.1","","97.01","","","","","","NA"
"2018-09-25 16:00","2018","09","25","16:00","17.6","","16.9","","95","","19","","15","","32.2","","96.98","","","","","","Cloudy"
"2018-09-25 17:00","2018","09","25","17:00","17.4","","16.9","","97","","17","","18","","2.4","","96.94","","","","","","Drizzle,Fog"
"2018-09-25 18:00","2018","09","25","18:00","17.0","","16.7","","98","","16","","12","","0.4","","96.87","","","","","","Drizzle,Fog"
"2018-09-25 19:00","2018","09","25","19:00","16.8","","16.5","","98","","16","","15","","0.8","","96.90","","","","","","Drizzle,Fog"
"2018-09-25 20:00","2018","09","25","20:00","16.5","","16.2","","98","","17","","14","","0.6","","96.85","","","","","","Fog"
"2018-09-25 21:00","2018","09","25","21:00","16.4","","16.1","","98","","19","","17","","0.6","","96.77","","","","","","Fog"
"2018-09-25 22:00","2018","09","25","22:00","16.4","","16.1","","98","","18","","13","","0.6","","96.63","","","","","","Fog"
"2018-09-25 23:00","2018","09","25","23:00","16.5","","16.2","","98","","15","","7","","0.4","","96.50","","","","","","Fog"
"2018-09-26 00:00","2018","09","26","00:00","16.8","","16.5","","98","","13","","11","","0.4","","96.30","","","","","","Fog"
"2018-09-26 01:00","2018","09","26","01:00","17.0","","16.8","","98","","15","","17","","3.2","","96.17","","","","","","Rain,Fog"
"2018-09-26 02:00","2018","09","26","02:00","17.8","","17.5","","98","","21","","35","","16.1","","96.09","","","","","","Rain"
"2018-09-26 03:00","2018","09","26","03:00","17.8","","17.4","","98","","23","","26","","12.9","","96.06","","","","","","Rain"
"2018-09-26 04:00","2018","09","26","04:00","17.9","","17.4","","97","","24","","18","","19.3","","96.02","","","","","","Rain"
"2018-09-26 05:00","2018","09","26","05:00","17.5","","16.9","","96","","24","","18","","24.1","","96.03","","","","","","Rain"
"2018-09-26 06:00","2018","09","26","06:00","16.4","","15.4","","94","","25","","18","","24.1","","96.12","","","","","","NA"
"2018-09-26 07:00","2018","09","26","07:00","14.3","","12.3","","87","","28","","23","","32.2","","96.31","","","","","","Mostly Cloudy"
"2018-09-26 08:00","2018","09","26","08:00","12.3","","9.5","","83","","29","","23","","32.2","","96.50","","","","","","NA"
"2018-09-26 09:00","2018","09","26","09:00","12.5","","8.6","","77","","30","","23","","32.2","","96.59","","","","","","NA"
"2018-09-26 10:00","2018","09","26","10:00","11.9","","8.0","","77","","31","","21","","32.2","","96.69","","","","","","Mostly Cloudy"
"2018-09-26 11:00","2018","09","26","11:00","13.3","","6.5","","63","","29","","24","","32.2","","96.74","","","","","","NA"
"2018-09-26 12:00","2018","09","26","12:00","12.9","","5.6","","61","","29","","21","","32.2","","96.82","","","","","","NA"
"2018-09-26 13:00","2018","09","26","13:00","13.1","","6.4","","64","","28","","19","","32.2","","96.83","","","","","","Mostly Cloudy"
"2018-09-26 14:00","2018","09","26","14:00","11.8","","7.2","","73","","28","","16","","24.1","","96.88","","","","","","Rain Showers"
"2018-09-26 15:00","2018","09","26","15:00","10.3","","8.3","","88","","27","","18","","32.2","","97.01","","","","","","Rain Showers"
"2018-09-26 16:00","2018","09","26","16:00","11.5","","6.1","","69","","29","","22","","32.2","","97.05","","","","","","Mostly Cloudy"
"2018-09-26 17:00","2018","09","26","17:00","11.5","","5.6","","67","","28","","14","","32.2","","97.10","","","","","","NA"
"2018-09-26 18:00","2018","09","26","18:00","10.5","","5.6","","72","","26","","13","","32.2","","97.20","","","","","","NA"
"2018-09-26 19:00","2018","09","26","19:00","9.4","","5.4","","76","","26","","12","","24.1","","97.33","","","","","","Mainly Clear"
"2018-09-26 20:00","2018","09","26","20:00","8.4","","6.0","","85","","19","","6","","24.1","","97.37","","","","","","NA"
"2018-09-26 21:00","2018","09","26","21:00","7.8","","5.3","","84","","27","","16","","24.1","","97.44","","","","","","NA"
"2018-09-26 22:00","2018","09","26","22:00","6.7","","4.4","","85","","25","","7","","24.1","","97.50","","","","","","Mainly Clear"
"2018-09-26 23:00","2018","09","26","23:00","5.9","","3.8","","86","","23","","8","","24.1","","97.54","","","","","","NA"
"2018-09-27 00:00","2018","09","27","00:00","4.6","","4.0","","96","","23","","8","","24.1","","97.58","","","","","","NA"
"2018-09-27 01:00","2018","09","27","01:00","3.8","","2.8","","93","","22","","4","","24.1","","97.57","","","","","","Clear"
"2018-09-27 02:00","2018","09","27","02:00","4.6","","3.8","","94","","22","","9","","24.1","","97.61","","","","","","NA"
"2018-09-27 03:00","2018","09","27","03:00","5.0","","4.1","","94","","30","","5","","24.1","","97.59","","","","","","NA"
"2018-09-27 04:00","2018","09","27","04:00","4.2","","3.6","","97","","28","","4","","24.1","","97.61","","","","","","Mainly Clear"
"2018-09-27 05:00","2018","09","27","05:00","5.3","","4.8","","96","","18","","14","","24.1","","97.65","","","","","","NA"
"2018-09-27 06:00","2018","09","27","06:00","6.4","","5.4","","93","","17","","11","","24.1","","97.68","","","","","","NA"
"2018-09-27 07:00","2018","09","27","07:00","5.8","","5.2","","96","","17","","12","","32.2","","97.72","","","","","","Mainly Clear"
"2018-09-27 08:00","2018","09","27","08:00","7.4","","6.0","","91","","16","","13","","32.2","","97.70","","","","","","NA"
"2018-09-27 09:00","2018","09","27","09:00","10.9","","8.1","","83","","21","","17","","32.2","","97.73","","","","","","NA"
"2018-09-27 10:00","2018","09","27","10:00","13.1","","9.1","","77","","21","","23","","32.2","","97.69","","","","","","Mostly Cloudy"
"2018-09-27 11:00","2018","09","27","11:00","14.5","","7.8","","64","","19","","28","","32.2","","97.60","","","","","","NA"
"2018-09-27 12:00","2018","09","27","12:00","14.7","","6.4","","57","","21","","27","","32.2","","97.53","","","","","","NA"
"2018-09-27 13:00","2018","09","27","13:00","14.1","","7.4","","64","","20","","26","","32.2","","97.49","","","","","","Mostly Cloudy"
"2018-09-27 14:00","2018","09","27","14:00","15.1","","7.4","","60","","20","","33","","32.2","","97.43","","","","","","NA"
"2018-09-27 15:00","2018","09","27","15:00","14.8","","8.0","","64","","20","","28","","32.2","","97.38","","","","","","NA"
"2018-09-27 16:00","2018","09","27","16:00","15.0","","5.9","","54","","20","","35","","24.1","","97.39","","","","","","Mostly Cloudy"
"2018-09-27 17:00","2018","09","27","17:00","13.9","","5.9","","58","","19","","30","","32.2","","97.35","","","","","","NA"
"2018-09-27 18:00","2018","09","27","18:00","12.6","","8.1","","73","","18","","26","","32.2","","97.30","","","","","","NA"
"2018-09-27 19:00","2018","09","27","19:00","11.3","","8.0","","80","","17","","17","","24.1","","97.25","","","","","","Mostly Cloudy"
"2018-09-27 20:00","2018","09","27","20:00","10.1","","7.9","","86","","16","","19","","24.1","","97.26","","","","","","NA"
"2018-09-27 21:00","2018","09","27","21:00","10.1","","7.3","","82","","16","","20","","24.1","","97.24","","","","","","NA"
"2018-09-27 22:00","2018","09","27","22:00","9.8","","7.2","","84","","16","","22","","24.1","","97.19","","","","","","Mostly Cloudy"
"2018-09-27 23:00","2018","09","27","23:00","9.4","","7.3","","87","","15","","20","","24.1","","97.15","","","","","","NA"
"2018-09-28 00:00","2018","09","28","00:00","10.7","","8.1","","84","","17","","22","","24.1","","97.07","","","","","","NA"
"2018-09-28 01:00","2018","09","28","01:00","10.7","","9.2","","90","","18","","29","","12.9","","97.03","","","","","","Rain"
"2018-09-28 02:00","2018","09","28","02:00","10.8","","10.1","","96","","19","","19","","19.3","","97.01","","","","","","Rain"
"2018-09-28 03:00","2018","09","28","03:00","11.0","","10.6","","97","","19","","23","","12.9","","96.96","","","","","","Rain"
"2018-09-28 04:00","2018","09","28","04:00","11.3","","10.8","","96","","21","","24","","12.9","","96.94","","","","","","Rain"
"2018-09-28 05:00","2018","09","28","05:00","11.2","","10.8","","97","","22","","17","","12.9","","96.96","","","","","","Rain"
"2018-09-28 06:00","2018","09","28","06:00","11.3","","10.7","","96","","21","","19","","16.1","","96.93","","","","","","NA"
"2018-09-28 07:00","2018","09","28","07:00","11.2","","10.8","","97","","22","","17","","9.7","","96.93","","","","","","Rain"
"2018-09-28 08:00","2018","09","28","08:00","11.1","","10.6","","97","","21","","17","","12.9","","96.93","","","","","","Rain"
"2018-09-28 09:00","2018","09","28","09:00","10.8","","10.1","","95","","22","","25","","4.8","","96.96","","","","","","Rain"
"2018-09-28 10:00","2018","09","28","10:00","10.3","","8.9","","91","","25","","25","","16.1","","97.01","","","","","","Rain"
"2018-09-28 11:00","2018","09","28","11:00","9.7","","7.7","","87","","22","","14","","32.2","","97.03","","","","","","Rain"
"2018-09-28 12:00","2018","09","28","12:00","10.8","","8.5","","86","","24","","13","","32.2","","97.04","","","","","","Rain"
"2018-09-28 13:00","2018","09","28","13:00","11.3","","8.0","","80","","23","","21","","32.2","","97.09","","","","","","Cloudy"
"2018-09-28 14:00","2018","09","28","14:00","9.8","","7.7","","86","","25","","12","","32.2","","97.09","","","","","","Rain Showers"
"2018-09-28 15:00","2018","09","28","15:00","8.8","","5.6","","80","","27","","18","","16.1","","97.18","","","","","","Rain Showers,Hail"
"2018-09-28 16:00","2018","09","28","16:00","10.8","","7.5","","80","","25","","10","","32.2","","97.20","","","","","","Rain Showers"
"2018-09-28 17:00","2018","09","28","17:00","9.6","","6.4","","80","","33","","12","","32.2","","97.29","","","","","","Rain Showers"
"2018-09-28 18:00","2018","09","28","18:00","8.6","","6.8","","89","","36","","6","","32.2","","97.35","","","","","","NA"
"2018-09-28 19:00","2018","09","28","19:00","7.9","","6.0","","88","","36","","10","","24.1","","97.45","","","","","","Mostly Cloudy"
"2018-09-28 20:00","2018","09","28","20:00","7.1","","5.1","","87","","35","","14","","24.1","","97.55","","","","","","Rain Showers"
"2018-09-28 21:00","2018","09","28","21:00","5.8","","5.0","","94","","36","","9","","24.1","","97.62","","","","","","Rain Showers"
"2018-09-28 22:00","2018","09","28","22:00","5.1","","4.0","","93","","36","","10","","24.1","","97.65","","","","","","Mostly Cloudy"
"2018-09-28 23:00","2018","09","28","23:00","4.3","","3.0","","91","","2","","4","","24.1","","97.65","","","","","","NA"
"2018-09-29 00:00","2018","09","29","00:00","2.8","","2.1","","96","","29","","3","","24.1","","97.69","","","","","","NA"
"2018-09-29 01:00","2018","09","29","01:00","3.1","","2.6","","97","","7","","4","","24.1","","97.70","","","","","","Mostly Cloudy"
"2018-09-29 02:00","2018","09","29","02:00","2.7","","2.0","","96","","19","","4","","24.1","","97.74","","","","","","NA"
"2018-09-29 03:00","2018","09","29","03:00","2.5","","2.1","","97","","31","","8","","19.3","","97.76","","","","","","NA"
"2018-09-29 04:00","2018","09","29","04:00","2.6","","2.3","","98","","31","","5","","24.1","","97.80","","","","","","Mostly Cloudy"
"2018-09-29 05:00","2018","09","29","05:00","2.4","","2.1","","98","","36","","1","","24.1","","97.86","","","","","","NA"
"2018-09-29 06:00","2018","09","29","06:00","2.8","","2.5","","98","","23","","6","","32.2","","97.90","","","","","","NA"
"2018-09-29 07:00","2018","09","29","07:00","3.6","","3.1","","96","","21","","5","","32.2","","97.91","","","","","","Mostly Cloudy"
"2018-09-29 08:00","2018","09","29","08:00","5.3","","4.0","","91","","23","","7","","32.2","","97.91","","","","","","NA"
"2018-09-29 09:00","2018","09","29","09:00","7.0","","4.0","","81","","27","","17","","32.2","","97.98","","","","","","NA"
"2018-09-29 10:00","2018","09","29","10:00","7.8","","2.4","","69","","27","","19","","32.2","","98.00","","","","","","Mostly Cloudy"
"2018-09-29 11:00","2018","09","29","11:00","8.1","","0.5","","59","","25","","18","","32.2","","98.01","","","","","","NA"
"2018-09-29 12:00","2018","09","29","12:00","9.4","","-0.5","","50","","26","","22","","32.2","","98.02","","","","","","NA"
"2018-09-29 13:00","2018","09","29","13:00","8.9","","-0.3","","52","","27","","19","","32.2","","98.03","","","","","","Mostly Cloudy"
"2018-09-29 14:00","2018","09","29","14:00","9.6","","-0.4","","50","","24","","13","","32.2","","98.03","","","","","","NA"
"2018-09-29 15:00","2018","09","29","15:00","10.6","","0.2","","48","","25","","19","","32.2","","98.04","","","","","","NA"
"2018-09-29 16:00","2018","09","29","16:00","8.9","","0.3","","55","","24","","16","","32.2","","98.07","","","","","","Mostly Cloudy"
"2018-09-29 17:00","2018","09","29","17:00","8.5","","0.3","","56","","26","","14","","32.2","","98.09","","","","","","NA"
"2018-09-29 18:00","2018","09","29","18:00","7.1","","1.2","","66","","26","","10","","32.2","","98.11","","","","","","NA"
"2018-09-29 19:00","2018","09","29","19:00","5.6","","1.8","","76","","27","","11","","24.1","","98.16","","","","","","Mostly Cloudy"
"2018-09-29 20:00","2018","09","29","20:00","5.2","","0.9","","74","","29","","12","","24.1","","98.25","","","","","","NA"
"2018-09-29 21:00","2018","09","29","21:00","4.0","","-0.5","","73","","30","","8","","24.1","","98.26","","","","","","NA"
"2018-09-29 22:00","2018","09","29","22:00","1.9","","-1.8","","76","","29","","10","","24.1","","98.29","","","","","","Mainly Clear"
"2018-09-29 23:00","2018","09","29","23:00","1.7","","-2.2","","75","","29","","10","","24.1","","98.31","","","","","","NA"
"2018-09-30 00:00","2018","09","30","00:00","1.4","","-1.6","","81","","31","","6","","24.1","","98.32","","","","","","NA"
"2018-09-30 01:00","2018","09","30","01:00","1.3","","-1.5","","82","","28","","6","","24.1","","98.36","","","","","","Mostly Cloudy"
"2018-09-30 02:00","2018","09","30","02:00","1.1","","-1.2","","85","","29","","8","","24.1","","98.40","","","","","","NA"
"2018-09-30 03:00","2018","09","30","03:00","0.3","","-1.3","","89","","31","","5","","24.1","","98.41","","","","","","NA"
"2018-09-30 04:00","2018","09","30","04:00","0.0","","-1.4","","90","","30","","5","","24.1","","98.39","","","","-2","","Mostly Cloudy"
"2018-09-30 05:00","2018","09","30","05:00","-0.2","","-1.4","","92","","30","","6","","24.1","","98.41","","","","-2","","NA"
"2018-09-30 06:00","2018","09","30","06:00","0.2","","-1.1","","91","","27","","5","","32.2","","98.46","","","","","","NA"
"2018-09-30 07:00","2018","09","30","07:00","1.0","","-1.0","","87","","36","","2","","32.2","","98.43","","","","","","Cloudy"
"2018-09-30 08:00","2018","09","30","08:00","2.0","","-1.3","","78","","21","","7","","32.2","","98.46","","","","","","NA"
"2018-09-30 09:00","2018","09","30","09:00","2.4","","-0.3","","83","","20","","9","","32.2","","98.46","","","","","","NA"
"2018-09-30 10:00","2018","09","30","10:00","2.8","","-2.1","","70","","23","","15","","32.2","","98.46","","","","","","Cloudy"
"2018-09-30 11:00","2018","09","30","11:00","2.9","","-1.2","","74","","20","","9","","32.2","","98.45","","","","","","NA"
"2018-09-30 12:00","2018","09","30","12:00","3.6","","-1.3","","71","","23","","7","","32.2","","98.39","","","","","","NA"
"2018-09-30 13:00","2018","09","30","13:00","4.3","","-0.5","","71","","21","","16","","32.2","","98.35","","","","","","Mostly Cloudy"
"2018-09-30 14:00","2018","09","30","14:00","5.7","","0.3","","68","","22","","13","","32.2","","98.30","","","","","","NA"
"2018-09-30 15:00","2018","09","30","15:00","7.0","","1.0","","65","","23","","13","","32.2","","98.26","","","","","","NA"
"2018-09-30 16:00","2018","09","30","16:00","7.5","","0.9","","63","","24","","13","","32.2","","98.24","","","","","","Mostly Cloudy"
"2018-09-30 17:00","2018","09","30","17:00","7.5","","1.4","","65","","24","","10","","32.2","","98.25","","","","","","NA"
"2018-09-30 18:00","2018","09","30","18:00","6.2","","1.6","","73","","21","","9","","32.2","","98.24","","","","","","NA"
"2018-09-30 19:00","2018","09","30","19:00","5.6","","2.2","","79","","20","","11","","32.2","","98.28","","","","","","Mostly Cloudy"
"2018-09-30 20:00","2018","09","30","20:00","4.4","","2.1","","85","","21","","9","","24.1","","98.33","","","","","","NA"
"2018-09-30 21:00","2018","09","30","21:00","3.7","","2.0","","89","","19","","8","","24.1","","98.34","","","","","","NA"
"2018-09-30 22:00","2018","09","30","22:00","3.8","","2.3","","90","","20","","10","","24.1","","98.40","","","","","","Mostly Cloudy"
"2018-09-30 23:00","2018","09","30","23:00","4.0","","2.6","","91","","18","","8","","24.1","","98.40","","","","","","NA"
