"Station Name","LONDON CS"
"Province","ONTARIO"
"Latitude","43.03"
"Longitude","-81.15"
"Elevation","278.00"
"Climate Identifier","6144478"
"WMO Identifier","71622"
"TC Identifier","WSN"
"All times are specified in Local Standard Time (LST). Add 1 hour to adjust for Daylight Saving Time where and when it is observed."

"Legend"
"E","Estimated"
"M","Missing"
"NA","Not Available"

"Date/Time","Year","Month","Day","Time","Temp (°C)","Temp Flag","Dew Point Temp (°C)","Dew Point Temp Flag","Rel Hum (%)","Rel Hum Flag","Wind Dir (10s deg)","Wind Dir Flag","Wind Spd (km/h)","Wind Spd Flag","Visibility (km)","Visibility Flag","Stn Press (kPa)","Stn Press Flag","Hmdx","Hmdx Flag","Wind Chill","Wind Chill Flag","Weather"
"2017-09-01 00:00","2017","09","01","00:00","8.5","","4.9","","78","","","M","","M","","","99.05","","","","","","NA"
"2017-09-01 01:00","2017","09","01","01:00","6.5","","4.2","","85","","","M","","M","","","99.06","","","","","","NA"
"2017-09-01 02:00","2017","09","01","02:00","7.6","","5.1","","84","","","M","","M","","","99.06","","","","","","NA"
"2017-09-01 03:00","2017","09","01","03:00","6.5","","4.2","","86","","","M","","M","","","99.08","","","","","","NA"
"2017-09-01 04:00","2017","09","01","04:00","5.0","","3.7","","91","","","M","","M","","","99.09","","","","","","NA"
"2017-09-01 05:00","2017","09","01","05:00","6.1","","4.4","","89","","","M","","M","","","99.13","","","","","","NA"
"2017-09-01 06:00","2017","09","01","06:00","3.8","","2.6","","91","","","M","","M","","","99.13","","","","","","NA"
"2017-09-01 07:00","2017","09","01","07:00","7.3","","5.0","","85","","","M","","M","","","99.18","","","","","","NA"
"2017-09-01 08:00","2017","09","01","08:00","9.7","","6.1","","78","","","M","","M","","","99.21","","","","","","NA"
"2017-09-01 09:00","2017","09","01","09:00","12.3","","6.3","","67","","","M","","M","","","99.22","","","","","","NA"
"2017-09-01 10:00","2017","09","01","10:00","13.4","","5.0","","57","","","M","","M","","","99.21","","","","","","NA"
"2017-09-01 11:00","2017","09","01","11:00","14.8","","4.8","","51","","","M","","M","","","99.17","","","","","","NA"
"2017-09-01 12:00","2017","09","01","12:00","15.3","","3.7","","46","","","M","","M","","","99.10","","","","","","NA"
"2017-09-01 13:00","2017","09","01","13:00","15.8","","4.0","","45","","","M","","M","","","99.09","","","","","","NA"
"2017-09-01 14:00","2017","09","01","14:00","16.6","","5.6","","48","","","M","","M","","","99.05","","","","","","NA"
"2017-09-01 15:00","2017","09","01","15:00","16.6","","4.5","","45","","","M","","M","","","99.00","","","","","","NA"
"2017-09-01 16:00","2017","09","01","16:00","16.6","","5.5","","48","","","M","","M","","","98.97","","","","","","NA"
"2017-09-01 17:00","2017","09","01","17:00","16.8","","5.5","","47","","","M","","M","","","98.93","","","","","","NA"
"2017-09-01 18:00","2017","09","01","18:00","15.6","","6.7","","55","","","M","","M","","","98.90","","","","","","NA"
"2017-09-01 19:00","2017","09","01","19:00","13.4","","7.4","","67","","","M","","M","","","98.89","","","","","","NA"
"2017-09-01 20:00","2017","09","01","20:00","12.6","","7.6","","72","","","M","","M","","","98.92","","","","","","NA"
"2017-09-01 21:00","2017","09","01","21:00","10.8","","7.4","","79","","","M","","M","","","98.91","","","","","","NA"
"2017-09-01 22:00","2017","09","01","22:00","10.3","","7.3","","81","","","M","","M","","","98.94","","","","","","NA"
"2017-09-01 23:00","2017","09","01","23:00","9.1","","6.8","","86","","","M","","M","","","98.95","","","","","","NA"
"2017-09-02 00:00","2017","09","02","00:00","7.6","","5.7","","88","","","M","","M","","","98.94","","","","","","NA"
"2017-09-02 01:00","2017","09","02","01:00","7.1","","5.0","","87","","","M","","M","","","98.92","","","","","","NA"
"2017-09-02 02:00","2017","09","02","02:00","8.0","","4.8","","81","","","M","","M","","","98.85","","","","","","NA"
"2017-09-02 03:00","2017","09","02","03:00","7.3","","5.1","","86","","","M","","M","","","98.79","","","","","","NA"
"2017-09-02 04:00","2017","09","02","04:00","7.5","","4.6","","82","","","M","","M","","","98.70","","","","","","NA"
"2017-09-02 05:00","2017","09","02","05:00","7.3","","4.7","","84","","","M","","M","","","98.70","","","","","","NA"
"2017-09-02 06:00","2017","09","02","06:00","7.1","","4.9","","86","","","M","","M","","","98.73","","","","","","NA"
"2017-09-02 07:00","2017","09","02","07:00","9.1","","5.8","","80","","","M","","M","","","98.68","","","","","","NA"
"2017-09-02 08:00","2017","09","02","08:00","12.4","","6.3","","66","","","M","","M","","","98.66","","","","","","NA"
"2017-09-02 09:00","2017","09","02","09:00","15.5","","3.1","","43","","","M","","M","","","98.64","","","","","","NA"
"2017-09-02 10:00","2017","09","02","10:00","17.3","","-0.3","","30","","","M","","M","","","98.59","","","","","","NA"
"2017-09-02 11:00","2017","09","02","11:00","18.7","","2.4","","34","","","M","","M","","","98.55","","","","","","NA"
"2017-09-02 12:00","2017","09","02","12:00","19.9","","4.8","","37","","","M","","M","","","98.47","","","","","","NA"
"2017-09-02 13:00","2017","09","02","13:00","22.3","","8.7","","42","","","M","","M","","","98.40","","","","","","NA"
"2017-09-02 14:00","2017","09","02","14:00","18.5","","8.0","","50","","","M","","M","","","98.40","","","","","","NA"
"2017-09-02 15:00","2017","09","02","15:00","17.5","","8.0","","54","","","M","","M","","","98.36","","","","","","NA"
"2017-09-02 16:00","2017","09","02","16:00","18.1","","9.2","","56","","","M","","M","","","98.28","","","","","","NA"
"2017-09-02 17:00","2017","09","02","17:00","16.6","","11.4","","71","","","M","","M","","","98.27","","","","","","NA"
"2017-09-02 18:00","2017","09","02","18:00","15.1","","12.6","","85","","","M","","M","","","98.27","","","","","","NA"
"2017-09-02 19:00","2017","09","02","19:00","14.3","","12.9","","92","","","M","","M","","","98.24","","","","","","NA"
"2017-09-02 20:00","2017","09","02","20:00","14.2","","12.8","","91","","","M","","M","","","98.21","","","","","","NA"
"2017-09-02 21:00","2017","09","02","21:00","14.0","","13.0","","94","","","M","","M","","","98.17","","","","","","NA"
"2017-09-02 22:00","2017","09","02","22:00","14.0","","13.0","","94","","","M","","M","","","98.11","","","","","","NA"
"2017-09-02 23:00","2017","09","02","23:00","13.8","","13.1","","96","","","M","","M","","","98.05","","","","","","NA"
"2017-09-03 00:00","2017","09","03","00:00","14.0","","13.4","","96","","","M","","M","","","97.97","","","","","","NA"
"2017-09-03 01:00","2017","09","03","01:00","14.6","","14.0","","96","","","M","","M","","","97.89","","","","","","NA"
"2017-09-03 02:00","2017","09","03","02:00","14.2","","13.6","","96","","","M","","M","","","97.86","","","","","","NA"
"2017-09-03 03:00","2017","09","03","03:00","14.1","","13.5","","96","","","M","","M","","","97.84","","","","","","NA"
"2017-09-03 04:00","2017","09","03","04:00","14.3","","13.6","","95","","","M","","M","","","97.84","","","","","","NA"
"2017-09-03 05:00","2017","09","03","05:00","13.9","","13.2","","96","","","M","","M","","","97.86","","","","","","NA"
"2017-09-03 06:00","2017","09","03","06:00","14.1","","13.4","","96","","","M","","M","","","97.89","","","","","","NA"
"2017-09-03 07:00","2017","09","03","07:00","14.7","","13.8","","95","","","M","","M","","","97.90","","","","","","NA"
"2017-09-03 08:00","2017","09","03","08:00","14.8","","13.3","","91","","","M","","M","","","97.94","","","","","","NA"
"2017-09-03 09:00","2017","09","03","09:00","14.8","","12.7","","87","","","M","","M","","","97.95","","","","","","NA"
"2017-09-03 10:00","2017","09","03","10:00","16.4","","12.5","","78","","","M","","M","","","97.97","","","","","","NA"
"2017-09-03 11:00","2017","09","03","11:00","18.2","","11.8","","66","","","M","","M","","","97.99","","","","","","NA"
"2017-09-03 12:00","2017","09","03","12:00","19.3","","11.0","","59","","","M","","M","","","97.99","","","","","","NA"
"2017-09-03 13:00","2017","09","03","13:00","19.0","","11.2","","61","","","M","","M","","","98.00","","","","","","NA"
"2017-09-03 14:00","2017","09","03","14:00","18.8","","12.9","","68","","","M","","M","","","98.02","","","","","","NA"
"2017-09-03 15:00","2017","09","03","15:00","20.0","","13.4","","66","","","M","","M","","","98.01","","","","","","NA"
"2017-09-03 16:00","2017","09","03","16:00","19.4","","12.5","","64","","","M","","M","","","98.01","","","","","","NA"
"2017-09-03 17:00","2017","09","03","17:00","20.6","","12.4","","59","","","M","","M","","","98.03","","","","","","NA"
"2017-09-03 18:00","2017","09","03","18:00","19.8","","12.6","","63","","","M","","M","","","98.07","","","","","","NA"
"2017-09-03 19:00","2017","09","03","19:00","18.1","","12.7","","71","","","M","","M","","","98.07","","","","","","NA"
"2017-09-03 20:00","2017","09","03","20:00","17.5","","13.1","","75","","","M","","M","","","98.08","","","","","","NA"
"2017-09-03 21:00","2017","09","03","21:00","17.2","","13.1","","77","","","M","","M","","","98.06","","","","","","NA"
"2017-09-03 22:00","2017","09","03","22:00","16.4","","12.9","","80","","","M","","M","","","98.04","","","","","","NA"
"2017-09-03 23:00","2017","09","03","23:00","16.0","","12.5","","80","","","M","","M","","","98.01","","","","","","NA"
"2017-09-04 00:00","2017","09","04","00:00","16.1","","12.1","","77","","","M","","M","","","97.98","","","","","","NA"
"2017-09-04 01:00","2017","09","04","01:00","16.5","","12.6","","78","","","M","","M","","","97.96","","","","","","NA"
"2017-09-04 02:00","2017","09","04","02:00","15.9","","12.6","","81","","","M","","M","","","97.94","","","","","","NA"
"2017-09-04 03:00","2017","09","04","03:00","15.4","","12.8","","84","","","M","","M","","","97.89","","","","","","NA"
"2017-09-04 04:00","2017","09","04","04:00","15.7","","12.6","","82","","","M","","M","","","97.83","","","","","","NA"
"2017-09-04 05:00","2017","09","04","05:00","15.7","","12.2","","79","","","M","","M","","","97.82","","","","","","NA"
"2017-09-04 06:00","2017","09","04","06:00","15.4","","11.5","","78","","","M","","M","","","97.83","","","","","","NA"
"2017-09-04 07:00","2017","09","04","07:00","16.7","","12.6","","77","","","M","","M","","","97.80","","","","","","NA"
"2017-09-04 08:00","2017","09","04","08:00","18.4","","13.7","","74","","","M","","M","","","97.77","","","","","","NA"
"2017-09-04 09:00","2017","09","04","09:00","20.6","","14.7","","69","","","M","","M","","","97.74","","","","","","NA"
"2017-09-04 10:00","2017","09","04","10:00","22.4","","14.4","","61","","","M","","M","","","97.66","","26","","","","NA"
"2017-09-04 11:00","2017","09","04","11:00","23.6","","15.0","","59","","","M","","M","","","97.53","","28","","","","NA"
"2017-09-04 12:00","2017","09","04","12:00","24.3","","14.7","","55","","","M","","M","","","97.40","","28","","","","NA"
"2017-09-04 13:00","2017","09","04","13:00","24.7","","14.1","","52","","","M","","M","","","97.28","","28","","","","NA"
"2017-09-04 14:00","2017","09","04","14:00","24.2","","16.2","","61","","","M","","M","","","97.13","","29","","","","NA"
"2017-09-04 15:00","2017","09","04","15:00","24.7","","14.8","","54","","","M","","M","","","97.02","","29","","","","NA"
"2017-09-04 16:00","2017","09","04","16:00","25.1","","14.9","","53","","","M","","M","","","96.96","","29","","","","NA"
"2017-09-04 17:00","2017","09","04","17:00","24.7","","15.3","","56","","","M","","M","","","96.91","","29","","","","NA"
"2017-09-04 18:00","2017","09","04","18:00","22.7","","17.5","","72","","","M","","M","","","96.90","","28","","","","NA"
"2017-09-04 19:00","2017","09","04","19:00","18.5","","17.3","","93","","","M","","M","","","97.12","","","","","","NA"
"2017-09-04 20:00","2017","09","04","20:00","17.3","","16.2","","93","","","M","","M","","","97.17","","","","","","NA"
"2017-09-04 21:00","2017","09","04","21:00","16.7","","14.7","","88","","","M","","M","","","97.26","","","","","","NA"
"2017-09-04 22:00","2017","09","04","22:00","15.8","","14.2","","90","","","M","","M","","","97.30","","","","","","NA"
"2017-09-04 23:00","2017","09","04","23:00","15.0","","14.0","","94","","","M","","M","","","97.38","","","","","","NA"
"2017-09-05 00:00","2017","09","05","00:00","14.6","","13.7","","94","","","M","","M","","","97.37","","","","","","NA"
"2017-09-05 01:00","2017","09","05","01:00","14.8","","14.0","","95","","","M","","M","","","97.39","","","","","","NA"
"2017-09-05 02:00","2017","09","05","02:00","14.6","","13.8","","95","","","M","","M","","","97.41","","","","","","NA"
"2017-09-05 03:00","2017","09","05","03:00","14.1","","13.4","","96","","","M","","M","","","97.37","","","","","","NA"
"2017-09-05 04:00","2017","09","05","04:00","14.2","","13.6","","97","","","M","","M","","","97.41","","","","","","NA"
"2017-09-05 05:00","2017","09","05","05:00","14.1","","13.7","","97","","","M","","M","","","97.44","","","","","","NA"
"2017-09-05 06:00","2017","09","05","06:00","14.0","","13.6","","97","","","M","","M","","","97.46","","","","","","NA"
"2017-09-05 07:00","2017","09","05","07:00","14.1","","13.7","","97","","","M","","M","","","97.49","","","","","","NA"
"2017-09-05 08:00","2017","09","05","08:00","14.3","","13.7","","96","","","M","","M","","","97.47","","","","","","NA"
"2017-09-05 09:00","2017","09","05","09:00","16.4","","14.2","","87","","","M","","M","","","97.46","","","","","","NA"
"2017-09-05 10:00","2017","09","05","10:00","18.1","","12.9","","72","","","M","","M","","","97.48","","","","","","NA"
"2017-09-05 11:00","2017","09","05","11:00","17.5","","13.1","","75","","","M","","M","","","97.47","","","","","","NA"
"2017-09-05 12:00","2017","09","05","12:00","17.9","","13.2","","74","","","M","","M","","","97.47","","","","","","NA"
"2017-09-05 13:00","2017","09","05","13:00","19.1","","12.5","","66","","","M","","M","","","97.49","","","","","","NA"
"2017-09-05 14:00","2017","09","05","14:00","18.8","","11.0","","60","","","M","","M","","","97.51","","","","","","NA"
"2017-09-05 15:00","2017","09","05","15:00","19.1","","10.2","","56","","","M","","M","","","97.51","","","","","","NA"
"2017-09-05 16:00","2017","09","05","16:00","19.7","","10.0","","53","","","M","","M","","","97.52","","","","","","NA"
"2017-09-05 17:00","2017","09","05","17:00","18.9","","10.2","","57","","","M","","M","","","97.56","","","","","","NA"
"2017-09-05 18:00","2017","09","05","18:00","17.8","","10.2","","61","","","M","","M","","","97.59","","","","","","NA"
"2017-09-05 19:00","2017","09","05","19:00","16.0","","10.9","","72","","","M","","M","","","97.64","","","","","","NA"
"2017-09-05 20:00","2017","09","05","20:00","15.0","","11.6","","81","","","M","","M","","","97.73","","","","","","NA"
"2017-09-05 21:00","2017","09","05","21:00","12.7","","11.1","","90","","","M","","M","","","97.80","","","","","","NA"
"2017-09-05 22:00","2017","09","05","22:00","12.1","","10.9","","93","","","M","","M","","","97.80","","","","","","NA"
"2017-09-05 23:00","2017","09","05","23:00","12.5","","11.2","","92","","","M","","M","","","97.86","","","","","","NA"
"2017-09-06 00:00","2017","09","06","00:00","11.3","","10.2","","93","","","M","","M","","","97.82","","","","","","NA"
"2017-09-06 01:00","2017","09","06","01:00","10.3","","9.6","","96","","","M","","M","","","97.78","","","","","","NA"
"2017-09-06 02:00","2017","09","06","02:00","10.2","","9.5","","96","","","M","","M","","","97.79","","","","","","NA"
"2017-09-06 03:00","2017","09","06","03:00","9.3","","8.6","","96","","","M","","M","","","97.82","","","","","","NA"
"2017-09-06 04:00","2017","09","06","04:00","9.2","","8.6","","96","","","M","","M","","","97.86","","","","","","NA"
"2017-09-06 05:00","2017","09","06","05:00","9.4","","8.8","","96","","","M","","M","","","97.88","","","","","","NA"
"2017-09-06 06:00","2017","09","06","06:00","8.7","","8.3","","97","","","M","","M","","","97.91","","","","","","NA"
"2017-09-06 07:00","2017","09","06","07:00","10.5","","9.9","","97","","","M","","M","","","97.93","","","","","","NA"
"2017-09-06 08:00","2017","09","06","08:00","12.8","","10.6","","87","","","M","","M","","","97.97","","","","","","NA"
"2017-09-06 09:00","2017","09","06","09:00","14.8","","11.1","","78","","","M","","M","","","98.00","","","","","","NA"
"2017-09-06 10:00","2017","09","06","10:00","15.6","","9.6","","67","","","M","","M","","","98.02","","","","","","NA"
"2017-09-06 11:00","2017","09","06","11:00","16.6","","8.7","","60","","","M","","M","","","98.01","","","","","","NA"
"2017-09-06 12:00","2017","09","06","12:00","18.3","","9.5","","57","","","M","","M","","","97.98","","","","","","NA"
"2017-09-06 13:00","2017","09","06","13:00","17.5","","8.4","","55","","","M","","M","","","97.98","","","","","","NA"
"2017-09-06 14:00","2017","09","06","14:00","17.7","","7.6","","52","","","M","","M","","","97.98","","","","","","NA"
"2017-09-06 15:00","2017","09","06","15:00","17.8","","8.1","","53","","","M","","M","","","97.95","","","","","","NA"
"2017-09-06 16:00","2017","09","06","16:00","17.3","","7.8","","54","","","M","","M","","","97.96","","","","","","NA"
"2017-09-06 17:00","2017","09","06","17:00","16.5","","7.6","","55","","","M","","M","","","97.97","","","","","","NA"
"2017-09-06 18:00","2017","09","06","18:00","16.2","","8.9","","62","","","M","","M","","","97.96","","","","","","NA"
"2017-09-06 19:00","2017","09","06","19:00","14.9","","8.4","","65","","","M","","M","","","97.98","","","","","","NA"
"2017-09-06 20:00","2017","09","06","20:00","14.5","","8.9","","69","","","M","","M","","","98.02","","","","","","NA"
"2017-09-06 21:00","2017","09","06","21:00","13.9","","9.3","","74","","","M","","M","","","98.01","","","","","","NA"
"2017-09-06 22:00","2017","09","06","22:00","11.0","","9.3","","90","","","M","","M","","","98.00","","","","","","NA"
"2017-09-06 23:00","2017","09","06","23:00","9.7","","8.7","","94","","","M","","M","","","98.00","","","","","","NA"
"2017-09-07 00:00","2017","09","07","00:00","9.5","","8.7","","95","","","M","","M","","","97.98","","","","","","NA"
"2017-09-07 01:00","2017","09","07","01:00","9.6","","8.5","","93","","","M","","M","","","97.95","","","","","","NA"
"2017-09-07 02:00","2017","09","07","02:00","8.4","","7.8","","96","","","M","","M","","","97.91","","","","","","NA"
"2017-09-07 03:00","2017","09","07","03:00","8.9","","8.3","","97","","","M","","M","","","97.89","","","","","","NA"
"2017-09-07 04:00","2017","09","07","04:00","8.0","","7.1","","94","","","M","","M","","","97.87","","","","","","NA"
"2017-09-07 05:00","2017","09","07","05:00","8.0","","7.0","","93","","","M","","M","","","97.87","","","","","","NA"
"2017-09-07 06:00","2017","09","07","06:00","7.9","","7.3","","96","","","M","","M","","","97.87","","","","","","NA"
"2017-09-07 07:00","2017","09","07","07:00","10.9","","10.1","","95","","","M","","M","","","97.89","","","","","","NA"
"2017-09-07 08:00","2017","09","07","08:00","12.8","","11.0","","89","","","M","","M","","","97.91","","","","","","NA"
"2017-09-07 09:00","2017","09","07","09:00","13.8","","10.8","","82","","","M","","M","","","97.95","","","","","","NA"
"2017-09-07 10:00","2017","09","07","10:00","15.1","","9.8","","71","","","M","","M","","","97.96","","","","","","NA"
"2017-09-07 11:00","2017","09","07","11:00","15.9","","9.3","","65","","","M","","M","","","97.97","","","","","","NA"
"2017-09-07 12:00","2017","09","07","12:00","17.1","","10.1","","63","","","M","","M","","","97.97","","","","","","NA"
"2017-09-07 13:00","2017","09","07","13:00","17.4","","8.9","","57","","","M","","M","","","97.99","","","","","","NA"
"2017-09-07 14:00","2017","09","07","14:00","15.8","","9.3","","65","","","M","","M","","","98.00","","","","","","NA"
"2017-09-07 15:00","2017","09","07","15:00","17.3","","8.8","","57","","","M","","M","","","98.02","","","","","","NA"
"2017-09-07 16:00","2017","09","07","16:00","15.1","","9.2","","68","","","M","","M","","","98.08","","","","","","NA"
"2017-09-07 17:00","2017","09","07","17:00","14.4","","9.6","","73","","","M","","M","","","98.09","","","","","","NA"
"2017-09-07 18:00","2017","09","07","18:00","12.8","","10.7","","87","","","M","","M","","","98.12","","","","","","NA"
"2017-09-07 19:00","2017","09","07","19:00","13.1","","9.9","","81","","","M","","M","","","98.16","","","","","","NA"
"2017-09-07 20:00","2017","09","07","20:00","11.9","","9.9","","88","","","M","","M","","","98.20","","","","","","NA"
"2017-09-07 21:00","2017","09","07","21:00","11.5","","9.6","","88","","","M","","M","","","98.24","","","","","","NA"
"2017-09-07 22:00","2017","09","07","22:00","11.3","","10.1","","92","","","M","","M","","","98.23","","","","","","NA"
"2017-09-07 23:00","2017","09","07","23:00","11.2","","10.0","","93","","","M","","M","","","98.27","","","","","","NA"
"2017-09-08 00:00","2017","09","08","00:00","11.2","","10.0","","93","","","M","","M","","","98.32","","","","","","NA"
"2017-09-08 01:00","2017","09","08","01:00","11.1","","10.0","","93","","","M","","M","","","98.32","","","","","","NA"
"2017-09-08 02:00","2017","09","08","02:00","11.4","","10.3","","93","","","M","","M","","","98.34","","","","","","NA"
"2017-09-08 03:00","2017","09","08","03:00","11.4","","10.5","","94","","","M","","M","","","98.37","","","","","","NA"
"2017-09-08 04:00","2017","09","08","04:00","10.9","","10.0","","94","","","M","","M","","","98.41","","","","","","NA"
"2017-09-08 05:00","2017","09","08","05:00","10.9","","10.1","","95","","","M","","M","","","98.48","","","","","","NA"
"2017-09-08 06:00","2017","09","08","06:00","10.6","","9.7","","94","","","M","","M","","","98.56","","","","","","NA"
"2017-09-08 07:00","2017","09","08","07:00","11.1","","10.2","","94","","","M","","M","","","98.62","","","","","","NA"
"2017-09-08 08:00","2017","09","08","08:00","11.5","","10.3","","93","","","M","","M","","","98.68","","","","","","NA"
"2017-09-08 09:00","2017","09","08","09:00","12.8","","10.9","","88","","","M","","M","","","98.73","","","","","","NA"
"2017-09-08 10:00","2017","09","08","10:00","14.6","","10.3","","76","","","M","","M","","","98.79","","","","","","NA"
"2017-09-08 11:00","2017","09","08","11:00","14.8","","8.8","","67","","","M","","M","","","98.83","","","","","","NA"
"2017-09-08 12:00","2017","09","08","12:00","15.8","","8.6","","62","","","M","","M","","","98.89","","","","","","NA"
"2017-09-08 13:00","2017","09","08","13:00","16.1","","8.7","","61","","","M","","M","","","98.93","","","","","","NA"
"2017-09-08 14:00","2017","09","08","14:00","16.3","","9.0","","62","","","M","","M","","","98.96","","","","","","NA"
"2017-09-08 15:00","2017","09","08","15:00","16.7","","8.7","","59","","","M","","M","","","98.98","","","","","","NA"
"2017-09-08 16:00","2017","09","08","16:00","15.6","","9.1","","65","","","M","","M","","","99.00","","","","","","NA"
"2017-09-08 17:00","2017","09","08","17:00","16.0","","7.8","","58","","","M","","M","","","99.05","","","","","","NA"
"2017-09-08 18:00","2017","09","08","18:00","14.6","","7.2","","61","","","M","","M","","","99.11","","","","","","NA"
"2017-09-08 19:00","2017","09","08","19:00","12.7","","7.5","","70","","","M","","M","","","99.16","","","","","","NA"
"2017-09-08 20:00","2017","09","08","20:00","11.2","","7.3","","77","","","M","","M","","","99.24","","","","","","NA"
"2017-09-08 21:00","2017","09","08","21:00","9.5","","6.8","","83","","","M","","M","","","99.30","","","","","","NA"
"2017-09-08 22:00","2017","09","08","22:00","8.5","","6.3","","86","","","M","","M","","","99.33","","","","","","NA"
"2017-09-08 23:00","2017","09","08","23:00","7.8","","5.9","","88","","","M","","M","","","99.39","","","","","","NA"
"2017-09-09 00:00","2017","09","09","00:00","7.3","","5.6","","89","","","M","","M","","","99.44","","","","","","NA"
"2017-09-09 01:00","2017","09","09","01:00","7.1","","5.6","","90","","","M","","M","","","99.48","","","","","","NA"
"2017-09-09 02:00","2017","09","09","02:00","7.0","","5.6","","91","","","M","","M","","","99.52","","","","","","NA"
"2017-09-09 03:00","2017","09","09","03:00","6.7","","5.3","","91","","","M","","M","","","99.54","","","","","","NA"
"2017-09-09 04:00","2017","09","09","04:00","5.4","","4.4","","93","","","M","","M","","","99.56","","","","","","NA"
"2017-09-09 05:00","2017","09","09","05:00","6.1","","4.7","","91","","","M","","M","","","99.63","","","","","","NA"
"2017-09-09 06:00","2017","09","09","06:00","6.2","","4.6","","89","","","M","","M","","","99.71","","","","","","NA"
"2017-09-09 07:00","2017","09","09","07:00","7.1","","5.3","","88","","","M","","M","","","99.74","","","","","","NA"
"2017-09-09 08:00","2017","09","09","08:00","10.4","","5.8","","73","","","M","","M","","","99.77","","","","","","NA"
"2017-09-09 09:00","2017","09","09","09:00","12.6","","5.6","","63","","","M","","M","","","99.82","","","","","","NA"
"2017-09-09 10:00","2017","09","09","10:00","13.0","","3.8","","53","","","M","","M","","","99.84","","","","","","NA"
"2017-09-09 11:00","2017","09","09","11:00","14.4","","4.2","","50","","","M","","M","","","99.83","","","","","","NA"
"2017-09-09 12:00","2017","09","09","12:00","15.0","","4.1","","48","","","M","","M","","","99.83","","","","","","NA"
"2017-09-09 13:00","2017","09","09","13:00","16.0","","4.3","","46","","","M","","M","","","99.80","","","","","","NA"
"2017-09-09 14:00","2017","09","09","14:00","16.5","","4.6","","45","","","M","","M","","","99.74","","","","","","NA"
"2017-09-09 15:00","2017","09","09","15:00","17.4","","5.7","","46","","","M","","M","","","99.71","","","","","","NA"
"2017-09-09 16:00","2017","09","09","16:00","16.9","","5.1","","46","","","M","","M","","","99.67","","","","","","NA"
"2017-09-09 17:00","2017","09","09","17:00","16.5","","4.6","","45","","","M","","M","","","99.67","","","","","","NA"
"2017-09-09 18:00","2017","09","09","18:00","16.3","","5.2","","48","","","M","","M","","","99.67","","","","","","NA"
"2017-09-09 19:00","2017","09","09","19:00","14.2","","6.9","","62","","","M","","M","","","99.66","","","","","","NA"
"2017-09-09 20:00","2017","09","09","20:00","11.1","","7.2","","77","","","M","","M","","","99.72","","","","","","NA"
"2017-09-09 21:00","2017","09","09","21:00","11.5","","7.0","","74","","","M","","M","","","99.75","","","","","","NA"
"2017-09-09 22:00","2017","09","09","22:00","9.8","","5.8","","76","","","M","","M","","","99.76","","","","","","NA"
"2017-09-09 23:00","2017","09","09","23:00","8.5","","5.0","","79","","","M","","M","","","99.80","","","","","","NA"
"2017-09-10 00:00","2017","09","10","00:00","6.7","","5.1","","90","","","M","","M","","","99.77","","","","","","NA"
"2017-09-10 01:00","2017","09","10","01:00","7.2","","4.7","","84","","","M","","M","","","99.77","","","","","","NA"
"2017-09-10 02:00","2017","09","10","02:00","6.5","","4.1","","85","","","M","","M","","","99.79","","","","","","NA"
"2017-09-10 03:00","2017","09","10","03:00","6.6","","4.4","","86","","","M","","M","","","99.80","","","","","","NA"
"2017-09-10 04:00","2017","09","10","04:00","6.7","","4.5","","86","","","M","","M","","","99.80","","","","","","NA"
"2017-09-10 05:00","2017","09","10","05:00","6.6","","4.6","","87","","","M","","M","","","99.83","","","","","","NA"
"2017-09-10 06:00","2017","09","10","06:00","6.4","","4.5","","88","","","M","","M","","","99.91","","","","","","NA"
"2017-09-10 07:00","2017","09","10","07:00","7.7","","5.3","","85","","","M","","M","","","99.98","","","","","","NA"
"2017-09-10 08:00","2017","09","10","08:00","11.0","","7.2","","77","","","M","","M","","","100.00","","","","","","NA"
"2017-09-10 09:00","2017","09","10","09:00","13.9","","7.5","","65","","","M","","M","","","100.02","","","","","","NA"
"2017-09-10 10:00","2017","09","10","10:00","16.0","","8.1","","59","","","M","","M","","","100.02","","","","","","NA"
"2017-09-10 11:00","2017","09","10","11:00","16.7","","7.6","","55","","","M","","M","","","99.99","","","","","","NA"
"2017-09-10 12:00","2017","09","10","12:00","17.9","","9.1","","56","","","M","","M","","","99.94","","","","","","NA"
"2017-09-10 13:00","2017","09","10","13:00","18.8","","9.0","","53","","","M","","M","","","99.89","","","","","","NA"
"2017-09-10 14:00","2017","09","10","14:00","19.0","","7.4","","47","","","M","","M","","","99.82","","","","","","NA"
"2017-09-10 15:00","2017","09","10","15:00","19.0","","6.8","","45","","","M","","M","","","99.76","","","","","","NA"
"2017-09-10 16:00","2017","09","10","16:00","19.3","","8.0","","48","","","M","","M","","","99.73","","","","","","NA"
"2017-09-10 17:00","2017","09","10","17:00","19.3","","8.1","","48","","","M","","M","","","99.72","","","","","","NA"
"2017-09-10 18:00","2017","09","10","18:00","17.6","","8.8","","56","","","M","","M","","","99.72","","","","","","NA"
"2017-09-10 19:00","2017","09","10","19:00","14.2","","8.7","","69","","","M","","M","","","99.72","","","","","","NA"
"2017-09-10 20:00","2017","09","10","20:00","12.7","","9.6","","81","","","M","","M","","","99.75","","","","","","NA"
"2017-09-10 21:00","2017","09","10","21:00","11.7","","9.9","","89","","","M","","M","","","99.73","","","","","","NA"
"2017-09-10 22:00","2017","09","10","22:00","10.5","","8.7","","89","","","M","","M","","","99.75","","","","","","NA"
"2017-09-10 23:00","2017","09","10","23:00","10.2","","8.8","","91","","","M","","M","","","99.73","","","","","","NA"
"2017-09-11 00:00","2017","09","11","00:00","9.4","","8.0","","92","","","M","","M","","","99.67","","","","","","NA"
"2017-09-11 01:00","2017","09","11","01:00","8.2","","6.9","","92","","","M","","M","","","99.64","","","","","","NA"
"2017-09-11 02:00","2017","09","11","02:00","8.1","","6.8","","91","","","M","","M","","","99.58","","","","","","NA"
"2017-09-11 03:00","2017","09","11","03:00","7.3","","5.6","","89","","","M","","M","","","99.51","","","","","","NA"
"2017-09-11 04:00","2017","09","11","04:00","6.8","","5.0","","88","","","M","","M","","","99.51","","","","","","NA"
"2017-09-11 05:00","2017","09","11","05:00","7.3","","5.3","","87","","","M","","M","","","99.51","","","","","","NA"
"2017-09-11 06:00","2017","09","11","06:00","6.5","","4.1","","85","","","M","","M","","","99.55","","","","","","NA"
"2017-09-11 07:00","2017","09","11","07:00","7.9","","5.5","","85","","","M","","M","","","99.58","","","","","","NA"
"2017-09-11 08:00","2017","09","11","08:00","12.1","","8.7","","80","","","M","","M","","","99.54","","","","","","NA"
"2017-09-11 09:00","2017","09","11","09:00","15.2","","10.9","","75","","","M","","M","","","99.52","","","","","","NA"
"2017-09-11 10:00","2017","09","11","10:00","17.3","","11.3","","68","","","M","","M","","","99.49","","","","","","NA"
"2017-09-11 11:00","2017","09","11","11:00","18.3","","10.4","","60","","","M","","M","","","99.41","","","","","","NA"
"2017-09-11 12:00","2017","09","11","12:00","19.5","","9.9","","54","","","M","","M","","","99.36","","","","","","NA"
"2017-09-11 13:00","2017","09","11","13:00","20.3","","9.5","","50","","","M","","M","","","99.30","","","","","","NA"
"2017-09-11 14:00","2017","09","11","14:00","21.3","","7.8","","42","","","M","","M","","","99.21","","","","","","NA"
"2017-09-11 15:00","2017","09","11","15:00","21.7","","9.0","","44","","","M","","M","","","99.13","","","","","","NA"
"2017-09-11 16:00","2017","09","11","16:00","21.7","","9.2","","45","","","M","","M","","","99.04","","","","","","NA"
"2017-09-11 17:00","2017","09","11","17:00","21.2","","9.4","","47","","","M","","M","","","99.00","","","","","","NA"
"2017-09-11 18:00","2017","09","11","18:00","19.7","","11.2","","58","","","M","","M","","","98.95","","","","","","NA"
"2017-09-11 19:00","2017","09","11","19:00","16.6","","11.1","","70","","","M","","M","","","98.89","","","","","","NA"
"2017-09-11 20:00","2017","09","11","20:00","15.3","","11.3","","77","","","M","","M","","","98.89","","","","","","NA"
"2017-09-11 21:00","2017","09","11","21:00","14.4","","11.2","","81","","","M","","M","","","98.85","","","","","","NA"
"2017-09-11 22:00","2017","09","11","22:00","12.1","","9.8","","86","","","M","","M","","","98.84","","","","","","NA"
"2017-09-11 23:00","2017","09","11","23:00","12.9","","10.1","","83","","","M","","M","","","98.79","","","","","","NA"
"2017-09-12 00:00","2017","09","12","00:00","11.1","","9.4","","89","","","M","","M","","","98.75","","","","","","NA"
"2017-09-12 01:00","2017","09","12","01:00","9.6","","8.2","","91","","","M","","M","","","98.71","","","","","","NA"
"2017-09-12 02:00","2017","09","12","02:00","9.4","","8.0","","91","","","M","","M","","","98.65","","","","","","NA"
"2017-09-12 03:00","2017","09","12","03:00","9.1","","8.2","","94","","","M","","M","","","98.64","","","","","","NA"
"2017-09-12 04:00","2017","09","12","04:00","8.7","","7.7","","94","","","M","","M","","","98.59","","","","","","NA"
"2017-09-12 05:00","2017","09","12","05:00","8.3","","7.4","","94","","","M","","M","","","98.56","","","","","","NA"
"2017-09-12 06:00","2017","09","12","06:00","7.8","","6.7","","93","","","M","","M","","","98.56","","","","","","NA"
"2017-09-12 07:00","2017","09","12","07:00","8.9","","7.5","","91","","","M","","M","","","98.56","","","","","","NA"
"2017-09-12 08:00","2017","09","12","08:00","13.1","","11.0","","87","","","M","","M","","","98.55","","","","","","NA"
"2017-09-12 09:00","2017","09","12","09:00","16.4","","13.0","","80","","","M","","M","","","98.56","","","","","","NA"
"2017-09-12 10:00","2017","09","12","10:00","19.2","","13.3","","69","","","M","","M","","","98.51","","","","","","NA"
"2017-09-12 11:00","2017","09","12","11:00","20.9","","11.6","","55","","","M","","M","","","98.48","","","","","","NA"
"2017-09-12 12:00","2017","09","12","12:00","21.8","","10.5","","49","","","M","","M","","","98.42","","","","","","NA"
"2017-09-12 13:00","2017","09","12","13:00","22.8","","9.8","","44","","","M","","M","","","98.36","","","","","","NA"
"2017-09-12 14:00","2017","09","12","14:00","23.4","","9.5","","41","","","M","","M","","","98.29","","","","","","NA"
"2017-09-12 15:00","2017","09","12","15:00","24.4","","10.2","","41","","","M","","M","","","98.22","","26","","","","NA"
"2017-09-12 16:00","2017","09","12","16:00","24.2","","10.9","","43","","","M","","M","","","98.13","","26","","","","NA"
"2017-09-12 17:00","2017","09","12","17:00","24.0","","11.4","","45","","","M","","M","","","98.08","","26","","","","NA"
"2017-09-12 18:00","2017","09","12","18:00","22.5","","12.7","","54","","","M","","M","","","98.08","","25","","","","NA"
"2017-09-12 19:00","2017","09","12","19:00","18.7","","12.8","","68","","","M","","M","","","98.07","","","","","","NA"
"2017-09-12 20:00","2017","09","12","20:00","17.2","","12.4","","73","","","M","","M","","","98.08","","","","","","NA"
"2017-09-12 21:00","2017","09","12","21:00","15.4","","11.9","","80","","","M","","M","","","98.06","","","","","","NA"
"2017-09-12 22:00","2017","09","12","22:00","14.0","","11.7","","86","","","M","","M","","","98.02","","","","","","NA"
"2017-09-12 23:00","2017","09","12","23:00","12.9","","11.1","","89","","","M","","M","","","98.00","","","","","","NA"
"2017-09-13 00:00","2017","09","13","00:00","11.8","","10.4","","91","","","M","","M","","","97.97","","","","","","NA"
"2017-09-13 01:00","2017","09","13","01:00","11.2","","10.0","","93","","","M","","M","","","97.96","","","","","","NA"
"2017-09-13 02:00","2017","09","13","02:00","11.0","","9.3","","89","","","M","","M","","","97.92","","","","","","NA"
"2017-09-13 03:00","2017","09","13","03:00","11.5","","9.7","","88","","","M","","M","","","97.86","","","","","","NA"
"2017-09-13 04:00","2017","09","13","04:00","12.5","","11.1","","91","","","M","","M","","","97.85","","","","","","NA"
"2017-09-13 05:00","2017","09","13","05:00","12.5","","11.3","","93","","","M","","M","","","97.87","","","","","","NA"
"2017-09-13 06:00","2017","09","13","06:00","12.9","","11.8","","93","","","M","","M","","","97.89","","","","","","NA"
"2017-09-13 07:00","2017","09","13","07:00","13.7","","12.4","","92","","","M","","M","","","97.90","","","","","","NA"
"2017-09-13 08:00","2017","09","13","08:00","16.1","","14.1","","88","","","M","","M","","","97.89","","","","","","NA"
"2017-09-13 09:00","2017","09","13","09:00","18.1","","15.1","","83","","","M","","M","","","97.87","","","","","","NA"
"2017-09-13 10:00","2017","09","13","10:00","20.8","","15.8","","73","","","M","","M","","","97.84","","25","","","","NA"
"2017-09-13 11:00","2017","09","13","11:00","22.5","","15.1","","63","","","M","","M","","","97.77","","27","","","","NA"
"2017-09-13 12:00","2017","09","13","12:00","23.3","","16.4","","65","","","M","","M","","","97.77","","28","","","","NA"
"2017-09-13 13:00","2017","09","13","13:00","24.9","","17.3","","63","","","M","","M","","","97.69","","30","","","","NA"
"2017-09-13 14:00","2017","09","13","14:00","25.5","","18.3","","65","","","M","","M","","","97.65","","32","","","","NA"
"2017-09-13 15:00","2017","09","13","15:00","25.7","","17.4","","60","","","M","","M","","","97.61","","31","","","","NA"
"2017-09-13 16:00","2017","09","13","16:00","24.4","","17.3","","65","","","M","","M","","","97.63","","30","","","","NA"
"2017-09-13 17:00","2017","09","13","17:00","23.0","","16.0","","65","","","M","","M","","","97.63","","28","","","","NA"
"2017-09-13 18:00","2017","09","13","18:00","22.4","","15.7","","66","","","M","","M","","","97.63","","27","","","","NA"
"2017-09-13 19:00","2017","09","13","19:00","20.1","","15.9","","77","","","M","","M","","","97.67","","25","","","","NA"
"2017-09-13 20:00","2017","09","13","20:00","18.5","","16.0","","86","","","M","","M","","","97.72","","","","","","NA"
"2017-09-13 21:00","2017","09","13","21:00","17.0","","15.5","","91","","","M","","M","","","97.74","","","","","","NA"
"2017-09-13 22:00","2017","09","13","22:00","17.0","","15.2","","89","","","M","","M","","","97.76","","","","","","NA"
"2017-09-13 23:00","2017","09","13","23:00","16.2","","14.8","","91","","","M","","M","","","97.77","","","","","","NA"
"2017-09-14 00:00","2017","09","14","00:00","16.0","","15.2","","95","","","M","","M","","","97.76","","","","","","NA"
"2017-09-14 01:00","2017","09","14","01:00","16.7","","15.2","","91","","","M","","M","","","97.75","","","","","","NA"
"2017-09-14 02:00","2017","09","14","02:00","16.9","","15.3","","90","","","M","","M","","","97.73","","","","","","NA"
"2017-09-14 03:00","2017","09","14","03:00","16.6","","15.3","","92","","","M","","M","","","97.77","","","","","","NA"
"2017-09-14 04:00","2017","09","14","04:00","16.9","","15.4","","91","","","M","","M","","","97.81","","","","","","NA"
"2017-09-14 05:00","2017","09","14","05:00","16.6","","15.3","","92","","","M","","M","","","97.86","","","","","","NA"
"2017-09-14 06:00","2017","09","14","06:00","16.6","","15.3","","92","","","M","","M","","","97.89","","","","","","NA"
"2017-09-14 07:00","2017","09","14","07:00","17.2","","15.6","","90","","","M","","M","","","97.94","","","","","","NA"
"2017-09-14 08:00","2017","09","14","08:00","17.9","","15.8","","88","","","M","","M","","","97.99","","","","","","NA"
"2017-09-14 09:00","2017","09","14","09:00","19.5","","16.1","","81","","","M","","M","","","98.03","","","","","","NA"
"2017-09-14 10:00","2017","09","14","10:00","21.7","","16.5","","72","","","M","","M","","","98.02","","27","","","","NA"
"2017-09-14 11:00","2017","09","14","11:00","22.5","","16.4","","68","","","M","","M","","","98.00","","27","","","","NA"
"2017-09-14 12:00","2017","09","14","12:00","22.8","","15.4","","63","","","M","","M","","","98.01","","27","","","","NA"
"2017-09-14 13:00","2017","09","14","13:00","22.8","","15.0","","61","","","M","","M","","","98.02","","27","","","","NA"
"2017-09-14 14:00","2017","09","14","14:00","24.5","","14.3","","53","","","M","","M","","","98.00","","28","","","","NA"
"2017-09-14 15:00","2017","09","14","15:00","24.5","","13.8","","51","","","M","","M","","","97.99","","28","","","","NA"
"2017-09-14 16:00","2017","09","14","16:00","23.0","","15.8","","64","","","M","","M","","","98.01","","27","","","","NA"
"2017-09-14 17:00","2017","09","14","17:00","22.3","","15.5","","65","","","M","","M","","","98.06","","27","","","","NA"
"2017-09-14 18:00","2017","09","14","18:00","21.6","","14.9","","65","","","M","","M","","","98.12","","26","","","","NA"
"2017-09-14 19:00","2017","09","14","19:00","19.3","","14.4","","73","","","M","","M","","","98.20","","","","","","NA"
"2017-09-14 20:00","2017","09","14","20:00","17.7","","14.4","","81","","","M","","M","","","98.25","","","","","","NA"
"2017-09-14 21:00","2017","09","14","21:00","17.6","","14.4","","81","","","M","","M","","","98.27","","","","","","NA"
"2017-09-14 22:00","2017","09","14","22:00","16.5","","14.3","","87","","","M","","M","","","98.32","","","","","","NA"
"2017-09-14 23:00","2017","09","14","23:00","16.3","","14.5","","89","","","M","","M","","","98.35","","","","","","NA"
"2017-09-15 00:00","2017","09","15","00:00","14.7","","13.0","","90","","","M","","M","","","98.37","","","","","","NA"
"2017-09-15 01:00","2017","09","15","01:00","13.9","","12.9","","94","","","M","","M","","","98.39","","","","","","NA"
"2017-09-15 02:00","2017","09","15","02:00","13.7","","12.8","","94","","","M","","M","","","98.41","","","","","","NA"
"2017-09-15 03:00","2017","09","15","03:00","12.2","","11.5","","95","","","M","","M","","","98.42","","","","","","NA"
"2017-09-15 04:00","2017","09","15","04:00","11.7","","11.2","","96","","","M","","M","","","98.47","","","","","","NA"
"2017-09-15 05:00","2017","09","15","05:00","11.4","","11.0","","97","","","M","","M","","","98.50","","","","","","NA"
"2017-09-15 06:00","2017","09","15","06:00","11.4","","11.0","","97","","","M","","M","","","98.59","","","","","","NA"
"2017-09-15 07:00","2017","09","15","07:00","11.8","","11.3","","97","","","M","","M","","","98.65","","","","","","NA"
"2017-09-15 08:00","2017","09","15","08:00","15.5","","14.0","","91","","","M","","M","","","98.72","","","","","","NA"
"2017-09-15 09:00","2017","09","15","09:00","19.2","","15.9","","81","","","M","","M","","","98.76","","","","","","NA"
"2017-09-15 10:00","2017","09","15","10:00","21.5","","15.8","","70","","","M","","M","","","98.75","","26","","","","NA"
"2017-09-15 11:00","2017","09","15","11:00","22.8","","15.1","","62","","","M","","M","","","98.70","","27","","","","NA"
"2017-09-15 12:00","2017","09","15","12:00","23.6","","15.7","","61","","","M","","M","","","98.71","","28","","","","NA"
"2017-09-15 13:00","2017","09","15","13:00","24.6","","16.1","","59","","","M","","M","","","98.69","","29","","","","NA"
"2017-09-15 14:00","2017","09","15","14:00","25.2","","16.0","","57","","","M","","M","","","98.66","","30","","","","NA"
"2017-09-15 15:00","2017","09","15","15:00","24.6","","14.9","","55","","","M","","M","","","98.66","","29","","","","NA"
"2017-09-15 16:00","2017","09","15","16:00","24.2","","15.0","","56","","","M","","M","","","98.67","","28","","","","NA"
"2017-09-15 17:00","2017","09","15","17:00","22.9","","15.1","","61","","","M","","M","","","98.71","","27","","","","NA"
"2017-09-15 18:00","2017","09","15","18:00","21.2","","15.0","","68","","","M","","M","","","98.75","","25","","","","NA"
"2017-09-15 19:00","2017","09","15","19:00","19.5","","15.0","","75","","","M","","M","","","98.76","","","","","","NA"
"2017-09-15 20:00","2017","09","15","20:00","17.9","","14.8","","82","","","M","","M","","","98.80","","","","","","NA"
"2017-09-15 21:00","2017","09","15","21:00","16.2","","14.2","","88","","","M","","M","","","98.82","","","","","","NA"
"2017-09-15 22:00","2017","09","15","22:00","15.5","","13.6","","89","","","M","","M","","","98.84","","","","","","NA"
"2017-09-15 23:00","2017","09","15","23:00","15.1","","13.7","","92","","","M","","M","","","98.85","","","","","","NA"
"2017-09-16 00:00","2017","09","16","00:00","14.3","","13.2","","94","","","M","","M","","","98.86","","","","","","NA"
"2017-09-16 01:00","2017","09","16","01:00","13.3","","12.4","","94","","","M","","M","","","98.86","","","","","","NA"
"2017-09-16 02:00","2017","09","16","02:00","13.9","","13.0","","94","","","M","","M","","","98.88","","","","","","NA"
"2017-09-16 03:00","2017","09","16","03:00","13.9","","13.3","","97","","","M","","M","","","98.89","","","","","","NA"
"2017-09-16 04:00","2017","09","16","04:00","14.3","","13.9","","97","","","M","","M","","","98.91","","","","","","NA"
"2017-09-16 05:00","2017","09","16","05:00","14.0","","13.7","","98","","","M","","M","","","98.91","","","","","","NA"
"2017-09-16 06:00","2017","09","16","06:00","13.4","","13.1","","98","","","M","","M","","","98.95","","","","","","NA"
"2017-09-16 07:00","2017","09","16","07:00","13.4","","13.1","","98","","","M","","M","","","99.02","","","","","","NA"
"2017-09-16 08:00","2017","09","16","08:00","15.5","","15.1","","98","","","M","","M","","","99.03","","","","","","NA"
"2017-09-16 09:00","2017","09","16","09:00","19.5","","18.6","","94","","","M","","M","","","99.05","","","","","","NA"
"2017-09-16 10:00","2017","09","16","10:00","22.5","","17.9","","75","","","M","","M","","","99.03","","28","","","","NA"
"2017-09-16 11:00","2017","09","16","11:00","23.5","","16.6","","65","","","M","","M","","","99.00","","29","","","","NA"
"2017-09-16 12:00","2017","09","16","12:00","25.4","","16.7","","58","","","M","","M","","","99.00","","30","","","","NA"
"2017-09-16 13:00","2017","09","16","13:00","25.5","","15.9","","55","","","M","","M","","","98.97","","30","","","","NA"
"2017-09-16 14:00","2017","09","16","14:00","25.9","","14.9","","51","","","M","","M","","","98.92","","30","","","","NA"
"2017-09-16 15:00","2017","09","16","15:00","26.4","","16.0","","53","","","M","","M","","","98.88","","31","","","","NA"
"2017-09-16 16:00","2017","09","16","16:00","25.8","","15.0","","51","","","M","","M","","","98.86","","30","","","","NA"
"2017-09-16 17:00","2017","09","16","17:00","24.8","","15.2","","55","","","M","","M","","","98.84","","29","","","","NA"
"2017-09-16 18:00","2017","09","16","18:00","23.0","","15.7","","64","","","M","","M","","","98.82","","27","","","","NA"
"2017-09-16 19:00","2017","09","16","19:00","20.7","","15.7","","73","","","M","","M","","","98.81","","25","","","","NA"
"2017-09-16 20:00","2017","09","16","20:00","19.0","","15.4","","80","","","M","","M","","","98.85","","","","","","NA"
"2017-09-16 21:00","2017","09","16","21:00","17.5","","15.2","","86","","","M","","M","","","98.85","","","","","","NA"
"2017-09-16 22:00","2017","09","16","22:00","16.8","","14.9","","89","","","M","","M","","","98.87","","","","","","NA"
"2017-09-16 23:00","2017","09","16","23:00","15.8","","14.1","","90","","","M","","M","","","98.86","","","","","","NA"
"2017-09-17 00:00","2017","09","17","00:00","16.2","","14.6","","90","","","M","","M","","","98.78","","","","","","NA"
"2017-09-17 01:00","2017","09","17","01:00","15.4","","13.8","","91","","","M","","M","","","98.80","","","","","","NA"
"2017-09-17 02:00","2017","09","17","02:00","14.6","","13.5","","93","","","M","","M","","","98.81","","","","","","NA"
"2017-09-17 03:00","2017","09","17","03:00","14.2","","12.9","","92","","","M","","M","","","98.80","","","","","","NA"
"2017-09-17 04:00","2017","09","17","04:00","13.8","","12.8","","94","","","M","","M","","","98.77","","","","","","NA"
"2017-09-17 05:00","2017","09","17","05:00","14.2","","13.1","","93","","","M","","M","","","98.78","","","","","","NA"
"2017-09-17 06:00","2017","09","17","06:00","14.0","","13.0","","94","","","M","","M","","","98.82","","","","","","NA"
"2017-09-17 07:00","2017","09","17","07:00","14.4","","13.0","","92","","","M","","M","","","98.85","","","","","","NA"
"2017-09-17 08:00","2017","09","17","08:00","17.5","","15.2","","87","","","M","","M","","","98.83","","","","","","NA"
"2017-09-17 09:00","2017","09","17","09:00","20.6","","16.8","","79","","","M","","M","","","98.86","","26","","","","NA"
"2017-09-17 10:00","2017","09","17","10:00","23.4","","17.7","","70","","","M","","M","","","98.84","","29","","","","NA"
"2017-09-17 11:00","2017","09","17","11:00","25.4","","17.4","","61","","","M","","M","","","98.82","","31","","","","NA"
"2017-09-17 12:00","2017","09","17","12:00","26.3","","18.0","","60","","","M","","M","","","98.76","","32","","","","NA"
"2017-09-17 13:00","2017","09","17","13:00","26.7","","16.8","","55","","","M","","M","","","98.68","","32","","","","NA"
"2017-09-17 14:00","2017","09","17","14:00","27.7","","16.3","","50","","","M","","M","","","98.62","","33","","","","NA"
"2017-09-17 15:00","2017","09","17","15:00","27.4","","16.5","","51","","","M","","M","","","98.60","","32","","","","NA"
"2017-09-17 16:00","2017","09","17","16:00","26.6","","15.9","","52","","","M","","M","","","98.59","","31","","","","NA"
"2017-09-17 17:00","2017","09","17","17:00","25.2","","16.1","","57","","","M","","M","","","98.58","","30","","","","NA"
"2017-09-17 18:00","2017","09","17","18:00","23.6","","16.4","","64","","","M","","M","","","98.57","","28","","","","NA"
"2017-09-17 19:00","2017","09","17","19:00","21.4","","16.6","","75","","","M","","M","","","98.61","","26","","","","NA"
"2017-09-17 20:00","2017","09","17","20:00","19.4","","16.6","","84","","","M","","M","","","98.60","","","","","","NA"
"2017-09-17 21:00","2017","09","17","21:00","17.9","","15.8","","88","","","M","","M","","","98.63","","","","","","NA"
"2017-09-17 22:00","2017","09","17","22:00","17.5","","15.7","","89","","","M","","M","","","98.62","","","","","","NA"
"2017-09-17 23:00","2017","09","17","23:00","16.3","","14.9","","92","","","M","","M","","","98.62","","","","","","NA"
"2017-09-18 00:00","2017","09","18","00:00","17.2","","16.6","","96","","","M","","M","","","98.59","","","","","","NA"
"2017-09-18 01:00","2017","09","18","01:00","17.4","","16.9","","97","","","M","","M","","","98.57","","","","","","NA"
"2017-09-18 02:00","2017","09","18","02:00","16.6","","16.2","","97","","","M","","M","","","98.54","","","","","","NA"
"2017-09-18 03:00","2017","09","18","03:00","15.9","","15.5","","98","","","M","","M","","","98.53","","","","","","NA"
"2017-09-18 04:00","2017","09","18","04:00","16.1","","15.7","","98","","","M","","M","","","98.50","","","","","","NA"
"2017-09-18 05:00","2017","09","18","05:00","16.2","","15.8","","98","","","M","","M","","","98.52","","","","","","NA"
"2017-09-18 06:00","2017","09","18","06:00","17.7","","17.2","","97","","","M","","M","","","98.55","","","","","","NA"
"2017-09-18 07:00","2017","09","18","07:00","18.5","","18.0","","97","","","M","","M","","","98.57","","","","","","NA"
"2017-09-18 08:00","2017","09","18","08:00","19.8","","18.8","","94","","","M","","M","","","98.57","","","","","","NA"
"2017-09-18 09:00","2017","09","18","09:00","21.8","","19.0","","84","","","M","","M","","","98.57","","29","","","","NA"
"2017-09-18 10:00","2017","09","18","10:00","24.3","","17.9","","68","","","M","","M","","","98.55","","30","","","","NA"
"2017-09-18 11:00","2017","09","18","11:00","25.4","","17.1","","60","","","M","","M","","","98.58","","31","","","","NA"
"2017-09-18 12:00","2017","09","18","12:00","25.6","","16.8","","58","","","M","","M","","","98.57","","31","","","","NA"
"2017-09-18 13:00","2017","09","18","13:00","26.2","","17.6","","59","","","M","","M","","","98.52","","32","","","","NA"
"2017-09-18 14:00","2017","09","18","14:00","25.4","","19.3","","69","","","M","","M","","","98.50","","32","","","","NA"
"2017-09-18 15:00","2017","09","18","15:00","24.5","","19.0","","72","","","M","","M","","","98.51","","31","","","","NA"
"2017-09-18 16:00","2017","09","18","16:00","21.7","","18.3","","81","","","M","","M","","","98.50","","28","","","","NA"
"2017-09-18 17:00","2017","09","18","17:00","21.4","","18.3","","83","","","M","","M","","","98.48","","28","","","","NA"
"2017-09-18 18:00","2017","09","18","18:00","20.7","","18.4","","86","","","M","","M","","","98.51","","27","","","","NA"
"2017-09-18 19:00","2017","09","18","19:00","20.6","","18.6","","89","","","M","","M","","","98.52","","27","","","","NA"
"2017-09-18 20:00","2017","09","18","20:00","20.2","","18.4","","89","","","M","","M","","","98.52","","27","","","","NA"
"2017-09-18 21:00","2017","09","18","21:00","19.7","","18.0","","90","","","M","","M","","","98.50","","","","","","NA"
"2017-09-18 22:00","2017","09","18","22:00","19.4","","17.8","","90","","","M","","M","","","98.50","","","","","","NA"
"2017-09-18 23:00","2017","09","18","23:00","19.3","","17.7","","90","","","M","","M","","","98.49","","","","","","NA"
"2017-09-19 00:00","2017","09","19","00:00","19.4","","17.7","","90","","","M","","M","","","98.46","","","","","","NA"
"2017-09-19 01:00","2017","09","19","01:00","18.9","","17.4","","91","","","M","","M","","","98.45","","","","","","NA"
"2017-09-19 02:00","2017","09","19","02:00","18.4","","17.3","","93","","","M","","M","","","98.40","","","","","","NA"
"2017-09-19 03:00","2017","09","19","03:00","18.8","","17.6","","93","","","M","","M","","","98.41","","","","","","NA"
"2017-09-19 04:00","2017","09","19","04:00","18.6","","17.7","","94","","","M","","M","","","98.40","","","","","","NA"
"2017-09-19 05:00","2017","09","19","05:00","18.7","","17.6","","94","","","M","","M","","","98.36","","","","","","NA"
"2017-09-19 06:00","2017","09","19","06:00","18.7","","17.7","","94","","","M","","M","","","98.38","","","","","","NA"
"2017-09-19 07:00","2017","09","19","07:00","18.9","","17.8","","93","","","M","","M","","","98.40","","","","","","NA"
"2017-09-19 08:00","2017","09","19","08:00","20.0","","18.2","","89","","","M","","M","","","98.39","","26","","","","NA"
"2017-09-19 09:00","2017","09","19","09:00","22.5","","18.0","","76","","","M","","M","","","98.40","","29","","","","NA"
"2017-09-19 10:00","2017","09","19","10:00","22.3","","18.4","","79","","","M","","M","","","98.43","","29","","","","NA"
"2017-09-19 11:00","2017","09","19","11:00","24.0","","18.9","","73","","","M","","M","","","98.41","","31","","","","NA"
"2017-09-19 12:00","2017","09","19","12:00","25.2","","19.1","","69","","","M","","M","","","98.38","","32","","","","NA"
"2017-09-19 13:00","2017","09","19","13:00","25.0","","18.6","","68","","","M","","M","","","98.34","","31","","","","NA"
"2017-09-19 14:00","2017","09","19","14:00","24.6","","19.5","","73","","","M","","M","","","98.30","","32","","","","NA"
"2017-09-19 15:00","2017","09","19","15:00","24.1","","18.4","","70","","","M","","M","","","98.28","","30","","","","NA"
"2017-09-19 16:00","2017","09","19","16:00","23.5","","18.1","","72","","","M","","M","","","98.27","","30","","","","NA"
"2017-09-19 17:00","2017","09","19","17:00","22.8","","19.7","","83","","","M","","M","","","98.28","","30","","","","NA"
"2017-09-19 18:00","2017","09","19","18:00","21.9","","19.1","","84","","","M","","M","","","98.29","","29","","","","NA"
"2017-09-19 19:00","2017","09","19","19:00","20.7","","18.9","","90","","","M","","M","","","98.28","","27","","","","NA"
"2017-09-19 20:00","2017","09","19","20:00","20.3","","18.5","","89","","","M","","M","","","98.30","","27","","","","NA"
"2017-09-19 21:00","2017","09","19","21:00","20.4","","18.5","","89","","","M","","M","","","98.31","","27","","","","NA"
"2017-09-19 22:00","2017","09","19","22:00","20.4","","18.8","","91","","","M","","M","","","98.30","","27","","","","NA"
"2017-09-19 23:00","2017","09","19","23:00","19.9","","18.5","","92","","","M","","M","","","98.30","","","","","","NA"
"2017-09-20 00:00","2017","09","20","00:00","19.2","","17.8","","92","","","M","","M","","","98.31","","","","","","NA"
"2017-09-20 01:00","2017","09","20","01:00","18.6","","17.4","","93","","","M","","M","","","98.32","","","","","","NA"
"2017-09-20 02:00","2017","09","20","02:00","18.1","","17.1","","94","","","M","","M","","","98.29","","","","","","NA"
"2017-09-20 03:00","2017","09","20","03:00","17.9","","17.0","","94","","","M","","M","","","98.28","","","","","","NA"
"2017-09-20 04:00","2017","09","20","04:00","17.8","","16.8","","94","","","M","","M","","","98.28","","","","","","NA"
"2017-09-20 05:00","2017","09","20","05:00","17.5","","16.8","","96","","","M","","M","","","98.32","","","","","","NA"
"2017-09-20 06:00","2017","09","20","06:00","17.8","","17.1","","96","","","M","","M","","","98.34","","","","","","NA"
"2017-09-20 07:00","2017","09","20","07:00","18.0","","17.2","","95","","","M","","M","","","98.43","","","","","","NA"
"2017-09-20 08:00","2017","09","20","08:00","19.2","","17.7","","92","","","M","","M","","","98.49","","","","","","NA"
"2017-09-20 09:00","2017","09","20","09:00"
"2017-09-20 10:00","2017","09","20","10:00"
"2017-09-20 11:00","2017","09","20","11:00"
"2017-09-20 12:00","2017","09","20","12:00"
"2017-09-20 13:00","2017","09","20","13:00"
"2017-09-20 14:00","2017","09","20","14:00"
"2017-09-20 15:00","2017","09","20","15:00","24.3","","20.5","","80","","","M","","M","","","98.36","","32","","","","NA"
"2017-09-20 16:00","2017","09","20","16:00","27.0","","18.2","","59","","","M","","M","","","98.33","","33","","","","NA"
"2017-09-20 17:00","2017","09","20","17:00","26.1","","17.6","","59","","","M","","M","","","98.35","","32","","","","NA"
"2017-09-20 18:00","2017","09","20","18:00","24.1","","17.9","","68","","","M","","M","","","98.39","","30","","","","NA"
"2017-09-20 19:00","2017","09","20","19:00","21.6","","17.0","","75","","","M","","M","","","98.41","","27","","","","NA"
"2017-09-20 20:00","2017","09","20","20:00","20.5","","16.7","","79","","","M","","M","","","98.45","","26","","","","NA"
"2017-09-20 21:00","2017","09","20","21:00","19.2","","16.5","","85","","","M","","M","","","98.46","","","","","","NA"
"2017-09-20 22:00","2017","09","20","22:00","18.7","","17.4","","92","","","M","","M","","","98.44","","","","","","NA"
"2017-09-20 23:00","2017","09","20","23:00","18.6","","16.9","","90","","","M","","M","","","98.46","","","","","","NA"
"2017-09-21 00:00","2017","09","21","00:00","18.1","","16.1","","88","","","M","","M","","","98.50","","","","","","NA"
"2017-09-21 01:00","2017","09","21","01:00","17.5","","16.0","","91","","","M","","M","","","98.61","","","","","","NA"
"2017-09-21 02:00","2017","09","21","02:00","16.6","","15.4","","93","","","M","","M","","","98.61","","","","","","NA"
"2017-09-21 03:00","2017","09","21","03:00","16.2","","15.2","","94","","","M","","M","","","98.61","","","","","","NA"
"2017-09-21 04:00","2017","09","21","04:00","16.1","","15.4","","96","","","M","","M","","","98.60","","","","","","NA"
"2017-09-21 05:00","2017","09","21","05:00","16.2","","15.4","","95","","","M","","M","","","98.62","","","","","","NA"
"2017-09-21 06:00","2017","09","21","06:00","16.0","","15.2","","95","","","M","","M","","","98.68","","","","","","NA"
"2017-09-21 07:00","2017","09","21","07:00","16.7","","16.0","","95","","","M","","M","","","98.67","","","","","","NA"
"2017-09-21 08:00","2017","09","21","08:00","19.5","","17.2","","87","","","M","","M","","","98.71","","","","","","NA"
"2017-09-21 09:00","2017","09","21","09:00"
"2017-09-21 10:00","2017","09","21","10:00"
"2017-09-21 11:00","2017","09","21","11:00"
"2017-09-21 12:00","2017","09","21","12:00"
"2017-09-21 13:00","2017","09","21","13:00"
"2017-09-21 14:00","2017","09","21","14:00"
"2017-09-21 15:00","2017","09","21","15:00","28.9","","16.3","","47","","","M","","M","","","98.62","","34","","","","NA"
"2017-09-21 16:00","2017","09","21","16:00","28.5","","15.9","","46","","","M","","M","","","98.60","","33","","","","NA"
"2017-09-21 17:00","2017","09","21","17:00","27.7","","16.2","","50","","","M","","M","","","98.59","","32","","","","NA"
"2017-09-21 18:00","2017","09","21","18:00","25.2","","16.6","","59","","","M","","M","","","98.61","","30","","","","NA"
"2017-09-21 19:00","2017","09","21","19:00","23.5","","16.6","","65","","","M","","M","","","98.65","","29","","","","NA"
"2017-09-21 20:00","2017","09","21","20:00","22.0","","17.1","","74","","","M","","M","","","98.70","","27","","","","NA"
"2017-09-21 21:00","2017","09","21","21:00","19.9","","17.2","","84","","","M","","M","","","98.71","","","","","","NA"
"2017-09-21 22:00","2017","09","21","22:00","19.3","","16.2","","82","","","M","","M","","","98.75","","","","","","NA"
"2017-09-21 23:00","2017","09","21","23:00","18.8","","16.6","","87","","","M","","M","","","98.74","","","","","","NA"
"2017-09-22 00:00","2017","09","22","00:00","18.8","","16.6","","87","","","M","","M","","","98.73","","","","","","NA"
"2017-09-22 01:00","2017","09","22","01:00","18.4","","16.6","","89","","","M","","M","","","98.71","","","","","","NA"
"2017-09-22 02:00","2017","09","22","02:00","18.2","","16.6","","90","","","M","","M","","","98.71","","","","","","NA"
"2017-09-22 03:00","2017","09","22","03:00","18.1","","16.3","","90","","","M","","M","","","98.74","","","","","","NA"
"2017-09-22 04:00","2017","09","22","04:00","18.1","","16.1","","88","","","M","","M","","","98.78","","","","","","NA"
"2017-09-22 05:00","2017","09","22","05:00","17.6","","15.9","","90","","","M","","M","","","98.80","","","","","","NA"
"2017-09-22 06:00","2017","09","22","06:00","17.4","","15.8","","91","","","M","","M","","","98.83","","","","","","NA"
"2017-09-22 07:00","2017","09","22","07:00","17.6","","16.3","","92","","","M","","M","","","98.84","","","","","","NA"
"2017-09-22 08:00","2017","09","22","08:00","20.5","","17.0","","81","","","M","","M","","","98.83","","26","","","","NA"
"2017-09-22 09:00","2017","09","22","09:00","22.9","","17.3","","71","","","M","","M","","","98.83","","28","","","","NA"
"2017-09-22 10:00","2017","09","22","10:00","25.4","","16.4","","57","","","M","","M","","","98.83","","30","","","","NA"
"2017-09-22 11:00","2017","09","22","11:00","27.9","","16.9","","51","","","M","","M","","","98.81","","33","","","","NA"
"2017-09-22 12:00","2017","09","22","12:00","28.6","","14.2","","41","","","M","","M","","","98.79","","32","","","","NA"
"2017-09-22 13:00","2017","09","22","13:00","30.0","","13.7","","37","","","M","","M","","","98.75","","33","","","","NA"
"2017-09-22 14:00","2017","09","22","14:00","30.0","","12.3","","34","","","M","","M","","","98.71","","32","","","","NA"
"2017-09-22 15:00","2017","09","22","15:00","30.2","","12.3","","33","","","M","","M","","","98.65","","33","","","","NA"
"2017-09-22 16:00","2017","09","22","16:00","30.3","","12.5","","34","","","M","","M","","","98.64","","33","","","","NA"
"2017-09-22 17:00","2017","09","22","17:00","27.7","","16.8","","52","","","M","","M","","","98.65","","33","","","","NA"
"2017-09-22 18:00","2017","09","22","18:00","25.5","","16.6","","58","","","M","","M","","","98.69","","31","","","","NA"
"2017-09-22 19:00","2017","09","22","19:00","22.7","","16.9","","70","","","M","","M","","","98.66","","28","","","","NA"
"2017-09-22 20:00","2017","09","22","20:00","20.9","","14.5","","67","","","M","","M","","","98.66","","25","","","","NA"
"2017-09-22 21:00","2017","09","22","21:00","19.6","","14.5","","72","","","M","","M","","","98.67","","","","","","NA"
"2017-09-22 22:00","2017","09","22","22:00","18.3","","14.6","","79","","","M","","M","","","98.72","","","","","","NA"
"2017-09-22 23:00","2017","09","22","23:00","17.4","","14.8","","85","","","M","","M","","","98.67","","","","","","NA"
"2017-09-23 00:00","2017","09","23","00:00","16.5","","13.9","","85","","","M","","M","","","98.68","","","","","","NA"
"2017-09-23 01:00","2017","09","23","01:00","16.9","","14.5","","86","","","M","","M","","","98.68","","","","","","NA"
"2017-09-23 02:00","2017","09","23","02:00","16.2","","14.7","","91","","","M","","M","","","98.62","","","","","","NA"
"2017-09-23 03:00","2017","09","23","03:00","16.8","","14.6","","87","","","M","","M","","","98.61","","","","","","NA"
"2017-09-23 04:00","2017","09","23","04:00","15.9","","13.7","","87","","","M","","M","","","98.64","","","","","","NA"
"2017-09-23 05:00","2017","09","23","05:00","15.0","","13.1","","88","","","M","","M","","","98.68","","","","","","NA"
"2017-09-23 06:00","2017","09","23","06:00","15.7","","13.7","","88","","","M","","M","","","98.76","","","","","","NA"
"2017-09-23 07:00","2017","09","23","07:00","16.2","","13.6","","85","","","M","","M","","","98.83","","","","","","NA"
"2017-09-23 08:00","2017","09","23","08:00","20.6","","15.5","","73","","","M","","M","","","98.85","","25","","","","NA"
"2017-09-23 09:00","2017","09","23","09:00","24.4","","13.2","","49","","","M","","M","","","98.88","","27","","","","NA"
"2017-09-23 10:00","2017","09","23","10:00","27.3","","11.9","","38","","","M","","M","","","98.88","","30","","","","NA"
"2017-09-23 11:00","2017","09","23","11:00","28.8","","12.4","","36","","","M","","M","","","98.89","","31","","","","NA"
"2017-09-23 12:00","2017","09","23","12:00","29.7","","15.2","","41","","","M","","M","","","98.88","","34","","","","NA"
"2017-09-23 13:00","2017","09","23","13:00","31.1","","17.1","","43","","","M","","M","","","98.83","","36","","","","NA"
"2017-09-23 14:00","2017","09","23","14:00","31.5","","16.9","","42","","","M","","M","","","98.79","","37","","","","NA"
"2017-09-23 15:00","2017","09","23","15:00","31.4","","16.6","","41","","","M","","M","","","98.74","","36","","","","NA"
"2017-09-23 16:00","2017","09","23","16:00","31.6","","17.2","","42","","","M","","M","","","98.69","","37","","","","NA"
"2017-09-23 17:00","2017","09","23","17:00","30.7","","17.2","","44","","","M","","M","","","98.69","","36","","","","NA"
"2017-09-23 18:00","2017","09","23","18:00","29.8","","17.4","","47","","","M","","M","","","98.70","","35","","","","NA"
"2017-09-23 19:00","2017","09","23","19:00","24.5","","16.8","","62","","","M","","M","","","98.74","","30","","","","NA"
"2017-09-23 20:00","2017","09","23","20:00","22.7","","16.5","","68","","","M","","M","","","98.77","","28","","","","NA"
"2017-09-23 21:00","2017","09","23","21:00","21.2","","15.8","","71","","","M","","M","","","98.77","","26","","","","NA"
"2017-09-23 22:00","2017","09","23","22:00","19.8","","15.8","","78","","","M","","M","","","98.76","","","","","","NA"
"2017-09-23 23:00","2017","09","23","23:00","19.5","","15.4","","77","","","M","","M","","","98.78","","","","","","NA"
"2017-09-24 00:00","2017","09","24","00:00","17.7","","15.2","","85","","","M","","M","","","98.80","","","","","","NA"
"2017-09-24 01:00","2017","09","24","01:00","18.2","","15.5","","84","","","M","","M","","","98.81","","","","","","NA"
"2017-09-24 02:00","2017","09","24","02:00","17.4","","15.3","","87","","","M","","M","","","98.81","","","","","","NA"
"2017-09-24 03:00","2017","09","24","03:00","16.6","","15.0","","90","","","M","","M","","","98.83","","","","","","NA"
"2017-09-24 04:00","2017","09","24","04:00","16.6","","14.8","","89","","","M","","M","","","98.83","","","","","","NA"
"2017-09-24 05:00","2017","09","24","05:00","16.2","","14.4","","89","","","M","","M","","","98.86","","","","","","NA"
"2017-09-24 06:00","2017","09","24","06:00","15.9","","14.8","","93","","","M","","M","","","98.89","","","","","","NA"
"2017-09-24 07:00","2017","09","24","07:00","16.8","","14.6","","87","","","M","","M","","","98.93","","","","","","NA"
"2017-09-24 08:00","2017","09","24","08:00","21.7","","17.6","","77","","","M","","M","","","98.95","","27","","","","NA"
"2017-09-24 09:00","2017","09","24","09:00","25.5","","17.5","","61","","","M","","M","","","98.97","","31","","","","NA"
"2017-09-24 10:00","2017","09","24","10:00","28.2","","18.6","","56","","","M","","M","","","98.95","","35","","","","NA"
"2017-09-24 11:00","2017","09","24","11:00","29.9","","18.0","","49","","","M","","M","","","98.93","","36","","","","NA"
"2017-09-24 12:00","2017","09","24","12:00","30.3","","17.5","","46","","","M","","M","","","98.89","","36","","","","NA"
"2017-09-24 13:00","2017","09","24","13:00","31.2","","18.7","","48","","","M","","M","","","98.83","","38","","","","NA"
"2017-09-24 14:00","2017","09","24","14:00","31.5","","18.6","","46","","","M","","M","","","98.78","","38","","","","NA"
"2017-09-24 15:00","2017","09","24","15:00","31.8","","17.4","","42","","","M","","M","","","98.72","","37","","","","NA"
"2017-09-24 16:00","2017","09","24","16:00","31.9","","17.5","","42","","","M","","M","","","98.68","","38","","","","NA"
"2017-09-24 17:00","2017","09","24","17:00","30.4","","18.3","","49","","","M","","M","","","98.67","","37","","","","NA"
"2017-09-24 18:00","2017","09","24","18:00","27.8","","17.5","","53","","","M","","M","","","98.68","","33","","","","NA"
"2017-09-24 19:00","2017","09","24","19:00","24.9","","17.2","","62","","","M","","M","","","98.69","","30","","","","NA"
"2017-09-24 20:00","2017","09","24","20:00","23.5","","17.2","","68","","","M","","M","","","98.71","","29","","","","NA"
"2017-09-24 21:00","2017","09","24","21:00","21.7","","17.1","","75","","","M","","M","","","98.73","","27","","","","NA"
"2017-09-24 22:00","2017","09","24","22:00","20.7","","17.6","","82","","","M","","M","","","98.72","","26","","","","NA"
"2017-09-24 23:00","2017","09","24","23:00","19.8","","17.3","","86","","","M","","M","","","98.70","","","","","","NA"
"2017-09-25 00:00","2017","09","25","00:00","18.9","","17.0","","89","","","M","","M","","","98.66","","","","","","NA"
"2017-09-25 01:00","2017","09","25","01:00","18.3","","16.3","","88","","","M","","M","","","98.65","","","","","","NA"
"2017-09-25 02:00","2017","09","25","02:00","18.4","","16.9","","91","","","M","","M","","","98.65","","","","","","NA"
"2017-09-25 03:00","2017","09","25","03:00","18.0","","16.2","","89","","","M","","M","","","98.61","","","","","","NA"
"2017-09-25 04:00","2017","09","25","04:00","16.8","","15.5","","92","","","M","","M","","","98.62","","","","","","NA"
"2017-09-25 05:00","2017","09","25","05:00","17.0","","15.5","","91","","","M","","M","","","98.62","","","","","","NA"
"2017-09-25 06:00","2017","09","25","06:00","18.4","","16.1","","87","","","M","","M","","","98.62","","","","","","NA"
"2017-09-25 07:00","2017","09","25","07:00","19.1","","16.5","","85","","","M","","M","","","98.66","","","","","","NA"
"2017-09-25 08:00","2017","09","25","08:00","21.0","","17.4","","80","","","M","","M","","","98.66","","27","","","","NA"
"2017-09-25 09:00","2017","09","25","09:00","23.9","","18.3","","71","","","M","","M","","","98.68","","30","","","","NA"
"2017-09-25 10:00","2017","09","25","10:00","27.9","","19.0","","58","","","M","","M","","","98.66","","35","","","","NA"
"2017-09-25 11:00","2017","09","25","11:00","29.9","","18.7","","51","","","M","","M","","","98.63","","36","","","","NA"
"2017-09-25 12:00","2017","09","25","12:00","30.6","","16.9","","44","","","M","","M","","","98.60","","36","","","","NA"
"2017-09-25 13:00","2017","09","25","13:00","30.8","","16.6","","43","","","M","","M","","","98.54","","36","","","","NA"
"2017-09-25 14:00","2017","09","25","14:00","30.9","","16.7","","42","","","M","","M","","","98.48","","36","","","","NA"
"2017-09-25 15:00","2017","09","25","15:00","30.8","","14.2","","36","","","M","","M","","","98.43","","34","","","","NA"
"2017-09-25 16:00","2017","09","25","16:00","30.8","","14.2","","36","","","M","","M","","","98.40","","34","","","","NA"
"2017-09-25 17:00","2017","09","25","17:00","28.8","","15.4","","44","","","M","","M","","","98.39","","33","","","","NA"
"2017-09-25 18:00","2017","09","25","18:00","26.4","","15.7","","52","","","M","","M","","","98.38","","31","","","","NA"
"2017-09-25 19:00","2017","09","25","19:00","23.8","","16.1","","62","","","M","","M","","","98.37","","28","","","","NA"
"2017-09-25 20:00","2017","09","25","20:00","22.0","","16.6","","72","","","M","","M","","","98.38","","27","","","","NA"
"2017-09-25 21:00","2017","09","25","21:00","21.4","","16.6","","74","","","M","","M","","","98.37","","26","","","","NA"
"2017-09-25 22:00","2017","09","25","22:00","20.9","","16.8","","78","","","M","","M","","","98.38","","26","","","","NA"
"2017-09-25 23:00","2017","09","25","23:00","19.9","","16.3","","80","","","M","","M","","","98.39","","","","","","NA"
"2017-09-26 00:00","2017","09","26","00:00","19.5","","16.5","","83","","","M","","M","","","98.38","","","","","","NA"
"2017-09-26 01:00","2017","09","26","01:00","19.5","","17.0","","86","","","M","","M","","","98.39","","","","","","NA"
"2017-09-26 02:00","2017","09","26","02:00","19.5","","17.3","","87","","","M","","M","","","98.36","","","","","","NA"
"2017-09-26 03:00","2017","09","26","03:00","19.3","","17.0","","87","","","M","","M","","","98.35","","","","","","NA"
"2017-09-26 04:00","2017","09","26","04:00","19.0","","16.9","","88","","","M","","M","","","98.33","","","","","","NA"
"2017-09-26 05:00","2017","09","26","05:00","18.9","","16.8","","87","","","M","","M","","","98.34","","","","","","NA"
"2017-09-26 06:00","2017","09","26","06:00","18.7","","16.9","","90","","","M","","M","","","98.35","","","","","","NA"
"2017-09-26 07:00","2017","09","26","07:00","18.6","","16.9","","90","","","M","","M","","","98.39","","","","","","NA"
"2017-09-26 08:00","2017","09","26","08:00","22.0","","19.1","","83","","","M","","M","","","98.39","","29","","","","NA"
"2017-09-26 09:00","2017","09","26","09:00","25.7","","19.7","","70","","","M","","M","","","98.38","","33","","","","NA"
"2017-09-26 10:00","2017","09","26","10:00","28.1","","18.6","","57","","","M","","M","","","98.37","","35","","","","NA"
"2017-09-26 11:00","2017","09","26","11:00","29.5","","17.9","","50","","","M","","M","","","98.35","","35","","","","NA"
"2017-09-26 12:00","2017","09","26","12:00","30.2","","16.9","","45","","","M","","M","","","98.33","","35","","","","NA"
"2017-09-26 13:00","2017","09","26","13:00","31.0","","16.4","","42","","","M","","M","","","98.26","","36","","","","NA"
"2017-09-26 14:00","2017","09","26","14:00","31.3","","16.2","","40","","","M","","M","","","98.21","","36","","","","NA"
"2017-09-26 15:00","2017","09","26","15:00","30.5","","15.9","","41","","","M","","M","","","98.18","","35","","","","NA"
"2017-09-26 16:00","2017","09","26","16:00","29.7","","15.9","","43","","","M","","M","","","98.16","","34","","","","NA"
"2017-09-26 17:00","2017","09","26","17:00","28.6","","16.2","","47","","","M","","M","","","98.16","","33","","","","NA"
"2017-09-26 18:00","2017","09","26","18:00","26.2","","16.7","","56","","","M","","M","","","98.15","","31","","","","NA"
"2017-09-26 19:00","2017","09","26","19:00","23.8","","17.0","","66","","","M","","M","","","98.15","","29","","","","NA"
"2017-09-26 20:00","2017","09","26","20:00","22.7","","17.3","","71","","","M","","M","","","98.16","","28","","","","NA"
"2017-09-26 21:00","2017","09","26","21:00","21.6","","17.1","","76","","","M","","M","","","98.17","","27","","","","NA"
"2017-09-26 22:00","2017","09","26","22:00","20.5","","16.9","","80","","","M","","M","","","98.16","","26","","","","NA"
"2017-09-26 23:00","2017","09","26","23:00","20.0","","16.6","","81","","","M","","M","","","98.14","","25","","","","NA"
"2017-09-27 00:00","2017","09","27","00:00","19.2","","17.0","","87","","","M","","M","","","98.12","","","","","","NA"
"2017-09-27 01:00","2017","09","27","01:00","18.7","","17.4","","92","","","M","","M","","","98.11","","","","","","NA"
"2017-09-27 02:00","2017","09","27","02:00","18.3","","17.6","","95","","","M","","M","","","98.06","","","","","","NA"
"2017-09-27 03:00","2017","09","27","03:00","19.0","","17.2","","89","","","M","","M","","","98.05","","","","","","NA"
"2017-09-27 04:00","2017","09","27","04:00","18.6","","16.2","","86","","","M","","M","","","98.04","","","","","","NA"
"2017-09-27 05:00","2017","09","27","05:00","19.5","","17.6","","89","","","M","","M","","","98.04","","","","","","NA"
"2017-09-27 06:00","2017","09","27","06:00","19.5","","17.3","","87","","","M","","M","","","98.04","","","","","","NA"
"2017-09-27 07:00","2017","09","27","07:00","21.2","","17.6","","80","","","M","","M","","","98.03","","27","","","","NA"
"2017-09-27 08:00","2017","09","27","08:00","22.9","","17.5","","71","","","M","","M","","","98.04","","29","","","","NA"
"2017-09-27 09:00","2017","09","27","09:00","23.4","","17.9","","72","","","M","","M","","","98.06","","29","","","","NA"
"2017-09-27 10:00","2017","09","27","10:00","24.7","","18.7","","69","","","M","","M","","","98.08","","31","","","","NA"
"2017-09-27 11:00","2017","09","27","11:00","24.9","","17.9","","65","","","M","","M","","","98.08","","31","","","","NA"
"2017-09-27 12:00","2017","09","27","12:00","23.1","","18.4","","75","","","M","","M","","","98.10","","29","","","","NA"
"2017-09-27 13:00","2017","09","27","13:00","22.2","","18.1","","78","","","M","","M","","","98.06","","28","","","","NA"
"2017-09-27 14:00","2017","09","27","14:00","22.5","","17.0","","71","","","M","","M","","","98.08","","28","","","","NA"
"2017-09-27 15:00","2017","09","27","15:00","22.4","","14.1","","59","","","M","","M","","","98.09","","26","","","","NA"
"2017-09-27 16:00","2017","09","27","16:00","20.9","","13.0","","60","","","M","","M","","","98.15","","","","","","NA"
"2017-09-27 17:00","2017","09","27","17:00","19.6","","12.6","","64","","","M","","M","","","98.20","","","","","","NA"
"2017-09-27 18:00","2017","09","27","18:00","18.7","","12.4","","67","","","M","","M","","","98.22","","","","","","NA"
"2017-09-27 19:00","2017","09","27","19:00","17.2","","11.6","","69","","","M","","M","","","98.23","","","","","","NA"
"2017-09-27 20:00","2017","09","27","20:00","16.4","","11.1","","70","","","M","","M","","","98.31","","","","","","NA"
"2017-09-27 21:00","2017","09","27","21:00","15.6","","11.2","","75","","","M","","M","","","98.34","","","","","","NA"
"2017-09-27 22:00","2017","09","27","22:00","15.2","","10.6","","74","","","M","","M","","","98.35","","","","","","NA"
"2017-09-27 23:00","2017","09","27","23:00","14.7","","10.0","","74","","","M","","M","","","98.36","","","","","","NA"
"2017-09-28 00:00","2017","09","28","00:00","14.3","","9.6","","74","","","M","","M","","","98.41","","","","","","NA"
"2017-09-28 01:00","2017","09","28","01:00","13.8","","8.6","","71","","","M","","M","","","98.44","","","","","","NA"
"2017-09-28 02:00","2017","09","28","02:00","13.0","","8.5","","74","","","M","","M","","","98.44","","","","","","NA"
"2017-09-28 03:00","2017","09","28","03:00","12.4","","7.5","","72","","","M","","M","","","98.44","","","","","","NA"
"2017-09-28 04:00","2017","09","28","04:00","12.1","","7.7","","75","","","M","","M","","","98.48","","","","","","NA"
"2017-09-28 05:00","2017","09","28","05:00","12.9","","7.6","","70","","","M","","M","","","98.49","","","","","","NA"
"2017-09-28 06:00","2017","09","28","06:00","12.1","","7.5","","73","","","M","","M","","","98.52","","","","","","NA"
"2017-09-28 07:00","2017","09","28","07:00","11.7","","7.9","","77","","","M","","M","","","98.55","","","","","","NA"
"2017-09-28 08:00","2017","09","28","08:00","13.2","","7.0","","66","","","M","","M","","","98.57","","","","","","NA"
"2017-09-28 09:00","2017","09","28","09:00","13.7","","6.3","","61","","","M","","M","","","98.65","","","","","","NA"
"2017-09-28 10:00","2017","09","28","10:00","14.8","","5.8","","55","","","M","","M","","","98.65","","","","","","NA"
"2017-09-28 11:00","2017","09","28","11:00","16.1","","4.8","","47","","","M","","M","","","98.63","","","","","","NA"
"2017-09-28 12:00","2017","09","28","12:00","16.3","","4.8","","46","","","M","","M","","","98.62","","","","","","NA"
"2017-09-28 13:00","2017","09","28","13:00","16.3","","5.2","","48","","","M","","M","","","98.59","","","","","","NA"
"2017-09-28 14:00","2017","09","28","14:00","16.7","","4.9","","46","","","M","","M","","","98.58","","","","","","NA"
"2017-09-28 15:00","2017","09","28","15:00","16.5","","5.5","","48","","","M","","M","","","98.58","","","","","","NA"
"2017-09-28 16:00","2017","09","28","16:00","15.8","","6.4","","54","","","M","","M","","","98.61","","","","","","NA"
"2017-09-28 17:00","2017","09","28","17:00","15.3","","6.1","","54","","","M","","M","","","98.62","","","","","","NA"
"2017-09-28 18:00","2017","09","28","18:00","14.2","","6.5","","60","","","M","","M","","","98.61","","","","","","NA"
"2017-09-28 19:00","2017","09","28","19:00","12.8","","6.8","","67","","","M","","M","","","98.60","","","","","","NA"
"2017-09-28 20:00","2017","09","28","20:00","10.2","","7.1","","81","","","M","","M","","","98.62","","","","","","NA"
"2017-09-28 21:00","2017","09","28","21:00","8.9","","6.5","","85","","","M","","M","","","98.61","","","","","","NA"
"2017-09-28 22:00","2017","09","28","22:00","7.8","","5.7","","86","","","M","","M","","","98.62","","","","","","NA"
"2017-09-28 23:00","2017","09","28","23:00","7.5","","6.2","","92","","","M","","M","","","98.61","","","","","","NA"
"2017-09-29 00:00","2017","09","29","00:00","8.5","","6.9","","89","","","M","","M","","","98.59","","","","","","NA"
"2017-09-29 01:00","2017","09","29","01:00","8.3","","6.6","","89","","","M","","M","","","98.57","","","","","","NA"
"2017-09-29 02:00","2017","09","29","02:00","9.0","","7.2","","88","","","M","","M","","","98.53","","","","","","NA"
"2017-09-29 03:00","2017","09","29","03:00","8.7","","7.2","","91","","","M","","M","","","98.49","","","","","","NA"
"2017-09-29 04:00","2017","09","29","04:00","9.4","","7.3","","86","","","M","","M","","","98.43","","","","","","NA"
"2017-09-29 05:00","2017","09","29","05:00","10.3","","7.2","","81","","","M","","M","","","98.41","","","","","","NA"
"2017-09-29 06:00","2017","09","29","06:00","10.9","","7.5","","80","","","M","","M","","","98.36","","","","","","NA"
"2017-09-29 07:00","2017","09","29","07:00","11.7","","9.6","","87","","","M","","M","","","98.43","","","","","","NA"
"2017-09-29 08:00","2017","09","29","08:00","11.9","","10.5","","92","","","M","","M","","","98.37","","","","","","NA"
"2017-09-29 09:00","2017","09","29","09:00","12.9","","11.0","","89","","","M","","M","","","98.32","","","","","","NA"
"2017-09-29 10:00","2017","09","29","10:00","15.3","","11.3","","77","","","M","","M","","","98.30","","","","","","NA"
"2017-09-29 11:00","2017","09","29","11:00","16.7","","11.2","","70","","","M","","M","","","98.28","","","","","","NA"
"2017-09-29 12:00","2017","09","29","12:00","18.8","","10.2","","57","","","M","","M","","","98.23","","","","","","NA"
"2017-09-29 13:00","2017","09","29","13:00","17.0","","10.8","","67","","","M","","M","","","98.26","","","","","","NA"
"2017-09-29 14:00","2017","09","29","14:00","15.9","","7.3","","56","","","M","","M","","","98.29","","","","","","NA"
"2017-09-29 15:00","2017","09","29","15:00","12.9","","10.1","","83","","","M","","M","","","98.42","","","","","","NA"
"2017-09-29 16:00","2017","09","29","16:00","14.7","","8.7","","67","","","M","","M","","","98.44","","","","","","NA"
"2017-09-29 17:00","2017","09","29","17:00","13.5","","7.4","","67","","","M","","M","","","98.55","","","","","","NA"
"2017-09-29 18:00","2017","09","29","18:00","12.1","","6.2","","67","","","M","","M","","","98.64","","","","","","NA"
"2017-09-29 19:00","2017","09","29","19:00","11.4","","6.3","","71","","","M","","M","","","98.73","","","","","","NA"
"2017-09-29 20:00","2017","09","29","20:00","10.5","","5.3","","70","","","M","","M","","","98.84","","","","","","NA"
"2017-09-29 21:00","2017","09","29","21:00","10.0","","5.3","","73","","","M","","M","","","98.89","","","","","","NA"
"2017-09-29 22:00","2017","09","29","22:00","9.1","","5.5","","78","","","M","","M","","","98.97","","","","","","NA"
"2017-09-29 23:00","2017","09","29","23:00","8.5","","5.4","","81","","","M","","M","","","99.05","","","","","","NA"
"2017-09-30 00:00","2017","09","30","00:00","7.6","","5.3","","85","","","M","","M","","","99.11","","","","","","NA"
"2017-09-30 01:00","2017","09","30","01:00","7.5","","5.4","","86","","","M","","M","","","99.16","","","","","","NA"
"2017-09-30 02:00","2017","09","30","02:00","7.3","","5.6","","89","","","M","","M","","","99.21","","","","","","NA"
"2017-09-30 03:00","2017","09","30","03:00","8.6","","6.7","","88","","","M","","M","","","99.29","","","","","","NA"
"2017-09-30 04:00","2017","09","30","04:00","8.8","","6.2","","84","","","M","","M","","","99.33","","","","","","NA"
"2017-09-30 05:00","2017","09","30","05:00","8.8","","5.8","","81","","","M","","M","","","99.40","","","","","","NA"
"2017-09-30 06:00","2017","09","30","06:00","7.9","","5.2","","84","","","M","","M","","","99.48","","","","","","NA"
"2017-09-30 07:00","2017","09","30","07:00","7.0","","4.7","","85","","","M","","M","","","99.56","","","","","","NA"
"2017-09-30 08:00","2017","09","30","08:00","8.4","","3.5","","71","","","M","","M","","","99.58","","","","","","NA"
"2017-09-30 09:00","2017","09","30","09:00","10.0","","1.8","","57","","","M","","M","","","99.65","","","","","","NA"
"2017-09-30 10:00","2017","09","30","10:00","10.6","","2.0","","55","","","M","","M","","","99.69","","","","","","NA"
"2017-09-30 11:00","2017","09","30","11:00","12.0","","2.4","","52","","","M","","M","","","99.73","","","","","","NA"
"2017-09-30 12:00","2017","09","30","12:00","12.8","","2.1","","48","","","M","","M","","","99.73","","","","","","NA"
"2017-09-30 13:00","2017","09","30","13:00","13.2","","1.2","","44","","","M","","M","","","99.69","","","","","","NA"
"2017-09-30 14:00","2017","09","30","14:00","14.1","","1.3","","42","","","M","","M","","","99.61","","","","","","NA"
"2017-09-30 15:00","2017","09","30","15:00","15.3","","3.3","","45","","","M","","M","","","99.56","","","","","","NA"
"2017-09-30 16:00","2017","09","30","16:00","14.9","","1.4","","40","","","M","","M","","","99.56","","","","","","NA"
"2017-09-30 17:00","2017","09","30","17:00","14.7","","1.2","","40","","","M","","M","","","99.55","","","","","","NA"
"2017-09-30 18:00","2017","09","30","18:00","13.6","","2.4","","46","","","M","","M","","","99.56","","","","","","NA"
"2017-09-30 19:00","2017","09","30","19:00","11.3","","6.0","","70","","","M","","M","","","99.61","","","","","","NA"
"2017-09-30 20:00","2017","09","30","20:00","10.1","","5.7","","74","","","M","","M","","","99.64","","","","","","NA"
"2017-09-30 21:00","2017","09","30","21:00","8.1","","5.1","","81","","","M","","M","","","99.65","","","","","","NA"
"2017-09-30 22:00","2017","09","30","22:00","6.4","","4.8","","90","","","M","","M","","","99.65","","","","","","NA"
"2017-09-30 23:00","2017","09","30","23:00","6.5","","4.9","","89","","","M","","M","","","99.63","","","","","","NA"
