"Station Name","BARRIE-ORO"
"Province","ONTARIO"
"Latitude","44.48"
"Longitude","-79.55"
"Elevation","289.00"
"Climate Identifier","6117700"
"WMO Identifier","71314"
"TC Identifier","XBI"
"All times are specified in Local Standard Time (LST). Add 1 hour to adjust for Daylight Saving Time where and when it is observed."

"Legend"
"E","Estimated"
"M","Missing"
"NA","Not Available"

"Date/Time","Year","Month","Day","Time","Temp (°C)","Temp Flag","Dew Point Temp (°C)","Dew Point Temp Flag","Rel Hum (%)","Rel Hum Flag","Wind Dir (10s deg)","Wind Dir Flag","Wind Spd (km/h)","Wind Spd Flag","Visibility (km)","Visibility Flag","Stn Press (kPa)","Stn Press Flag","Hmdx","Hmdx Flag","Wind Chill","Wind Chill Flag","Weather"
"2017-08-01 00:00","2017","08","01","00:00","17.7","","15.7","","88","","29","","7","","","","98.45","","","","","","NA"
"2017-08-01 01:00","2017","08","01","01:00","17.2","","15.8","","92","","28","","9","","","","98.46","","","","","","NA"
"2017-08-01 02:00","2017","08","01","02:00","16.9","","15.7","","93","","28","","7","","","","98.42","","","","","","NA"
"2017-08-01 03:00","2017","08","01","03:00","16.2","","14.9","","92","","29","","5","","","","98.40","","","","","","NA"
"2017-08-01 04:00","2017","08","01","04:00","15.8","","14.8","","94","","30","","5","","","","98.40","","","","","","NA"
"2017-08-01 05:00","2017","08","01","05:00","14.9","","13.8","","93","","33","","3","","","","98.42","","","","","","NA"
"2017-08-01 06:00","2017","08","01","06:00","15.5","","14.3","","93","","29","","4","","","","98.44","","","","","","NA"
"2017-08-01 07:00","2017","08","01","07:00","18.2","","17.1","","94","","28","","7","","","","98.48","","","","","","NA"
"2017-08-01 08:00","2017","08","01","08:00","21.8","","17.8","","78","","28","","2","","","","98.49","","28","","","","NA"
"2017-08-01 09:00","2017","08","01","09:00"
"2017-08-01 10:00","2017","08","01","10:00"
"2017-08-01 11:00","2017","08","01","11:00"
"2017-08-01 12:00","2017","08","01","12:00"
"2017-08-01 13:00","2017","08","01","13:00"
"2017-08-01 14:00","2017","08","01","14:00"
"2017-08-01 15:00","2017","08","01","15:00"
"2017-08-01 16:00","2017","08","01","16:00","27.8","","16.9","","51","","17","","11","","","","98.18","","33","","","","NA"
"2017-08-01 17:00","2017","08","01","17:00","21.1","","14.7","","67","","23","","12","","","","98.28","","25","","","","NA"
"2017-08-01 18:00","2017","08","01","18:00","20.5","","16.3","","77","","28","","13","","","","98.22","","25","","","","NA"
"2017-08-01 19:00","2017","08","01","19:00","22.6","","16.4","","68","","26","","8","","","","98.21","","27","","","","NA"
"2017-08-01 20:00","2017","08","01","20:00","20.6","","17.0","","80","","21","","6","","","","98.27","","26","","","","NA"
"2017-08-01 21:00","2017","08","01","21:00","18.6","","16.7","","89","","30","","7","","","","98.30","","","","","","NA"
"2017-08-01 22:00","2017","08","01","22:00","17.7","","16.2","","91","","35","","2","","","","98.25","","","","","","NA"
"2017-08-01 23:00","2017","08","01","23:00","17.9","","15.9","","88","","28","","2","","","","98.25","","","","","","NA"
"2017-08-02 00:00","2017","08","02","00:00","17.0","","15.6","","92","","","","0","","","","98.23","","","","","","NA"
"2017-08-02 01:00","2017","08","02","01:00","16.3","","14.9","","92","","","","0","","","","98.21","","","","","","NA"
"2017-08-02 02:00","2017","08","02","02:00","16.4","","15.2","","93","","","","0","","","","98.22","","","","","","NA"
"2017-08-02 03:00","2017","08","02","03:00","15.1","","13.8","","92","","","","0","","","","98.21","","","","","","NA"
"2017-08-02 04:00","2017","08","02","04:00","14.9","","13.6","","91","","28","","1","","","","98.22","","","","","","NA"
"2017-08-02 05:00","2017","08","02","05:00","14.8","","13.6","","93","","","","0","","","","98.22","","","","","","NA"
"2017-08-02 06:00","2017","08","02","06:00","15.4","","14.3","","93","","28","","2","","","","98.25","","","","","","NA"
"2017-08-02 07:00","2017","08","02","07:00","19.5","","17.4","","88","","29","","6","","","","98.27","","","","","","NA"
"2017-08-02 08:00","2017","08","02","08:00","22.7","","17.0","","70","","28","","6","","","","98.25","","28","","","","NA"
"2017-08-02 09:00","2017","08","02","09:00","22.7","","17.5","","72","","18","","11","","","","98.25","","28","","","","NA"
"2017-08-02 10:00","2017","08","02","10:00","23.2","","18.7","","76","","23","","7","","","","98.24","","30","","","","NA"
"2017-08-02 11:00","2017","08","02","11:00","25.3","","17.9","","64","","20","","12","","","","98.21","","31","","","","NA"
"2017-08-02 12:00","2017","08","02","12:00","26.0","","18.6","","64","","24","","11","","","","98.17","","32","","","","NA"
"2017-08-02 13:00","2017","08","02","13:00","21.9","","16.2","","70","","35","","12","","","","98.21","","27","","","","NA"
"2017-08-02 14:00","2017","08","02","14:00","23.5","","18.1","","72","","32","","8","","","","98.14","","30","","","","NA"
"2017-08-02 15:00","2017","08","02","15:00","24.2","","19.3","","74","","20","","3","","","","98.11","","31","","","","NA"
"2017-08-02 16:00","2017","08","02","16:00","26.8","","15.9","","51","","32","","14","","","","98.14","","31","","","","NA"
"2017-08-02 17:00","2017","08","02","17:00","25.2","","17.9","","64","","7","","12","","","","98.14","","31","","","","NA"
"2017-08-02 18:00","2017","08","02","18:00","23.2","","17.7","","71","","15","","8","","","","98.20","","29","","","","NA"
"2017-08-02 19:00","2017","08","02","19:00","22.3","","18.5","","79","","17","","5","","","","98.21","","29","","","","NA"
"2017-08-02 20:00","2017","08","02","20:00","20.6","","17.8","","84","","20","","1","","","","98.25","","26","","","","NA"
"2017-08-02 21:00","2017","08","02","21:00","18.9","","17.1","","90","","","","0","","","","98.26","","","","","","NA"
"2017-08-02 22:00","2017","08","02","22:00","18.0","","16.5","","91","","","","0","","","","98.26","","","","","","NA"
"2017-08-02 23:00","2017","08","02","23:00","17.7","","16.5","","93","","33","","4","","","","98.30","","","","","","NA"
"2017-08-03 00:00","2017","08","03","00:00","18.3","","16.8","","91","","","","0","","","","98.34","","","","","","NA"
"2017-08-03 01:00","2017","08","03","01:00","17.8","","16.5","","92","","","","0","","","","98.35","","","","","","NA"
"2017-08-03 02:00","2017","08","03","02:00","16.8","","15.8","","94","","33","","3","","","","98.32","","","","","","NA"
"2017-08-03 03:00","2017","08","03","03:00","16.7","","15.7","","94","","","","0","","","","98.31","","","","","","NA"
"2017-08-03 04:00","2017","08","03","04:00","16.5","","15.7","","95","","27","","2","","","","98.33","","","","","","NA"
"2017-08-03 05:00","2017","08","03","05:00","17.7","","17.0","","95","","36","","3","","","","98.37","","","","","","NA"
"2017-08-03 06:00","2017","08","03","06:00","17.9","","17.2","","95","","35","","7","","","","98.41","","","","","","NA"
"2017-08-03 07:00","2017","08","03","07:00","18.4","","17.6","","95","","1","","5","","","","98.44","","","","","","NA"
"2017-08-03 08:00","2017","08","03","08:00","19.0","","17.7","","92","","36","","9","","","","98.48","","","","","","NA"
"2017-08-03 09:00","2017","08","03","09:00","19.8","","17.4","","86","","36","","10","","","","98.49","","","","","","NA"
"2017-08-03 10:00","2017","08","03","10:00","21.7","","18.6","","83","","4","","9","","","","98.49","","28","","","","NA"
"2017-08-03 11:00","2017","08","03","11:00","22.7","","18.4","","77","","9","","7","","","","98.46","","29","","","","NA"
"2017-08-03 12:00","2017","08","03","12:00","23.4","","18.4","","73","","16","","6","","","","98.42","","30","","","","NA"
"2017-08-03 13:00","2017","08","03","13:00","24.6","","17.5","","65","","14","","5","","","","98.31","","30","","","","NA"
"2017-08-03 14:00","2017","08","03","14:00","24.7","","17.5","","64","","17","","6","","","","98.23","","30","","","","NA"
"2017-08-03 15:00","2017","08","03","15:00","25.2","","17.9","","64","","12","","7","","","","98.17","","31","","","","NA"
"2017-08-03 16:00","2017","08","03","16:00","23.5","","18.1","","72","","11","","13","","","","98.21","","30","","","","NA"
"2017-08-03 17:00","2017","08","03","17:00","20.2","","16.7","","81","","17","","11","","","","98.19","","25","","","","NA"
"2017-08-03 18:00","2017","08","03","18:00","19.9","","17.6","","87","","31","","4","","","","98.19","","","","","","NA"
"2017-08-03 19:00","2017","08","03","19:00","20.0","","17.8","","87","","9","","10","","","","98.18","","26","","","","NA"
"2017-08-03 20:00","2017","08","03","20:00","19.9","","17.8","","87","","11","","8","","","","98.15","","","","","","NA"
"2017-08-03 21:00","2017","08","03","21:00","20.0","","18.1","","89","","13","","6","","","","98.10","","26","","","","NA"
"2017-08-03 22:00","2017","08","03","22:00","20.4","","18.9","","92","","13","","9","","","","98.05","","27","","","","NA"
"2017-08-03 23:00","2017","08","03","23:00","20.2","","18.3","","89","","15","","10","","","","97.94","","26","","","","NA"
"2017-08-04 00:00","2017","08","04","00:00","20.2","","18.5","","91","","13","","10","","","","97.91","","27","","","","NA"
"2017-08-04 01:00","2017","08","04","01:00","20.2","","18.8","","92","","14","","11","","","","97.83","","27","","","","NA"
"2017-08-04 02:00","2017","08","04","02:00","20.0","","18.4","","91","","17","","11","","","","97.81","","26","","","","NA"
"2017-08-04 03:00","2017","08","04","03:00","19.5","","17.6","","88","","15","","14","","","","97.75","","","","","","NA"
"2017-08-04 04:00","2017","08","04","04:00","19.2","","17.5","","90","","19","","9","","","","97.74","","","","","","NA"
"2017-08-04 05:00","2017","08","04","05:00","19.2","","17.3","","89","","17","","11","","","","97.67","","","","","","NA"
"2017-08-04 06:00","2017","08","04","06:00","19.1","","17.4","","90","","18","","11","","","","97.65","","","","","","NA"
"2017-08-04 07:00","2017","08","04","07:00","19.2","","17.3","","89","","19","","13","","","","97.64","","","","","","NA"
"2017-08-04 08:00","2017","08","04","08:00","20.3","","17.7","","85","","19","","13","","","","97.63","","26","","","","NA"
"2017-08-04 09:00","2017","08","04","09:00","21.4","","17.9","","81","","19","","17","","","","97.60","","27","","","","NA"
"2017-08-04 10:00","2017","08","04","10:00","22.2","","18.3","","79","","19","","14","","","","97.58","","28","","","","NA"
"2017-08-04 11:00","2017","08","04","11:00","22.8","","19.3","","81","","16","","15","","","","97.50","","30","","","","NA"
"2017-08-04 12:00","2017","08","04","12:00","22.9","","19.6","","82","","15","","17","","","","97.39","","30","","","","NA"
"2017-08-04 13:00","2017","08","04","13:00","22.5","","20.4","","88","","15","","16","","","","97.32","","30","","","","NA"
"2017-08-04 14:00","2017","08","04","14:00","23.7","","19.6","","78","","17","","24","","","","97.20","","31","","","","NA"
"2017-08-04 15:00","2017","08","04","15:00","23.9","","17.9","","69","","19","","21","","","","97.19","","30","","","","NA"
"2017-08-04 16:00","2017","08","04","16:00","23.5","","18.3","","73","","19","","13","","","","97.18","","30","","","","NA"
"2017-08-04 17:00","2017","08","04","17:00","20.8","","18.1","","85","","18","","22","","","","97.20","","27","","","","NA"
"2017-08-04 18:00","2017","08","04","18:00","19.1","","17.2","","89","","17","","17","","","","97.15","","","","","","NA"
"2017-08-04 19:00","2017","08","04","19:00","18.8","","16.7","","88","","19","","17","","","","97.14","","","","","","NA"
"2017-08-04 20:00","2017","08","04","20:00","18.7","","17.1","","91","","18","","14","","","","97.14","","","","","","NA"
"2017-08-04 21:00","2017","08","04","21:00","18.7","","16.8","","89","","20","","14","","","","97.19","","","","","","NA"
"2017-08-04 22:00","2017","08","04","22:00","18.2","","11.4","","64","","24","","15","","","","97.23","","","","","","NA"
"2017-08-04 23:00","2017","08","04","23:00","16.1","","11.1","","72","","24","","10","","","","97.24","","","","","","NA"
"2017-08-05 00:00","2017","08","05","00:00","15.5","","11.3","","76","","20","","12","","","","97.24","","","","","","NA"
"2017-08-05 01:00","2017","08","05","01:00","14.9","","11.5","","80","","20","","10","","","","97.22","","","","","","NA"
"2017-08-05 02:00","2017","08","05","02:00","14.5","","11.8","","84","","20","","8","","","","97.20","","","","","","NA"
"2017-08-05 03:00","2017","08","05","03:00","14.1","","12.0","","87","","21","","8","","","","97.17","","","","","","NA"
"2017-08-05 04:00","2017","08","05","04:00","14.5","","12.4","","87","","23","","12","","","","97.18","","","","","","NA"
"2017-08-05 05:00","2017","08","05","05:00","14.7","","12.3","","86","","23","","10","","","","97.19","","","","","","NA"
"2017-08-05 06:00","2017","08","05","06:00","15.0","","12.5","","85","","23","","12","","","","97.27","","","","","","NA"
"2017-08-05 07:00","2017","08","05","07:00","15.8","","12.7","","82","","23","","15","","","","97.31","","","","","","NA"
"2017-08-05 08:00","2017","08","05","08:00","16.7","","13.0","","78","","25","","17","","","","97.36","","","","","","NA"
"2017-08-05 09:00","2017","08","05","09:00","15.5","","13.6","","88","","26","","22","","","","97.43","","","","","","NA"
"2017-08-05 10:00","2017","08","05","10:00","17.4","","12.7","","74","","28","","30","","","","97.48","","","","","","NA"
"2017-08-05 11:00","2017","08","05","11:00","18.1","","12.4","","69","","28","","32","","","","97.54","","","","","","NA"
"2017-08-05 12:00","2017","08","05","12:00","16.6","","10.7","","68","","28","","29","","","","97.60","","","","","","NA"
"2017-08-05 13:00","2017","08","05","13:00","16.7","","11.0","","69","","29","","32","","","","97.64","","","","","","NA"
"2017-08-05 14:00","2017","08","05","14:00","14.8","","11.8","","83","","29","","30","","","","97.73","","","","","","NA"
"2017-08-05 15:00","2017","08","05","15:00","16.5","","11.0","","70","","28","","29","","","","97.82","","","","","","NA"
"2017-08-05 16:00","2017","08","05","16:00","16.3","","13.0","","81","","28","","23","","","","97.90","","","","","","NA"
"2017-08-05 17:00","2017","08","05","17:00","16.8","","8.9","","60","","29","","35","","","","97.96","","","","","","NA"
"2017-08-05 18:00","2017","08","05","18:00","16.9","","9.7","","62","","30","","25","","","","98.00","","","","","","NA"
"2017-08-05 19:00","2017","08","05","19:00","15.8","","9.4","","66","","29","","20","","","","98.09","","","","","","NA"
"2017-08-05 20:00","2017","08","05","20:00","14.5","","10.5","","77","","26","","5","","","","98.13","","","","","","NA"
"2017-08-05 21:00","2017","08","05","21:00","12.0","","10.8","","92","","27","","2","","","","98.14","","","","","","NA"
"2017-08-05 22:00","2017","08","05","22:00","10.8","","9.7","","93","","27","","7","","","","98.15","","","","","","NA"
"2017-08-05 23:00","2017","08","05","23:00","11.4","","10.4","","94","","28","","2","","","","98.16","","","","","","NA"
"2017-08-06 00:00","2017","08","06","00:00","10.6","","9.6","","94","","26","","7","","","","98.17","","","","","","NA"
"2017-08-06 01:00","2017","08","06","01:00","10.9","","9.7","","92","","27","","10","","","","98.17","","","","","","NA"
"2017-08-06 02:00","2017","08","06","02:00","10.1","","8.9","","93","","28","","9","","","","98.15","","","","","","NA"
"2017-08-06 03:00","2017","08","06","03:00","10.6","","9.2","","91","","25","","8","","","","98.15","","","","","","NA"
"2017-08-06 04:00","2017","08","06","04:00","10.8","","8.7","","87","","27","","10","","","","98.18","","","","","","NA"
"2017-08-06 05:00","2017","08","06","05:00","9.8","","8.3","","91","","27","","9","","","","98.24","","","","","","NA"
"2017-08-06 06:00","2017","08","06","06:00","10.8","","9.2","","90","","28","","10","","","","98.29","","","","","","NA"
"2017-08-06 07:00","2017","08","06","07:00","14.4","","11.5","","83","","27","","8","","","","98.30","","","","","","NA"
"2017-08-06 08:00","2017","08","06","08:00","17.1","","12.9","","76","","28","","13","","","","98.30","","","","","","NA"
"2017-08-06 09:00","2017","08","06","09:00","19.1","","13.1","","68","","27","","13","","","","98.30","","","","","","NA"
"2017-08-06 10:00","2017","08","06","10:00","20.4","","12.8","","62","","26","","14","","","","98.28","","","","","","NA"
"2017-08-06 11:00","2017","08","06","11:00","21.2","","11.0","","52","","26","","17","","","","98.30","","","","","","NA"
"2017-08-06 12:00","2017","08","06","12:00","22.0","","11.8","","52","","29","","18","","","","98.29","","","","","","NA"
"2017-08-06 13:00","2017","08","06","13:00","22.8","","11.6","","49","","26","","12","","","","98.24","","25","","","","NA"
"2017-08-06 14:00","2017","08","06","14:00","23.8","","13.3","","52","","28","","10","","","","98.21","","27","","","","NA"
"2017-08-06 15:00","2017","08","06","15:00","22.9","","11.6","","49","","26","","11","","","","98.20","","25","","","","NA"
"2017-08-06 16:00","2017","08","06","16:00","23.0","","11.2","","47","","30","","11","","","","98.17","","25","","","","NA"
"2017-08-06 17:00","2017","08","06","17:00","22.0","","12.1","","53","","28","","13","","","","98.18","","","","","","NA"
"2017-08-06 18:00","2017","08","06","18:00","20.4","","13.8","","66","","30","","7","","","","98.21","","","","","","NA"
"2017-08-06 19:00","2017","08","06","19:00","18.7","","15.1","","80","","27","","5","","","","98.22","","","","","","NA"
"2017-08-06 20:00","2017","08","06","20:00","16.1","","14.2","","89","","0","","1","","","","98.24","","","","","","NA"
"2017-08-06 21:00","2017","08","06","21:00","15.0","","13.5","","91","","","","0","","","","98.27","","","","","","NA"
"2017-08-06 22:00","2017","08","06","22:00","15.8","","14.2","","91","","28","","6","","","","98.31","","","","","","NA"
"2017-08-06 23:00","2017","08","06","23:00","15.1","","13.9","","92","","0","","1","","","","98.29","","","","","","NA"
"2017-08-07 00:00","2017","08","07","00:00","13.7","","13.0","","95","","","","0","","","","98.28","","","","","","NA"
"2017-08-07 01:00","2017","08","07","01:00","12.4","","11.7","","96","","30","","2","","","","98.27","","","","","","NA"
"2017-08-07 02:00","2017","08","07","02:00","12.1","","11.4","","96","","2","","1","","","","98.25","","","","","","NA"
"2017-08-07 03:00","2017","08","07","03:00","11.5","","10.9","","96","","28","","4","","","","98.22","","","","","","NA"
"2017-08-07 04:00","2017","08","07","04:00","11.8","","11.1","","96","","30","","1","","","","98.20","","","","","","NA"
"2017-08-07 05:00","2017","08","07","05:00","11.7","","11.0","","96","","","","0","","","","98.20","","","","","","NA"
"2017-08-07 06:00","2017","08","07","06:00","12.8","","12.1","","95","","28","","3","","","","98.24","","","","","","NA"
"2017-08-07 07:00","2017","08","07","07:00","14.7","","13.9","","95","","33","","2","","","","98.24","","","","","","NA"
"2017-08-07 08:00","2017","08","07","08:00","16.2","","15.0","","93","","33","","3","","","","98.24","","","","","","NA"
"2017-08-07 09:00","2017","08","07","09:00","16.7","","15.2","","91","","33","","6","","","","98.25","","","","","","NA"
"2017-08-07 10:00","2017","08","07","10:00","17.4","","16.0","","92","","34","","7","","","","98.23","","","","","","NA"
"2017-08-07 11:00","2017","08","07","11:00","17.7","","15.1","","85","","24","","3","","","","98.25","","","","","","NA"
"2017-08-07 12:00","2017","08","07","12:00","18.8","","13.4","","71","","0","","1","","","","98.18","","","","","","NA"
"2017-08-07 13:00","2017","08","07","13:00","21.0","","14.1","","65","","21","","2","","","","98.13","","","","","","NA"
"2017-08-07 14:00","2017","08","07","14:00","19.2","","13.6","","70","","17","","7","","","","98.12","","","","","","NA"
"2017-08-07 15:00","2017","08","07","15:00","19.3","","13.4","","69","","17","","5","","","","98.09","","","","","","NA"
"2017-08-07 16:00","2017","08","07","16:00","20.6","","12.7","","61","","26","","5","","","","98.07","","","","","","NA"
"2017-08-07 17:00","2017","08","07","17:00","20.2","","12.5","","61","","28","","6","","","","98.06","","","","","","NA"
"2017-08-07 18:00","2017","08","07","18:00","19.5","","11.8","","61","","30","","8","","","","98.06","","","","","","NA"
"2017-08-07 19:00","2017","08","07","19:00","18.6","","13.4","","72","","33","","9","","","","98.07","","","","","","NA"
"2017-08-07 20:00","2017","08","07","20:00","16.5","","12.6","","78","","33","","4","","","","98.10","","","","","","NA"
"2017-08-07 21:00","2017","08","07","21:00","14.0","","12.5","","90","","30","","4","","","","98.15","","","","","","NA"
"2017-08-07 22:00","2017","08","07","22:00","12.8","","11.6","","92","","28","","8","","","","98.15","","","","","","NA"
"2017-08-07 23:00","2017","08","07","23:00","12.4","","11.3","","93","","28","","9","","","","98.16","","","","","","NA"
"2017-08-08 00:00","2017","08","08","00:00","13.8","","12.8","","94","","30","","14","","","","98.17","","","","","","NA"
"2017-08-08 01:00","2017","08","08","01:00","12.8","","11.9","","95","","30","","4","","","","98.18","","","","","","NA"
"2017-08-08 02:00","2017","08","08","02:00","13.5","","12.1","","91","","30","","13","","","","98.19","","","","","","NA"
"2017-08-08 03:00","2017","08","08","03:00","12.1","","11.2","","94","","29","","12","","","","98.19","","","","","","NA"
"2017-08-08 04:00","2017","08","08","04:00","12.3","","11.5","","95","","29","","9","","","","98.18","","","","","","NA"
"2017-08-08 05:00","2017","08","08","05:00","12.1","","11.2","","94","","27","","6","","","","98.22","","","","","","NA"
"2017-08-08 06:00","2017","08","08","06:00","13.0","","12.3","","96","","27","","8","","","","98.27","","","","","","NA"
"2017-08-08 07:00","2017","08","08","07:00","15.8","","14.3","","91","","29","","15","","","","98.31","","","","","","NA"
"2017-08-08 08:00","2017","08","08","08:00","17.5","","14.6","","83","","28","","13","","","","98.32","","","","","","NA"
"2017-08-08 09:00","2017","08","08","09:00","19.5","","14.3","","72","","28","","13","","","","98.33","","","","","","NA"
"2017-08-08 10:00","2017","08","08","10:00","20.8","","13.4","","63","","28","","13","","","","98.33","","","","","","NA"
"2017-08-08 11:00","2017","08","08","11:00","21.7","","11.7","","53","","30","","15","","","","98.34","","","","","","NA"
"2017-08-08 12:00","2017","08","08","12:00","22.3","","11.5","","51","","28","","16","","","","98.34","","","","","","NA"
"2017-08-08 13:00","2017","08","08","13:00","23.0","","11.4","","48","","27","","20","","","","98.31","","25","","","","NA"
"2017-08-08 14:00","2017","08","08","14:00","23.4","","13.3","","53","","28","","20","","","","98.29","","26","","","","NA"
"2017-08-08 15:00","2017","08","08","15:00","24.0","","14.0","","54","","29","","21","","","","98.24","","27","","","","NA"
"2017-08-08 16:00","2017","08","08","16:00","23.8","","14.4","","56","","29","","19","","","","98.24","","27","","","","NA"
"2017-08-08 17:00","2017","08","08","17:00","23.7","","14.0","","55","","28","","19","","","","98.22","","27","","","","NA"
"2017-08-08 18:00","2017","08","08","18:00","22.8","","13.9","","58","","28","","20","","","","98.25","","26","","","","NA"
"2017-08-08 19:00","2017","08","08","19:00","21.0","","14.4","","66","","25","","7","","","","98.27","","25","","","","NA"
"2017-08-08 20:00","2017","08","08","20:00","18.9","","14.0","","73","","25","","8","","","","98.30","","","","","","NA"
"2017-08-08 21:00","2017","08","08","21:00","17.5","","13.3","","76","","25","","6","","","","98.35","","","","","","NA"
"2017-08-08 22:00","2017","08","08","22:00","17.6","","13.3","","76","","26","","9","","","","98.37","","","","","","NA"
"2017-08-08 23:00","2017","08","08","23:00","16.9","","13.2","","79","","25","","6","","","","98.39","","","","","","NA"
"2017-08-09 00:00","2017","08","09","00:00","15.1","","12.5","","85","","26","","5","","","","98.42","","","","","","NA"
"2017-08-09 01:00","2017","08","09","01:00","14.8","","12.6","","87","","26","","6","","","","98.44","","","","","","NA"
"2017-08-09 02:00","2017","08","09","02:00","14.3","","12.4","","89","","28","","2","","","","98.45","","","","","","NA"
"2017-08-09 03:00","2017","08","09","03:00","14.8","","12.9","","88","","25","","6","","","","98.49","","","","","","NA"
"2017-08-09 04:00","2017","08","09","04:00","14.3","","12.2","","88","","27","","2","","","","98.51","","","","","","NA"
"2017-08-09 05:00","2017","08","09","05:00","12.5","","11.2","","92","","","","0","","","","98.55","","","","","","NA"
"2017-08-09 06:00","2017","08","09","06:00","14.4","","13.3","","93","","0","","1","","","","98.60","","","","","","NA"
"2017-08-09 07:00","2017","08","09","07:00","16.0","","14.6","","92","","34","","3","","","","98.68","","","","","","NA"
"2017-08-09 08:00","2017","08","09","08:00","17.2","","15.5","","90","","36","","4","","","","98.67","","","","","","NA"
"2017-08-09 09:00","2017","08","09","09:00","17.9","","15.8","","88","","","","0","","","","98.70","","","","","","NA"
"2017-08-09 10:00","2017","08","09","10:00","20.1","","15.8","","76","","14","","1","","","","98.71","","25","","","","NA"
"2017-08-09 11:00","2017","08","09","11:00","21.9","","15.6","","67","","19","","4","","","","98.69","","26","","","","NA"
"2017-08-09 12:00","2017","08","09","12:00","23.1","","17.8","","72","","16","","10","","","","98.65","","29","","","","NA"
"2017-08-09 13:00","2017","08","09","13:00","22.9","","17.3","","71","","7","","15","","","","98.61","","28","","","","NA"
"2017-08-09 14:00","2017","08","09","14:00","22.3","","16.7","","71","","9","","9","","","","98.62","","27","","","","NA"
"2017-08-09 15:00","2017","08","09","15:00","25.2","","15.9","","56","","31","","16","","","","98.57","","30","","","","NA"
"2017-08-09 16:00","2017","08","09","16:00","25.0","","15.6","","56","","29","","15","","","","98.59","","29","","","","NA"
"2017-08-09 17:00","2017","08","09","17:00","25.1","","15.7","","56","","30","","13","","","","98.61","","30","","","","NA"
"2017-08-09 18:00","2017","08","09","18:00","23.8","","16.4","","63","","34","","8","","","","98.62","","29","","","","NA"
"2017-08-09 19:00","2017","08","09","19:00","21.2","","16.2","","73","","36","","6","","","","98.66","","26","","","","NA"
"2017-08-09 20:00","2017","08","09","20:00","18.1","","15.8","","87","","","","0","","","","98.69","","","","","","NA"
"2017-08-09 21:00","2017","08","09","21:00","15.9","","14.3","","91","","34","","3","","","","98.76","","","","","","NA"
"2017-08-09 22:00","2017","08","09","22:00","15.6","","14.4","","92","","","","0","","","","98.75","","","","","","NA"
"2017-08-09 23:00","2017","08","09","23:00","15.0","","13.9","","93","","29","","1","","","","98.77","","","","","","NA"
"2017-08-10 00:00","2017","08","10","00:00","14.6","","13.4","","93","","","","0","","","","98.76","","","","","","NA"
"2017-08-10 01:00","2017","08","10","01:00","13.8","","12.8","","94","","29","","2","","","","98.77","","","","","","NA"
"2017-08-10 02:00","2017","08","10","02:00","13.3","","12.1","","93","","0","","1","","","","98.74","","","","","","NA"
"2017-08-10 03:00","2017","08","10","03:00","13.0","","11.7","","92","","","","0","","","","98.73","","","","","","NA"
"2017-08-10 04:00","2017","08","10","04:00","12.7","","11.5","","93","","","","0","","","","98.72","","","","","","NA"
"2017-08-10 05:00","2017","08","10","05:00","13.0","","12.0","","94","","","","0","","","","98.72","","","","","","NA"
"2017-08-10 06:00","2017","08","10","06:00","13.9","","13.0","","94","","30","","2","","","","98.73","","","","","","NA"
"2017-08-10 07:00","2017","08","10","07:00","16.6","","15.3","","92","","29","","1","","","","98.75","","","","","","NA"
"2017-08-10 08:00","2017","08","10","08:00","19.4","","14.8","","75","","20","","8","","","","98.75","","","","","","NA"
"2017-08-10 09:00","2017","08","10","09:00","20.3","","14.6","","70","","19","","4","","","","98.74","","","","","","NA"
"2017-08-10 10:00","2017","08","10","10:00","21.5","","14.8","","65","","20","","8","","","","98.73","","25","","","","NA"
"2017-08-10 11:00","2017","08","10","11:00","22.4","","14.7","","62","","19","","12","","","","98.72","","26","","","","NA"
"2017-08-10 12:00","2017","08","10","12:00","24.8","","15.6","","57","","20","","12","","","","98.69","","29","","","","NA"
"2017-08-10 13:00","2017","08","10","13:00","25.8","","17.1","","59","","18","","9","","","","98.64","","31","","","","NA"
"2017-08-10 14:00","2017","08","10","14:00","25.2","","15.0","","53","","17","","11","","","","98.59","","29","","","","NA"
"2017-08-10 15:00","2017","08","10","15:00","23.4","","15.7","","62","","15","","16","","","","98.56","","28","","","","NA"
"2017-08-10 16:00","2017","08","10","16:00","20.4","","15.1","","72","","13","","4","","","","98.54","","","","","","NA"
"2017-08-10 17:00","2017","08","10","17:00","18.9","","15.7","","82","","6","","5","","","","98.51","","","","","","NA"
"2017-08-10 18:00","2017","08","10","18:00","20.0","","17.0","","83","","4","","2","","","","98.45","","25","","","","NA"
"2017-08-10 19:00","2017","08","10","19:00","20.9","","16.8","","78","","14","","4","","","","98.46","","26","","","","NA"
"2017-08-10 20:00","2017","08","10","20:00","19.8","","16.2","","80","","14","","6","","","","98.45","","","","","","NA"
"2017-08-10 21:00","2017","08","10","21:00","19.1","","15.9","","82","","14","","6","","","","98.46","","","","","","NA"
"2017-08-10 22:00","2017","08","10","22:00","19.0","","15.7","","81","","16","","4","","","","98.43","","","","","","NA"
"2017-08-10 23:00","2017","08","10","23:00","15.9","","14.2","","90","","30","","3","","","","98.42","","","","","","NA"
"2017-08-11 00:00","2017","08","11","00:00","14.7","","13.4","","92","","0","","1","","","","98.41","","","","","","NA"
"2017-08-11 01:00","2017","08","11","01:00","14.9","","13.9","","94","","","","0","","","","98.34","","","","","","NA"
"2017-08-11 02:00","2017","08","11","02:00","14.6","","13.4","","92","","","","0","","","","98.28","","","","","","NA"
"2017-08-11 03:00","2017","08","11","03:00","16.6","","15.2","","91","","17","","4","","","","98.27","","","","","","NA"
"2017-08-11 04:00","2017","08","11","04:00","17.7","","15.3","","86","","18","","6","","","","98.27","","","","","","NA"
"2017-08-11 05:00","2017","08","11","05:00","17.3","","15.1","","87","","18","","6","","","","98.27","","","","","","NA"
"2017-08-11 06:00","2017","08","11","06:00","17.8","","15.6","","87","","18","","4","","","","98.25","","","","","","NA"
"2017-08-11 07:00","2017","08","11","07:00","17.9","","16.4","","91","","","","0","","","","98.24","","","","","","NA"
"2017-08-11 08:00","2017","08","11","08:00","20.1","","17.5","","85","","18","","11","","","","98.22","","26","","","","NA"
"2017-08-11 09:00","2017","08","11","09:00","21.5","","17.7","","79","","19","","8","","","","98.19","","27","","","","NA"
"2017-08-11 10:00","2017","08","11","10:00","22.4","","18.1","","77","","15","","11","","","","98.17","","28","","","","NA"
"2017-08-11 11:00","2017","08","11","11:00","23.3","","18.0","","72","","15","","15","","","","98.12","","29","","","","NA"
"2017-08-11 12:00","2017","08","11","12:00","23.2","","16.9","","68","","19","","14","","","","98.10","","28","","","","NA"
"2017-08-11 13:00","2017","08","11","13:00","23.3","","17.6","","70","","19","","11","","","","98.06","","29","","","","NA"
"2017-08-11 14:00","2017","08","11","14:00","21.2","","17.7","","80","","20","","11","","","","98.00","","27","","","","NA"
"2017-08-11 15:00","2017","08","11","15:00","22.9","","17.9","","74","","17","","13","","","","97.91","","29","","","","NA"
"2017-08-11 16:00","2017","08","11","16:00","21.2","","17.4","","79","","16","","11","","","","97.89","","27","","","","NA"
"2017-08-11 17:00","2017","08","11","17:00","20.9","","18.2","","85","","15","","5","","","","97.85","","27","","","","NA"
"2017-08-11 18:00","2017","08","11","18:00","21.3","","18.0","","82","","18","","10","","","","97.75","","27","","","","NA"
"2017-08-11 19:00","2017","08","11","19:00","17.8","","16.1","","90","","24","","11","","","","97.81","","","","","","NA"
"2017-08-11 20:00","2017","08","11","20:00","18.1","","16.7","","92","","21","","4","","","","97.78","","","","","","NA"
"2017-08-11 21:00","2017","08","11","21:00","17.6","","16.7","","94","","","","0","","","","97.80","","","","","","NA"
"2017-08-11 22:00","2017","08","11","22:00","18.1","","16.7","","91","","21","","5","","","","97.73","","","","","","NA"
"2017-08-11 23:00","2017","08","11","23:00","17.9","","16.7","","93","","22","","7","","","","97.69","","","","","","NA"
"2017-08-12 00:00","2017","08","12","00:00","17.7","","16.7","","94","","24","","5","","","","97.66","","","","","","NA"
"2017-08-12 01:00","2017","08","12","01:00","17.2","","16.3","","95","","0","","1","","","","97.63","","","","","","NA"
"2017-08-12 02:00","2017","08","12","02:00","16.7","","15.9","","95","","28","","2","","","","97.64","","","","","","NA"
"2017-08-12 03:00","2017","08","12","03:00","16.0","","15.2","","95","","29","","4","","","","97.63","","","","","","NA"
"2017-08-12 04:00","2017","08","12","04:00","15.7","","15.0","","96","","29","","2","","","","97.63","","","","","","NA"
"2017-08-12 05:00","2017","08","12","05:00","16.0","","15.2","","96","","24","","3","","","","97.66","","","","","","NA"
"2017-08-12 06:00","2017","08","12","06:00","16.8","","16.1","","96","","26","","6","","","","97.67","","","","","","NA"
"2017-08-12 07:00","2017","08","12","07:00","17.4","","16.4","","94","","27","","8","","","","97.70","","","","","","NA"
"2017-08-12 08:00","2017","08","12","08:00","18.1","","16.8","","92","","27","","9","","","","97.70","","","","","","NA"
"2017-08-12 09:00","2017","08","12","09:00","19.2","","16.2","","83","","27","","16","","","","97.67","","","","","","NA"
"2017-08-12 10:00","2017","08","12","10:00","20.1","","16.4","","79","","26","","14","","","","97.64","","25","","","","NA"
"2017-08-12 11:00","2017","08","12","11:00","22.7","","17.8","","74","","27","","17","","","","97.63","","29","","","","NA"
"2017-08-12 12:00","2017","08","12","12:00","22.5","","16.1","","67","","28","","22","","","","97.62","","27","","","","NA"
"2017-08-12 13:00","2017","08","12","13:00","20.4","","15.9","","75","","30","","22","","","","97.67","","25","","","","NA"
"2017-08-12 14:00","2017","08","12","14:00","22.2","","16.6","","71","","30","","22","","","","97.67","","27","","","","NA"
"2017-08-12 15:00","2017","08","12","15:00","21.5","","17.1","","76","","27","","18","","","","97.67","","27","","","","NA"
"2017-08-12 16:00","2017","08","12","16:00","21.4","","16.1","","72","","31","","23","","","","97.71","","26","","","","NA"
"2017-08-12 17:00","2017","08","12","17:00","20.2","","15.1","","72","","32","","19","","","","97.74","","","","","","NA"
"2017-08-12 18:00","2017","08","12","18:00","20.1","","15.5","","75","","30","","20","","","","97.74","","","","","","NA"
"2017-08-12 19:00","2017","08","12","19:00","18.3","","14.5","","79","","31","","14","","","","97.79","","","","","","NA"
"2017-08-12 20:00","2017","08","12","20:00","16.4","","14.7","","90","","30","","10","","","","97.86","","","","","","NA"
"2017-08-12 21:00","2017","08","12","21:00","17.2","","15.2","","88","","31","","11","","","","97.94","","","","","","NA"
"2017-08-12 22:00","2017","08","12","22:00","15.8","","14.4","","92","","31","","8","","","","97.97","","","","","","NA"
"2017-08-12 23:00","2017","08","12","23:00","15.2","","14.0","","92","","31","","9","","","","97.98","","","","","","NA"
"2017-08-13 00:00","2017","08","13","00:00","13.3","","12.1","","93","","29","","6","","","","98.02","","","","","","NA"
"2017-08-13 01:00","2017","08","13","01:00","13.8","","13.0","","95","","29","","9","","","","98.05","","","","","","NA"
"2017-08-13 02:00","2017","08","13","02:00","13.2","","12.3","","94","","29","","10","","","","98.08","","","","","","NA"
"2017-08-13 03:00","2017","08","13","03:00","14.8","","14.1","","95","","28","","8","","","","98.09","","","","","","NA"
"2017-08-13 04:00","2017","08","13","04:00","13.4","","12.7","","96","","27","","2","","","","98.08","","","","","","NA"
"2017-08-13 05:00","2017","08","13","05:00","13.4","","12.8","","96","","27","","6","","","","98.13","","","","","","NA"
"2017-08-13 06:00","2017","08","13","06:00","13.6","","12.9","","96","","27","","8","","","","98.21","","","","","","NA"
"2017-08-13 07:00","2017","08","13","07:00","16.3","","15.2","","93","","27","","6","","","","98.25","","","","","","NA"
"2017-08-13 08:00","2017","08","13","08:00","19.0","","16.1","","84","","30","","8","","","","98.24","","","","","","NA"
"2017-08-13 09:00","2017","08","13","09:00","20.6","","14.3","","67","","30","","11","","","","98.27","","","","","","NA"
"2017-08-13 10:00","2017","08","13","10:00","21.9","","12.2","","54","","31","","12","","","","98.26","","","","","","NA"
"2017-08-13 11:00","2017","08","13","11:00","22.7","","11.6","","49","","28","","16","","","","98.29","","25","","","","NA"
"2017-08-13 12:00","2017","08","13","12:00","23.2","","10.2","","44","","28","","9","","","","98.26","","25","","","","NA"
"2017-08-13 13:00","2017","08","13","13:00","23.5","","10.8","","45","","27","","15","","","","98.26","","25","","","","NA"
"2017-08-13 14:00","2017","08","13","14:00","23.9","","9.1","","39","","25","","13","","","","98.27","","25","","","","NA"
"2017-08-13 15:00","2017","08","13","15:00","23.6","","8.3","","38","","29","","16","","","","98.27","","","","","","NA"
"2017-08-13 16:00","2017","08","13","16:00","23.5","","8.4","","38","","29","","15","","","","98.28","","","","","","NA"
"2017-08-13 17:00","2017","08","13","17:00","23.2","","8.6","","39","","30","","11","","","","98.26","","","","","","NA"
"2017-08-13 18:00","2017","08","13","18:00","22.2","","9.1","","43","","29","","9","","","","98.23","","","","","","NA"
"2017-08-13 19:00","2017","08","13","19:00","19.3","","12.9","","67","","30","","5","","","","98.22","","","","","","NA"
"2017-08-13 20:00","2017","08","13","20:00","16.1","","12.0","","77","","0","","1","","","","98.22","","","","","","NA"
"2017-08-13 21:00","2017","08","13","21:00","14.4","","11.9","","85","","33","","2","","","","98.26","","","","","","NA"
"2017-08-13 22:00","2017","08","13","22:00","13.4","","11.3","","87","","33","","1","","","","98.29","","","","","","NA"
"2017-08-13 23:00","2017","08","13","23:00","12.9","","11.3","","90","","33","","1","","","","98.29","","","","","","NA"
"2017-08-14 00:00","2017","08","14","00:00","12.5","","10.9","","90","","","","0","","","","98.30","","","","","","NA"
"2017-08-14 01:00","2017","08","14","01:00","11.7","","10.5","","92","","33","","2","","","","98.28","","","","","","NA"
"2017-08-14 02:00","2017","08","14","02:00","12.0","","10.6","","92","","","","0","","","","98.26","","","","","","NA"
"2017-08-14 03:00","2017","08","14","03:00","12.6","","11.3","","92","","0","","1","","","","98.23","","","","","","NA"
"2017-08-14 04:00","2017","08","14","04:00","12.3","","11.0","","92","","0","","1","","","","98.24","","","","","","NA"
"2017-08-14 05:00","2017","08","14","05:00","12.3","","10.9","","92","","","","0","","","","98.23","","","","","","NA"
"2017-08-14 06:00","2017","08","14","06:00","12.3","","11.1","","93","","33","","1","","","","98.24","","","","","","NA"
"2017-08-14 07:00","2017","08","14","07:00","14.3","","12.9","","92","","","","0","","","","98.24","","","","","","NA"
"2017-08-14 08:00","2017","08","14","08:00","17.6","","13.0","","74","","30","","4","","","","98.26","","","","","","NA"
"2017-08-14 09:00","2017","08","14","09:00","20.0","","12.6","","63","","16","","7","","","","98.21","","","","","","NA"
"2017-08-14 10:00","2017","08","14","10:00","21.7","","12.9","","57","","18","","6","","","","98.16","","","","","","NA"
"2017-08-14 11:00","2017","08","14","11:00","22.3","","12.4","","54","","15","","7","","","","98.14","","25","","","","NA"
"2017-08-14 12:00","2017","08","14","12:00","22.3","","10.8","","48","","16","","7","","","","98.08","","","","","","NA"
"2017-08-14 13:00","2017","08","14","13:00","22.9","","8.9","","41","","18","","8","","","","98.03","","","","","","NA"
"2017-08-14 14:00","2017","08","14","14:00","23.5","","10.5","","44","","14","","4","","","","98.00","","25","","","","NA"
"2017-08-14 15:00","2017","08","14","15:00","24.2","","12.8","","49","","17","","8","","","","97.91","","27","","","","NA"
"2017-08-14 16:00","2017","08","14","16:00","24.0","","13.8","","53","","20","","4","","","","97.86","","27","","","","NA"
"2017-08-14 17:00","2017","08","14","17:00","23.5","","13.0","","52","","15","","3","","","","97.79","","26","","","","NA"
"2017-08-14 18:00","2017","08","14","18:00","22.2","","15.2","","65","","8","","6","","","","97.75","","26","","","","NA"
"2017-08-14 19:00","2017","08","14","19:00","20.1","","16.4","","79","","7","","3","","","","97.72","","25","","","","NA"
"2017-08-14 20:00","2017","08","14","20:00","18.0","","15.1","","83","","0","","1","","","","97.71","","","","","","NA"
"2017-08-14 21:00","2017","08","14","21:00","19.1","","14.1","","73","","17","","6","","","","97.74","","","","","","NA"
"2017-08-14 22:00","2017","08","14","22:00","15.9","","13.8","","87","","28","","2","","","","97.75","","","","","","NA"
"2017-08-14 23:00","2017","08","14","23:00","14.6","","12.8","","89","","28","","2","","","","97.74","","","","","","NA"
"2017-08-15 00:00","2017","08","15","00:00","14.5","","13.0","","90","","28","","2","","","","97.73","","","","","","NA"
"2017-08-15 01:00","2017","08","15","01:00","14.7","","13.2","","91","","","","0","","","","97.69","","","","","","NA"
"2017-08-15 02:00","2017","08","15","02:00","15.4","","13.9","","91","","28","","5","","","","97.65","","","","","","NA"
"2017-08-15 03:00","2017","08","15","03:00","16.0","","14.2","","89","","30","","2","","","","97.63","","","","","","NA"
"2017-08-15 04:00","2017","08","15","04:00","15.8","","13.6","","87","","28","","6","","","","97.65","","","","","","NA"
"2017-08-15 05:00","2017","08","15","05:00","15.5","","13.6","","89","","29","","6","","","","97.66","","","","","","NA"
"2017-08-15 06:00","2017","08","15","06:00","15.1","","13.3","","89","","","","0","","","","97.68","","","","","","NA"
"2017-08-15 07:00","2017","08","15","07:00","16.9","","15.2","","90","","27","","1","","","","97.68","","","","","","NA"
"2017-08-15 08:00","2017","08","15","08:00","20.6","","15.2","","71","","23","","5","","","","97.70","","25","","","","NA"
"2017-08-15 09:00","2017","08","15","09:00","22.0","","14.6","","63","","27","","10","","","","97.72","","26","","","","NA"
"2017-08-15 10:00","2017","08","15","10:00","21.8","","15.0","","65","","26","","11","","","","97.74","","26","","","","NA"
"2017-08-15 11:00","2017","08","15","11:00","22.3","","15.8","","67","","31","","9","","","","97.75","","27","","","","NA"
"2017-08-15 12:00","2017","08","15","12:00","22.1","","16.2","","69","","29","","7","","","","97.75","","27","","","","NA"
"2017-08-15 13:00","2017","08","15","13:00","23.5","","15.6","","61","","28","","17","","","","97.76","","28","","","","NA"
"2017-08-15 14:00","2017","08","15","14:00","24.2","","15.4","","58","","28","","21","","","","97.75","","28","","","","NA"
"2017-08-15 15:00","2017","08","15","15:00","24.3","","15.2","","57","","29","","17","","","","97.77","","28","","","","NA"
"2017-08-15 16:00","2017","08","15","16:00","23.3","","15.1","","60","","30","","20","","","","97.78","","27","","","","NA"
"2017-08-15 17:00","2017","08","15","17:00","22.9","","12.6","","52","","29","","20","","","","97.82","","25","","","","NA"
"2017-08-15 18:00","2017","08","15","18:00","21.8","","13.4","","59","","31","","16","","","","97.87","","25","","","","NA"
"2017-08-15 19:00","2017","08","15","19:00","20.0","","14.3","","70","","32","","14","","","","97.88","","","","","","NA"
"2017-08-15 20:00","2017","08","15","20:00","16.9","","13.5","","80","","33","","8","","","","97.94","","","","","","NA"
"2017-08-15 21:00","2017","08","15","21:00","17.1","","14.4","","84","","31","","12","","","","98.03","","","","","","NA"
"2017-08-15 22:00","2017","08","15","22:00","17.1","","15.1","","88","","31","","12","","","","98.03","","","","","","NA"
"2017-08-15 23:00","2017","08","15","23:00","17.1","","15.6","","91","","31","","12","","","","98.08","","","","","","NA"
"2017-08-16 00:00","2017","08","16","00:00","15.7","","14.3","","92","","26","","3","","","","98.10","","","","","","NA"
"2017-08-16 01:00","2017","08","16","01:00","14.9","","14.0","","94","","24","","1","","","","98.16","","","","","","NA"
"2017-08-16 02:00","2017","08","16","02:00","15.4","","14.6","","95","","32","","6","","","","98.22","","","","","","NA"
"2017-08-16 03:00","2017","08","16","03:00","15.8","","14.6","","93","","36","","6","","","","98.25","","","","","","NA"
"2017-08-16 04:00","2017","08","16","04:00","15.5","","14.4","","93","","2","","8","","","","98.27","","","","","","NA"
"2017-08-16 05:00","2017","08","16","05:00","14.7","","13.5","","93","","1","","7","","","","98.32","","","","","","NA"
"2017-08-16 06:00","2017","08","16","06:00","13.7","","12.8","","94","","3","","5","","","","98.41","","","","","","NA"
"2017-08-16 07:00","2017","08","16","07:00","15.3","","13.5","","89","","5","","6","","","","98.48","","","","","","NA"
"2017-08-16 08:00","2017","08","16","08:00","16.5","","13.6","","83","","4","","7","","","","98.54","","","","","","NA"
"2017-08-16 09:00","2017","08","16","09:00","17.7","","12.3","","71","","9","","12","","","","98.57","","","","","","NA"
"2017-08-16 10:00","2017","08","16","10:00","19.0","","12.0","","64","","9","","10","","","","98.56","","","","","","NA"
"2017-08-16 11:00","2017","08","16","11:00","19.4","","11.2","","59","","12","","8","","","","98.57","","","","","","NA"
"2017-08-16 12:00","2017","08","16","12:00","20.6","","12.5","","60","","4","","4","","","","98.55","","","","","","NA"
"2017-08-16 13:00","2017","08","16","13:00","21.4","","11.6","","53","","36","","5","","","","98.49","","","","","","NA"
"2017-08-16 14:00","2017","08","16","14:00","22.1","","12.5","","54","","12","","6","","","","98.45","","25","","","","NA"
"2017-08-16 15:00","2017","08","16","15:00","21.9","","11.6","","52","","12","","8","","","","98.40","","","","","","NA"
"2017-08-16 16:00","2017","08","16","16:00","22.0","","12.3","","54","","12","","10","","","","98.37","","","","","","NA"
"2017-08-16 17:00","2017","08","16","17:00","21.7","","11.4","","52","","13","","9","","","","98.35","","","","","","NA"
"2017-08-16 18:00","2017","08","16","18:00","21.3","","11.2","","52","","11","","6","","","","98.34","","","","","","NA"
"2017-08-16 19:00","2017","08","16","19:00","19.1","","13.6","","70","","11","","4","","","","98.31","","","","","","NA"
"2017-08-16 20:00","2017","08","16","20:00","15.8","","12.8","","83","","11","","2","","","","98.37","","","","","","NA"
"2017-08-16 21:00","2017","08","16","21:00","15.8","","13.4","","86","","","","0","","","","98.39","","","","","","NA"
"2017-08-16 22:00","2017","08","16","22:00","14.7","","12.7","","88","","11","","3","","","","98.41","","","","","","NA"
"2017-08-16 23:00","2017","08","16","23:00","13.7","","11.8","","89","","11","","1","","","","98.41","","","","","","NA"
"2017-08-17 00:00","2017","08","17","00:00","13.4","","12.1","","92","","","","0","","","","98.39","","","","","","NA"
"2017-08-17 01:00","2017","08","17","01:00","13.3","","11.8","","91","","","","0","","","","98.40","","","","","","NA"
"2017-08-17 02:00","2017","08","17","02:00","13.0","","11.7","","92","","","","0","","","","98.34","","","","","","NA"
"2017-08-17 03:00","2017","08","17","03:00","12.7","","11.5","","92","","36","","2","","","","98.29","","","","","","NA"
"2017-08-17 04:00","2017","08","17","04:00","12.7","","11.5","","92","","","","0","","","","98.28","","","","","","NA"
"2017-08-17 05:00","2017","08","17","05:00","13.6","","12.5","","93","","0","","1","","","","98.28","","","","","","NA"
"2017-08-17 06:00","2017","08","17","06:00","14.6","","13.5","","93","","9","","4","","","","98.28","","","","","","NA"
"2017-08-17 07:00","2017","08","17","07:00","17.8","","14.5","","81","","13","","7","","","","98.29","","","","","","NA"
"2017-08-17 08:00","2017","08","17","08:00","19.3","","13.0","","67","","13","","11","","","","98.24","","","","","","NA"
"2017-08-17 09:00","2017","08","17","09:00","19.9","","13.7","","67","","14","","13","","","","98.21","","","","","","NA"
"2017-08-17 10:00","2017","08","17","10:00","21.3","","12.9","","59","","15","","14","","","","98.17","","","","","","NA"
"2017-08-17 11:00","2017","08","17","11:00","22.3","","13.3","","57","","15","","16","","","","98.11","","25","","","","NA"
"2017-08-17 12:00","2017","08","17","12:00","22.0","","14.0","","61","","13","","13","","","","98.03","","25","","","","NA"
"2017-08-17 13:00","2017","08","17","13:00","19.5","","13.9","","70","","13","","14","","","","97.97","","","","","","NA"
"2017-08-17 14:00","2017","08","17","14:00","19.0","","13.0","","68","","13","","15","","","","97.93","","","","","","NA"
"2017-08-17 15:00","2017","08","17","15:00","17.8","","13.3","","75","","13","","17","","","","97.84","","","","","","NA"
"2017-08-17 16:00","2017","08","17","16:00","16.5","","12.4","","76","","12","","14","","","","97.77","","","","","","NA"
"2017-08-17 17:00","2017","08","17","17:00","15.9","","12.1","","78","","12","","15","","","","97.69","","","","","","NA"
"2017-08-17 18:00","2017","08","17","18:00","14.9","","13.4","","91","","13","","10","","","","97.68","","","","","","NA"
"2017-08-17 19:00","2017","08","17","19:00","15.5","","14.1","","91","","12","","12","","","","97.58","","","","","","NA"
"2017-08-17 20:00","2017","08","17","20:00","15.9","","14.3","","91","","11","","16","","","","97.50","","","","","","NA"
"2017-08-17 21:00","2017","08","17","21:00","16.4","","14.5","","88","","12","","14","","","","97.45","","","","","","NA"
"2017-08-17 22:00","2017","08","17","22:00","17.2","","15.5","","89","","12","","8","","","","97.41","","","","","","NA"
"2017-08-17 23:00","2017","08","17","23:00","17.7","","16.0","","90","","12","","10","","","","97.34","","","","","","NA"
"2017-08-18 00:00","2017","08","18","00:00","17.9","","16.6","","92","","13","","7","","","","97.25","","","","","","NA"
"2017-08-18 01:00","2017","08","18","01:00","18.4","","17.4","","94","","15","","8","","","","97.16","","","","","","NA"
"2017-08-18 02:00","2017","08","18","02:00","19.2","","18.3","","95","","19","","5","","","","97.12","","","","","","NA"
"2017-08-18 03:00","2017","08","18","03:00","19.4","","18.5","","95","","19","","7","","","","97.10","","","","","","NA"
"2017-08-18 04:00","2017","08","18","04:00","19.0","","18.2","","95","","19","","7","","","","97.09","","","","","","NA"
"2017-08-18 05:00","2017","08","18","05:00","19.2","","18.1","","93","","20","","7","","","","97.12","","","","","","NA"
"2017-08-18 06:00","2017","08","18","06:00","19.3","","18.2","","93","","19","","7","","","","97.16","","","","","","NA"
"2017-08-18 07:00","2017","08","18","07:00","20.6","","19.2","","92","","16","","9","","","","97.14","","28","","","","NA"
"2017-08-18 08:00","2017","08","18","08:00","21.3","","19.2","","88","","17","","11","","","","97.11","","28","","","","NA"
"2017-08-18 09:00","2017","08","18","09:00","23.0","","18.7","","77","","20","","17","","","","97.09","","30","","","","NA"
"2017-08-18 10:00","2017","08","18","10:00","22.9","","18.6","","77","","21","","8","","","","97.09","","29","","","","NA"
"2017-08-18 11:00","2017","08","18","11:00","23.7","","18.9","","75","","22","","15","","","","97.06","","30","","","","NA"
"2017-08-18 12:00","2017","08","18","12:00","23.2","","18.2","","74","","26","","18","","","","97.08","","29","","","","NA"
"2017-08-18 13:00","2017","08","18","13:00","23.0","","17.5","","72","","24","","16","","","","97.08","","29","","","","NA"
"2017-08-18 14:00","2017","08","18","14:00","22.3","","17.1","","72","","24","","12","","","","97.09","","28","","","","NA"
"2017-08-18 15:00","2017","08","18","15:00","22.5","","17.2","","72","","24","","15","","","","97.12","","28","","","","NA"
"2017-08-18 16:00","2017","08","18","16:00","21.6","","17.2","","76","","28","","20","","","","97.16","","27","","","","NA"
"2017-08-18 17:00","2017","08","18","17:00","21.0","","16.4","","75","","27","","21","","","","97.20","","26","","","","NA"
"2017-08-18 18:00","2017","08","18","18:00","20.5","","16.4","","78","","26","","15","","","","97.23","","25","","","","NA"
"2017-08-18 19:00","2017","08","18","19:00","20.0","","16.6","","80","","25","","13","","","","97.27","","25","","","","NA"
"2017-08-18 20:00","2017","08","18","20:00","19.3","","17.0","","86","","25","","9","","","","97.31","","","","","","NA"
"2017-08-18 21:00","2017","08","18","21:00","18.4","","17.1","","92","","29","","19","","","","97.37","","","","","","NA"
"2017-08-18 22:00","2017","08","18","22:00","18.0","","16.5","","91","","27","","14","","","","97.37","","","","","","NA"
"2017-08-18 23:00","2017","08","18","23:00","17.8","","16.3","","91","","27","","11","","","","97.40","","","","","","NA"
"2017-08-19 00:00","2017","08","19","00:00","17.7","","16.1","","91","","26","","11","","","","97.46","","","","","","NA"
"2017-08-19 01:00","2017","08","19","01:00","17.7","","15.8","","89","","26","","9","","","","97.49","","","","","","NA"
"2017-08-19 02:00","2017","08","19","02:00","17.0","","15.2","","89","","26","","10","","","","97.45","","","","","","NA"
"2017-08-19 03:00","2017","08","19","03:00","16.6","","14.9","","90","","27","","11","","","","97.42","","","","","","NA"
"2017-08-19 04:00","2017","08","19","04:00","16.0","","14.2","","89","","26","","13","","","","97.41","","","","","","NA"
"2017-08-19 05:00","2017","08","19","05:00","16.0","","14.2","","89","","28","","19","","","","97.40","","","","","","NA"
"2017-08-19 06:00","2017","08","19","06:00","15.9","","14.5","","91","","23","","6","","","","97.44","","","","","","NA"
"2017-08-19 07:00","2017","08","19","07:00","16.9","","14.7","","87","","24","","11","","","","97.48","","","","","","NA"
"2017-08-19 08:00","2017","08","19","08:00","17.9","","14.6","","81","","27","","14","","","","97.51","","","","","","NA"
"2017-08-19 09:00","2017","08","19","09:00","18.9","","14.3","","74","","26","","16","","","","97.54","","","","","","NA"
"2017-08-19 10:00","2017","08","19","10:00","19.1","","14.4","","74","","27","","14","","","","97.56","","","","","","NA"
"2017-08-19 11:00","2017","08","19","11:00","20.6","","14.5","","68","","27","","20","","","","97.57","","","","","","NA"
"2017-08-19 12:00","2017","08","19","12:00","19.0","","14.8","","77","","26","","18","","","","97.57","","","","","","NA"
"2017-08-19 13:00","2017","08","19","13:00","19.0","","17.1","","89","","25","","12","","","","97.59","","","","","","NA"
"2017-08-19 14:00","2017","08","19","14:00","18.0","","16.4","","91","","28","","22","","","","97.60","","","","","","NA"
"2017-08-19 15:00","2017","08","19","15:00","19.3","","16.2","","82","","27","","20","","","","97.61","","","","","","NA"
"2017-08-19 16:00","2017","08","19","16:00","18.4","","15.2","","81","","29","","27","","","","97.66","","","","","","NA"
"2017-08-19 17:00","2017","08","19","17:00","18.9","","14.8","","77","","29","","21","","","","97.65","","","","","","NA"
"2017-08-19 18:00","2017","08","19","18:00","18.1","","14.3","","78","","29","","19","","","","97.69","","","","","","NA"
"2017-08-19 19:00","2017","08","19","19:00","16.8","","14.3","","85","","29","","12","","","","97.77","","","","","","NA"
"2017-08-19 20:00","2017","08","19","20:00","15.6","","14.1","","91","","27","","6","","","","97.84","","","","","","NA"
"2017-08-19 21:00","2017","08","19","21:00","15.0","","13.8","","93","","24","","5","","","","97.91","","","","","","NA"
"2017-08-19 22:00","2017","08","19","22:00","15.2","","14.3","","94","","26","","6","","","","97.95","","","","","","NA"
"2017-08-19 23:00","2017","08","19","23:00","14.8","","13.9","","94","","25","","6","","","","97.99","","","","","","NA"
"2017-08-20 00:00","2017","08","20","00:00","14.2","","13.1","","93","","26","","8","","","","98.04","","","","","","NA"
"2017-08-20 01:00","2017","08","20","01:00","12.8","","11.8","","94","","26","","7","","","","98.07","","","","","","NA"
"2017-08-20 02:00","2017","08","20","02:00","12.0","","11.1","","94","","28","","6","","","","98.08","","","","","","NA"
"2017-08-20 03:00","2017","08","20","03:00","12.8","","11.7","","93","","27","","10","","","","98.12","","","","","","NA"
"2017-08-20 04:00","2017","08","20","04:00","12.1","","11.1","","94","","28","","7","","","","98.14","","","","","","NA"
"2017-08-20 05:00","2017","08","20","05:00","11.4","","10.5","","94","","27","","4","","","","98.18","","","","","","NA"
"2017-08-20 06:00","2017","08","20","06:00","11.6","","10.8","","95","","","","0","","","","98.24","","","","","","NA"
"2017-08-20 07:00","2017","08","20","07:00","14.5","","13.6","","94","","","","0","","","","98.28","","","","","","NA"
"2017-08-20 08:00","2017","08","20","08:00","17.7","","15.6","","88","","28","","7","","","","98.28","","","","","","NA"
"2017-08-20 09:00","2017","08","20","09:00","20.0","","16.6","","81","","26","","9","","","","98.33","","25","","","","NA"
"2017-08-20 10:00","2017","08","20","10:00","22.8","","17.0","","70","","27","","15","","","","98.37","","28","","","","NA"
"2017-08-20 11:00","2017","08","20","11:00","23.9","","16.5","","63","","29","","13","","","","98.36","","29","","","","NA"
"2017-08-20 12:00","2017","08","20","12:00","25.2","","16.5","","59","","25","","11","","","","98.36","","30","","","","NA"
"2017-08-20 13:00","2017","08","20","13:00","25.6","","16.5","","57","","26","","13","","","","98.35","","31","","","","NA"
"2017-08-20 14:00","2017","08","20","14:00","26.4","","16.7","","55","","28","","14","","","","98.33","","31","","","","NA"
"2017-08-20 15:00","2017","08","20","15:00","26.8","","16.0","","52","","27","","14","","","","98.29","","31","","","","NA"
"2017-08-20 16:00","2017","08","20","16:00","26.3","","16.1","","54","","29","","15","","","","98.27","","31","","","","NA"
"2017-08-20 17:00","2017","08","20","17:00","25.5","","16.6","","58","","30","","13","","","","98.28","","31","","","","NA"
"2017-08-20 18:00","2017","08","20","18:00","24.2","","16.6","","62","","31","","9","","","","98.31","","29","","","","NA"
"2017-08-20 19:00","2017","08","20","19:00","22.0","","17.7","","77","","28","","2","","","","98.36","","28","","","","NA"
"2017-08-20 20:00","2017","08","20","20:00","18.3","","16.3","","88","","28","","5","","","","98.43","","","","","","NA"
"2017-08-20 21:00","2017","08","20","21:00","17.2","","15.5","","90","","28","","3","","","","98.45","","","","","","NA"
"2017-08-20 22:00","2017","08","20","22:00","15.5","","14.1","","92","","28","","3","","","","98.44","","","","","","NA"
"2017-08-20 23:00","2017","08","20","23:00","15.7","","14.6","","93","","0","","1","","","","98.45","","","","","","NA"
"2017-08-21 00:00","2017","08","21","00:00","15.3","","13.7","","91","","","","0","","","","98.47","","","","","","NA"
"2017-08-21 01:00","2017","08","21","01:00","15.4","","13.3","","87","","28","","6","","","","98.48","","","","","","NA"
"2017-08-21 02:00","2017","08","21","02:00","14.7","","13.2","","91","","30","","2","","","","98.48","","","","","","NA"
"2017-08-21 03:00","2017","08","21","03:00","15.1","","13.7","","92","","","","0","","","","98.47","","","","","","NA"
"2017-08-21 04:00","2017","08","21","04:00","14.5","","13.1","","92","","28","","4","","","","98.46","","","","","","NA"
"2017-08-21 05:00","2017","08","21","05:00","14.5","","12.9","","90","","25","","3","","","","98.43","","","","","","NA"
"2017-08-21 06:00","2017","08","21","06:00","15.6","","12.8","","84","","25","","5","","","","98.42","","","","","","NA"
"2017-08-21 07:00","2017","08","21","07:00","18.7","","14.6","","77","","24","","7","","","","98.49","","","","","","NA"
"2017-08-21 08:00","2017","08","21","08:00","21.2","","15.8","","72","","25","","7","","","","98.49","","26","","","","NA"
"2017-08-21 09:00","2017","08","21","09:00","23.8","","17.7","","69","","26","","8","","","","98.46","","30","","","","NA"
"2017-08-21 10:00","2017","08","21","10:00","25.5","","17.6","","62","","26","","12","","","","98.44","","31","","","","NA"
"2017-08-21 11:00","2017","08","21","11:00","26.4","","18.2","","61","","27","","16","","","","98.44","","33","","","","NA"
"2017-08-21 12:00","2017","08","21","12:00","27.2","","18.2","","58","","25","","15","","","","98.42","","33","","","","NA"
"2017-08-21 13:00","2017","08","21","13:00","27.1","","18.3","","59","","26","","11","","","","98.34","","33","","","","NA"
"2017-08-21 14:00","2017","08","21","14:00","26.7","","19.4","","64","","29","","10","","","","98.31","","34","","","","NA"
"2017-08-21 15:00","2017","08","21","15:00","28.0","","19.7","","61","","25","","6","","","","98.31","","35","","","","NA"
"2017-08-21 16:00","2017","08","21","16:00","27.3","","19.2","","61","","27","","12","","","","98.28","","34","","","","NA"
"2017-08-21 17:00","2017","08","21","17:00","27.4","","19.0","","60","","24","","7","","","","98.23","","34","","","","NA"
"2017-08-21 18:00","2017","08","21","18:00","26.7","","19.6","","65","","27","","5","","","","98.22","","34","","","","NA"
"2017-08-21 19:00","2017","08","21","19:00","24.4","","20.0","","77","","17","","3","","","","98.19","","32","","","","NA"
"2017-08-21 20:00","2017","08","21","20:00","21.4","","19.3","","88","","21","","3","","","","98.20","","28","","","","NA"
"2017-08-21 21:00","2017","08","21","21:00","19.9","","18.2","","90","","","","0","","","","98.17","","","","","","NA"
"2017-08-21 22:00","2017","08","21","22:00","18.9","","17.6","","92","","","","0","","","","98.14","","","","","","NA"
"2017-08-21 23:00","2017","08","21","23:00","18.8","","17.5","","92","","18","","4","","","","98.09","","","","","","NA"
"2017-08-22 00:00","2017","08","22","00:00","20.4","","18.0","","86","","20","","4","","","","98.01","","26","","","","NA"
"2017-08-22 01:00","2017","08","22","01:00","20.1","","18.2","","89","","16","","5","","","","97.88","","26","","","","NA"
"2017-08-22 02:00","2017","08","22","02:00","20.4","","18.0","","86","","17","","8","","","","97.75","","26","","","","NA"
"2017-08-22 03:00","2017","08","22","03:00","21.0","","17.7","","81","","19","","11","","","","97.65","","27","","","","NA"
"2017-08-22 04:00","2017","08","22","04:00","20.9","","18.2","","84","","21","","9","","","","97.57","","27","","","","NA"
"2017-08-22 05:00","2017","08","22","05:00","20.8","","18.4","","86","","22","","9","","","","97.52","","27","","","","NA"
"2017-08-22 06:00","2017","08","22","06:00","20.3","","18.5","","90","","20","","8","","","","97.46","","27","","","","NA"
"2017-08-22 07:00","2017","08","22","07:00","21.4","","19.6","","90","","20","","11","","","","97.39","","29","","","","NA"
"2017-08-22 08:00","2017","08","22","08:00","21.5","","20.0","","91","","19","","12","","","","97.29","","29","","","","NA"
"2017-08-22 09:00","2017","08","22","09:00","22.6","","20.6","","89","","20","","14","","","","97.26","","31","","","","NA"
"2017-08-22 10:00","2017","08","22","10:00","23.0","","19.9","","83","","22","","14","","","","97.18","","30","","","","NA"
"2017-08-22 11:00","2017","08","22","11:00","23.2","","19.3","","79","","23","","15","","","","97.11","","30","","","","NA"
"2017-08-22 12:00","2017","08","22","12:00","22.2","","19.0","","82","","23","","18","","","","97.03","","29","","","","NA"
"2017-08-22 13:00","2017","08","22","13:00","20.9","","18.7","","88","","24","","11","","","","96.97","","27","","","","NA"
"2017-08-22 14:00","2017","08","22","14:00","22.1","","20.0","","88","","23","","14","","","","96.89","","30","","","","NA"
"2017-08-22 15:00","2017","08","22","15:00","22.9","","18.8","","78","","27","","20","","","","96.91","","30","","","","NA"
"2017-08-22 16:00","2017","08","22","16:00","23.3","","17.6","","71","","27","","23","","","","96.95","","29","","","","NA"
"2017-08-22 17:00","2017","08","22","17:00","19.5","","16.9","","85","","29","","35","","","","97.04","","","","","","NA"
"2017-08-22 18:00","2017","08","22","18:00","18.5","","14.1","","76","","29","","32","","","","97.09","","","","","","NA"
"2017-08-22 19:00","2017","08","22","19:00","17.0","","12.2","","73","","28","","25","","","","97.18","","","","","","NA"
"2017-08-22 20:00","2017","08","22","20:00","16.3","","11.7","","74","","28","","25","","","","97.24","","","","","","NA"
"2017-08-22 21:00","2017","08","22","21:00","16.0","","10.8","","71","","29","","29","","","","97.29","","","","","","NA"
"2017-08-22 22:00","2017","08","22","22:00","15.1","","11.4","","79","","28","","17","","","","97.31","","","","","","NA"
"2017-08-22 23:00","2017","08","22","23:00","15.5","","11.8","","79","","28","","20","","","","97.30","","","","","","NA"
"2017-08-23 00:00","2017","08","23","00:00","15.1","","11.1","","77","","28","","23","","","","97.34","","","","","","NA"
"2017-08-23 01:00","2017","08","23","01:00","14.9","","11.0","","78","","28","","20","","","","97.37","","","","","","NA"
"2017-08-23 02:00","2017","08","23","02:00","14.9","","11.0","","78","","28","","17","","","","97.38","","","","","","NA"
"2017-08-23 03:00","2017","08","23","03:00","13.3","","11.0","","86","","20","","6","","","","97.40","","","","","","NA"
"2017-08-23 04:00","2017","08","23","04:00","12.6","","10.6","","88","","24","","7","","","","97.42","","","","","","NA"
"2017-08-23 05:00","2017","08","23","05:00","12.4","","10.6","","89","","25","","6","","","","97.45","","","","","","NA"
"2017-08-23 06:00","2017","08","23","06:00","11.7","","10.1","","90","","27","","6","","","","97.50","","","","","","NA"
"2017-08-23 07:00","2017","08","23","07:00","14.1","","11.7","","86","","24","","8","","","","97.53","","","","","","NA"
"2017-08-23 08:00","2017","08","23","08:00","16.5","","12.4","","77","","26","","14","","","","97.55","","","","","","NA"
"2017-08-23 09:00","2017","08","23","09:00","17.3","","13.0","","76","","27","","19","","","","97.54","","","","","","NA"
"2017-08-23 10:00","2017","08","23","10:00","14.7","","12.2","","85","","30","","30","","","","97.61","","","","","","NA"
"2017-08-23 11:00","2017","08","23","11:00","16.9","","13.3","","79","","29","","24","","","","97.62","","","","","","NA"
"2017-08-23 12:00","2017","08","23","12:00","17.3","","12.4","","73","","29","","20","","","","97.64","","","","","","NA"
"2017-08-23 13:00","2017","08","23","13:00","18.5","","11.4","","63","","30","","29","","","","97.67","","","","","","NA"
"2017-08-23 14:00","2017","08","23","14:00","19.2","","10.9","","59","","31","","28","","","","97.70","","","","","","NA"
"2017-08-23 15:00","2017","08","23","15:00","18.6","","11.5","","63","","30","","29","","","","97.72","","","","","","NA"
"2017-08-23 16:00","2017","08","23","16:00","17.5","","10.5","","63","","30","","27","","","","97.75","","","","","","NA"
"2017-08-23 17:00","2017","08","23","17:00","17.1","","10.2","","64","","29","","26","","","","97.79","","","","","","NA"
"2017-08-23 18:00","2017","08","23","18:00","16.5","","10.8","","69","","29","","20","","","","97.80","","","","","","NA"
"2017-08-23 19:00","2017","08","23","19:00","14.7","","11.5","","81","","33","","9","","","","97.83","","","","","","NA"
"2017-08-23 20:00","2017","08","23","20:00","14.3","","11.9","","86","","31","","11","","","","97.89","","","","","","NA"
"2017-08-23 21:00","2017","08","23","21:00","13.6","","12.0","","90","","28","","12","","","","97.88","","","","","","NA"
"2017-08-23 22:00","2017","08","23","22:00","12.8","","11.5","","92","","27","","6","","","","97.89","","","","","","NA"
"2017-08-23 23:00","2017","08","23","23:00","13.3","","11.9","","92","","29","","7","","","","97.89","","","","","","NA"
"2017-08-24 00:00","2017","08","24","00:00","13.2","","12.1","","93","","26","","7","","","","97.95","","","","","","NA"
"2017-08-24 01:00","2017","08","24","01:00","12.6","","11.1","","90","","32","","8","","","","97.95","","","","","","NA"
"2017-08-24 02:00","2017","08","24","02:00","11.8","","10.8","","93","","29","","9","","","","97.98","","","","","","NA"
"2017-08-24 03:00","2017","08","24","03:00","11.1","","10.1","","94","","28","","4","","","","98.01","","","","","","NA"
"2017-08-24 04:00","2017","08","24","04:00","11.8","","10.6","","92","","33","","9","","","","98.06","","","","","","NA"
"2017-08-24 05:00","2017","08","24","05:00","11.4","","10.1","","92","","34","","8","","","","98.13","","","","","","NA"
"2017-08-24 06:00","2017","08","24","06:00","11.7","","10.1","","90","","36","","11","","","","98.14","","","","","","NA"
"2017-08-24 07:00","2017","08","24","07:00","12.5","","10.3","","87","","35","","11","","","","98.18","","","","","","NA"
"2017-08-24 08:00","2017","08","24","08:00","14.1","","11.3","","83","","35","","11","","","","98.24","","","","","","NA"
"2017-08-24 09:00","2017","08","24","09:00","14.5","","11.1","","80","","36","","15","","","","98.28","","","","","","NA"
"2017-08-24 10:00","2017","08","24","10:00","15.2","","10.6","","74","","34","","15","","","","98.30","","","","","","NA"
"2017-08-24 11:00","2017","08","24","11:00","15.3","","10.9","","75","","34","","15","","","","98.32","","","","","","NA"
"2017-08-24 12:00","2017","08","24","12:00","16.7","","9.8","","64","","36","","8","","","","98.30","","","","","","NA"
"2017-08-24 13:00","2017","08","24","13:00","15.8","","9.7","","67","","34","","11","","","","98.31","","","","","","NA"
"2017-08-24 14:00","2017","08","24","14:00","16.1","","9.1","","63","","35","","3","","","","98.34","","","","","","NA"
"2017-08-24 15:00","2017","08","24","15:00","17.3","","9.6","","60","","33","","8","","","","98.33","","","","","","NA"
"2017-08-24 16:00","2017","08","24","16:00","17.4","","9.5","","60","","33","","8","","","","98.33","","","","","","NA"
"2017-08-24 17:00","2017","08","24","17:00","16.5","","10.0","","65","","34","","9","","","","98.33","","","","","","NA"
"2017-08-24 18:00","2017","08","24","18:00","15.6","","9.9","","69","","34","","12","","","","98.35","","","","","","NA"
"2017-08-24 19:00","2017","08","24","19:00","13.6","","9.4","","76","","33","","10","","","","98.40","","","","","","NA"
"2017-08-24 20:00","2017","08","24","20:00","11.8","","9.1","","83","","32","","10","","","","98.45","","","","","","NA"
"2017-08-24 21:00","2017","08","24","21:00","11.7","","8.9","","83","","32","","11","","","","98.47","","","","","","NA"
"2017-08-24 22:00","2017","08","24","22:00","11.2","","8.6","","84","","31","","10","","","","98.50","","","","","","NA"
"2017-08-24 23:00","2017","08","24","23:00","10.6","","7.8","","83","","34","","6","","","","98.51","","","","","","NA"
"2017-08-25 00:00","2017","08","25","00:00","10.1","","7.7","","85","","35","","4","","","","98.56","","","","","","NA"
"2017-08-25 01:00","2017","08","25","01:00","7.5","","6.4","","93","","1","","5","","","","98.57","","","","","","NA"
"2017-08-25 02:00","2017","08","25","02:00","6.9","","5.8","","93","","35","","2","","","","98.62","","","","","","NA"
"2017-08-25 03:00","2017","08","25","03:00","6.1","","5.0","","92","","36","","6","","","","98.65","","","","","","NA"
"2017-08-25 04:00","2017","08","25","04:00","6.2","","5.3","","94","","0","","1","","","","98.70","","","","","","NA"
"2017-08-25 05:00","2017","08","25","05:00","6.1","","5.1","","93","","36","","1","","","","98.75","","","","","","NA"
"2017-08-25 06:00","2017","08","25","06:00","5.5","","4.4","","93","","34","","2","","","","98.81","","","","","","NA"
"2017-08-25 07:00","2017","08","25","07:00","9.4","","8.5","","94","","","","0","","","","98.86","","","","","","NA"
"2017-08-25 08:00","2017","08","25","08:00","13.9","","9.2","","73","","36","","3","","","","98.89","","","","","","NA"
"2017-08-25 09:00","2017","08","25","09:00","16.4","","7.9","","57","","9","","1","","","","98.93","","","","","","NA"
"2017-08-25 10:00","2017","08","25","10:00","17.5","","6.9","","50","","35","","9","","","","98.93","","","","","","NA"
"2017-08-25 11:00","2017","08","25","11:00","17.0","","6.0","","48","","32","","9","","","","98.93","","","","","","NA"
"2017-08-25 12:00","2017","08","25","12:00","17.9","","6.9","","49","","34","","14","","","","98.91","","","","","","NA"
"2017-08-25 13:00","2017","08","25","13:00","18.1","","6.4","","46","","34","","16","","","","98.92","","","","","","NA"
"2017-08-25 14:00","2017","08","25","14:00","18.7","","5.7","","43","","32","","10","","","","98.88","","","","","","NA"
"2017-08-25 15:00","2017","08","25","15:00","18.8","","5.2","","41","","30","","13","","","","98.88","","","","","","NA"
"2017-08-25 16:00","2017","08","25","16:00","18.7","","5.8","","43","","30","","14","","","","98.90","","","","","","NA"
"2017-08-25 17:00","2017","08","25","17:00","18.2","","7.3","","49","","30","","13","","","","98.93","","","","","","NA"
"2017-08-25 18:00","2017","08","25","18:00","16.3","","7.5","","56","","29","","13","","","","98.94","","","","","","NA"
"2017-08-25 19:00","2017","08","25","19:00","12.3","","7.6","","73","","30","","9","","","","98.97","","","","","","NA"
"2017-08-25 20:00","2017","08","25","20:00","10.6","","7.1","","79","","28","","6","","","","99.01","","","","","","NA"
"2017-08-25 21:00","2017","08","25","21:00","9.1","","6.6","","84","","28","","5","","","","99.04","","","","","","NA"
"2017-08-25 22:00","2017","08","25","22:00","8.7","","6.0","","83","","28","","5","","","","99.09","","","","","","NA"
"2017-08-25 23:00","2017","08","25","23:00","8.0","","6.1","","88","","28","","8","","","","99.11","","","","","","NA"
"2017-08-26 00:00","2017","08","26","00:00","7.0","","5.5","","90","","28","","6","","","","99.12","","","","","","NA"
"2017-08-26 01:00","2017","08","26","01:00","7.3","","5.9","","91","","30","","4","","","","99.10","","","","","","NA"
"2017-08-26 02:00","2017","08","26","02:00","6.9","","5.9","","93","","0","","1","","","","99.10","","","","","","NA"
"2017-08-26 03:00","2017","08","26","03:00","6.5","","5.3","","92","","1","","2","","","","99.12","","","","","","NA"
"2017-08-26 04:00","2017","08","26","04:00","6.4","","5.4","","93","","2","","3","","","","99.13","","","","","","NA"
"2017-08-26 05:00","2017","08","26","05:00","6.4","","5.4","","94","","2","","2","","","","99.15","","","","","","NA"
"2017-08-26 06:00","2017","08","26","06:00","6.3","","5.4","","94","","29","","1","","","","99.21","","","","","","NA"
"2017-08-26 07:00","2017","08","26","07:00","8.8","","7.8","","94","","","","0","","","","99.26","","","","","","NA"
"2017-08-26 08:00","2017","08","26","08:00","14.3","","10.0","","75","","3","","6","","","","99.28","","","","","","NA"
"2017-08-26 09:00","2017","08","26","09:00","16.5","","9.4","","63","","3","","4","","","","99.31","","","","","","NA"
"2017-08-26 10:00","2017","08","26","10:00","17.7","","7.9","","53","","1","","6","","","","99.28","","","","","","NA"
"2017-08-26 11:00","2017","08","26","11:00","18.1","","8.9","","55","","32","","11","","","","99.25","","","","","","NA"
"2017-08-26 12:00","2017","08","26","12:00","19.3","","8.4","","50","","13","","4","","","","99.20","","","","","","NA"
"2017-08-26 13:00","2017","08","26","13:00","19.0","","9.4","","54","","16","","9","","","","99.19","","","","","","NA"
"2017-08-26 14:00","2017","08","26","14:00","19.2","","9.5","","53","","16","","11","","","","99.14","","","","","","NA"
"2017-08-26 15:00","2017","08","26","15:00","20.0","","10.6","","55","","16","","7","","","","99.12","","","","","","NA"
"2017-08-26 16:00","2017","08","26","16:00","19.5","","10.0","","54","","13","","6","","","","99.07","","","","","","NA"
"2017-08-26 17:00","2017","08","26","17:00","19.3","","9.4","","53","","19","","7","","","","99.07","","","","","","NA"
"2017-08-26 18:00","2017","08","26","18:00","18.6","","9.4","","55","","20","","5","","","","99.09","","","","","","NA"
"2017-08-26 19:00","2017","08","26","19:00","15.0","","10.1","","72","","33","","5","","","","99.11","","","","","","NA"
"2017-08-26 20:00","2017","08","26","20:00","12.2","","10.1","","87","","","","0","","","","99.16","","","","","","NA"
"2017-08-26 21:00","2017","08","26","21:00","10.3","","8.7","","90","","","","0","","","","99.18","","","","","","NA"
"2017-08-26 22:00","2017","08","26","22:00","10.5","","9.4","","93","","4","","3","","","","99.17","","","","","","NA"
"2017-08-26 23:00","2017","08","26","23:00","9.7","","8.5","","92","","","","0","","","","99.16","","","","","","NA"
"2017-08-27 00:00","2017","08","27","00:00","8.9","","7.7","","93","","17","","1","","","","99.18","","","","","","NA"
"2017-08-27 01:00","2017","08","27","01:00","7.7","","6.7","","93","","32","","1","","","","99.16","","","","","","NA"
"2017-08-27 02:00","2017","08","27","02:00","7.4","","6.3","","93","","3","","2","","","","99.17","","","","","","NA"
"2017-08-27 03:00","2017","08","27","03:00","7.1","","5.9","","92","","36","","2","","","","99.16","","","","","","NA"
"2017-08-27 04:00","2017","08","27","04:00","7.1","","6.2","","94","","36","","2","","","","99.15","","","","","","NA"
"2017-08-27 05:00","2017","08","27","05:00","7.0","","6.0","","93","","35","","1","","","","99.15","","","","","","NA"
"2017-08-27 06:00","2017","08","27","06:00","6.5","","5.5","","93","","","","0","","","","99.19","","","","","","NA"
"2017-08-27 07:00","2017","08","27","07:00","10.0","","9.0","","93","","0","","1","","","","99.18","","","","","","NA"
"2017-08-27 08:00","2017","08","27","08:00","16.9","","13.1","","79","","12","","6","","","","99.17","","","","","","NA"
"2017-08-27 09:00","2017","08","27","09:00","18.0","","10.5","","61","","13","","9","","","","99.15","","","","","","NA"
"2017-08-27 10:00","2017","08","27","10:00","19.3","","10.7","","58","","13","","8","","","","99.15","","","","","","NA"
"2017-08-27 11:00","2017","08","27","11:00","19.9","","9.3","","51","","13","","13","","","","99.13","","","","","","NA"
"2017-08-27 12:00","2017","08","27","12:00","20.2","","9.1","","49","","15","","14","","","","99.10","","","","","","NA"
"2017-08-27 13:00","2017","08","27","13:00","20.8","","8.7","","46","","12","","16","","","","99.05","","","","","","NA"
"2017-08-27 14:00","2017","08","27","14:00","21.1","","8.6","","45","","14","","14","","","","99.02","","","","","","NA"
"2017-08-27 15:00","2017","08","27","15:00","20.9","","9.5","","48","","15","","15","","","","98.98","","","","","","NA"
"2017-08-27 16:00","2017","08","27","16:00","20.3","","8.6","","47","","15","","14","","","","98.93","","","","","","NA"
"2017-08-27 17:00","2017","08","27","17:00","19.6","","8.8","","50","","15","","11","","","","98.91","","","","","","NA"
"2017-08-27 18:00","2017","08","27","18:00","18.6","","7.7","","49","","15","","12","","","","98.91","","","","","","NA"
"2017-08-27 19:00","2017","08","27","19:00","16.8","","7.3","","54","","15","","7","","","","98.92","","","","","","NA"
"2017-08-27 20:00","2017","08","27","20:00","16.7","","6.6","","51","","13","","7","","","","98.96","","","","","","NA"
"2017-08-27 21:00","2017","08","27","21:00","16.7","","6.9","","52","","12","","11","","","","98.94","","","","","","NA"
"2017-08-27 22:00","2017","08","27","22:00","15.9","","8.1","","60","","12","","10","","","","98.93","","","","","","NA"
"2017-08-27 23:00","2017","08","27","23:00","16.0","","9.5","","66","","13","","9","","","","98.93","","","","","","NA"
"2017-08-28 00:00","2017","08","28","00:00","15.1","","9.8","","71","","12","","7","","","","98.95","","","","","","NA"
"2017-08-28 01:00","2017","08","28","01:00","14.2","","10.3","","77","","10","","9","","","","98.91","","","","","","NA"
"2017-08-28 02:00","2017","08","28","02:00","15.4","","11.1","","75","","11","","12","","","","98.87","","","","","","NA"
"2017-08-28 03:00","2017","08","28","03:00","15.2","","11.0","","76","","10","","14","","","","98.85","","","","","","NA"
"2017-08-28 04:00","2017","08","28","04:00","14.8","","11.2","","79","","10","","14","","","","98.84","","","","","","NA"
"2017-08-28 05:00","2017","08","28","05:00","14.1","","11.6","","85","","10","","11","","","","98.88","","","","","","NA"
"2017-08-28 06:00","2017","08","28","06:00","14.1","","12.2","","88","","9","","12","","","","98.91","","","","","","NA"
"2017-08-28 07:00","2017","08","28","07:00","15.5","","13.0","","85","","10","","11","","","","98.94","","","","","","NA"
"2017-08-28 08:00","2017","08","28","08:00","16.5","","13.6","","83","","9","","13","","","","98.94","","","","","","NA"
"2017-08-28 09:00","2017","08","28","09:00","17.4","","13.6","","79","","12","","15","","","","98.96","","","","","","NA"
"2017-08-28 10:00","2017","08","28","10:00","18.3","","14.0","","76","","11","","13","","","","98.94","","","","","","NA"
"2017-08-28 11:00","2017","08","28","11:00","19.6","","13.5","","68","","11","","20","","","","98.90","","","","","","NA"
"2017-08-28 12:00","2017","08","28","12:00","20.0","","13.6","","67","","11","","16","","","","98.89","","","","","","NA"
"2017-08-28 13:00","2017","08","28","13:00","20.7","","12.4","","59","","13","","21","","","","98.86","","","","","","NA"
"2017-08-28 14:00","2017","08","28","14:00","20.8","","11.2","","54","","13","","20","","","","98.83","","","","","","NA"
"2017-08-28 15:00","2017","08","28","15:00","20.9","","11.3","","54","","12","","23","","","","98.80","","","","","","NA"
"2017-08-28 16:00","2017","08","28","16:00","19.7","","11.9","","61","","13","","18","","","","98.80","","","","","","NA"
"2017-08-28 17:00","2017","08","28","17:00","19.9","","11.7","","59","","14","","17","","","","98.81","","","","","","NA"
"2017-08-28 18:00","2017","08","28","18:00","18.8","","12.2","","65","","12","","15","","","","98.80","","","","","","NA"
"2017-08-28 19:00","2017","08","28","19:00","18.3","","11.2","","63","","12","","13","","","","98.77","","","","","","NA"
"2017-08-28 20:00","2017","08","28","20:00","17.9","","12.1","","69","","12","","15","","","","98.79","","","","","","NA"
"2017-08-28 21:00","2017","08","28","21:00","17.4","","12.8","","75","","12","","15","","","","98.79","","","","","","NA"
"2017-08-28 22:00","2017","08","28","22:00","17.1","","13.3","","78","","12","","13","","","","98.78","","","","","","NA"
"2017-08-28 23:00","2017","08","28","23:00","16.8","","13.4","","80","","14","","11","","","","98.76","","","","","","NA"
"2017-08-29 00:00","2017","08","29","00:00","16.7","","14.0","","84","","12","","13","","","","98.75","","","","","","NA"
"2017-08-29 01:00","2017","08","29","01:00","16.4","","14.2","","87","","13","","10","","","","98.71","","","","","","NA"
"2017-08-29 02:00","2017","08","29","02:00","16.3","","14.1","","87","","12","","9","","","","98.70","","","","","","NA"
"2017-08-29 03:00","2017","08","29","03:00","16.4","","13.9","","85","","13","","9","","","","98.70","","","","","","NA"
"2017-08-29 04:00","2017","08","29","04:00","16.2","","13.4","","83","","13","","9","","","","98.69","","","","","","NA"
"2017-08-29 05:00","2017","08","29","05:00","16.0","","13.4","","85","","13","","8","","","","98.71","","","","","","NA"
"2017-08-29 06:00","2017","08","29","06:00","15.5","","13.2","","86","","12","","7","","","","98.73","","","","","","NA"
"2017-08-29 07:00","2017","08","29","07:00","16.5","","13.7","","84","","13","","8","","","","98.75","","","","","","NA"
"2017-08-29 08:00","2017","08","29","08:00","16.9","","13.3","","79","","14","","11","","","","98.75","","","","","","NA"
"2017-08-29 09:00","2017","08","29","09:00","18.5","","13.6","","73","","13","","12","","","","98.73","","","","","","NA"
"2017-08-29 10:00","2017","08","29","10:00","19.1","","13.8","","72","","12","","10","","","","98.69","","","","","","NA"
"2017-08-29 11:00","2017","08","29","11:00","19.2","","13.4","","69","","11","","14","","","","98.67","","","","","","NA"
"2017-08-29 12:00","2017","08","29","12:00","20.8","","13.0","","61","","12","","22","","","","98.62","","","","","","NA"
"2017-08-29 13:00","2017","08","29","13:00","20.9","","11.1","","53","","13","","22","","","","98.60","","","","","","NA"
"2017-08-29 14:00","2017","08","29","14:00","21.3","","10.6","","50","","14","","18","","","","98.56","","","","","","NA"
"2017-08-29 15:00","2017","08","29","15:00","21.1","","8.7","","45","","11","","17","","","","98.51","","","","","","NA"
"2017-08-29 16:00","2017","08","29","16:00","20.5","","10.2","","52","","12","","13","","","","98.51","","","","","","NA"
"2017-08-29 17:00","2017","08","29","17:00","20.8","","9.8","","49","","11","","14","","","","98.48","","","","","","NA"
"2017-08-29 18:00","2017","08","29","18:00","19.4","","9.2","","52","","13","","11","","","","98.46","","","","","","NA"
"2017-08-29 19:00","2017","08","29","19:00","17.5","","9.5","","59","","15","","8","","","","98.44","","","","","","NA"
"2017-08-29 20:00","2017","08","29","20:00","16.9","","10.9","","68","","13","","7","","","","98.44","","","","","","NA"
"2017-08-29 21:00","2017","08","29","21:00","15.0","","10.7","","76","","14","","4","","","","98.43","","","","","","NA"
"2017-08-29 22:00","2017","08","29","22:00","11.6","","9.4","","87","","14","","1","","","","98.39","","","","","","NA"
"2017-08-29 23:00","2017","08","29","23:00","10.9","","9.3","","90","","","","0","","","","98.34","","","","","","NA"
"2017-08-30 00:00","2017","08","30","00:00","10.7","","9.6","","93","","1","","2","","","","98.33","","","","","","NA"
"2017-08-30 01:00","2017","08","30","01:00","10.0","","9.0","","93","","","","0","","","","98.29","","","","","","NA"
"2017-08-30 02:00","2017","08","30","02:00","9.6","","8.5","","93","","0","","1","","","","98.29","","","","","","NA"
"2017-08-30 03:00","2017","08","30","03:00","8.8","","7.7","","93","","35","","2","","","","98.26","","","","","","NA"
"2017-08-30 04:00","2017","08","30","04:00","9.2","","8.3","","94","","0","","1","","","","98.25","","","","","","NA"
"2017-08-30 05:00","2017","08","30","05:00","8.8","","7.8","","94","","3","","1","","","","98.25","","","","","","NA"
"2017-08-30 06:00","2017","08","30","06:00","8.1","","7.2","","94","","36","","4","","","","98.26","","","","","","NA"
"2017-08-30 07:00","2017","08","30","07:00","12.4","","11.5","","95","","36","","3","","","","98.28","","","","","","NA"
"2017-08-30 08:00","2017","08","30","08:00","16.6","","14.1","","85","","12","","6","","","","98.26","","","","","","NA"
"2017-08-30 09:00","2017","08","30","09:00","18.4","","14.0","","75","","19","","3","","","","98.26","","","","","","NA"
"2017-08-30 10:00","2017","08","30","10:00","19.5","","13.4","","67","","19","","4","","","","98.24","","","","","","NA"
"2017-08-30 11:00","2017","08","30","11:00","21.2","","12.9","","59","","22","","5","","","","98.21","","","","","","NA"
"2017-08-30 12:00","2017","08","30","12:00","21.6","","14.2","","63","","15","","9","","","","98.16","","25","","","","NA"
"2017-08-30 13:00","2017","08","30","13:00","22.2","","13.7","","59","","15","","11","","","","98.11","","25","","","","NA"
"2017-08-30 14:00","2017","08","30","14:00","21.6","","13.6","","60","","13","","9","","","","98.06","","25","","","","NA"
"2017-08-30 15:00","2017","08","30","15:00","21.8","","13.6","","60","","16","","10","","","","97.99","","25","","","","NA"
"2017-08-30 16:00","2017","08","30","16:00","19.7","","15.6","","77","","12","","4","","","","97.98","","","","","","NA"
"2017-08-30 17:00","2017","08","30","17:00","21.1","","14.5","","66","","17","","4","","","","97.96","","25","","","","NA"
"2017-08-30 18:00","2017","08","30","18:00","20.3","","15.6","","75","","30","","14","","","","97.98","","25","","","","NA"
"2017-08-30 19:00","2017","08","30","19:00","18.3","","15.2","","82","","30","","19","","","","97.96","","","","","","NA"
"2017-08-30 20:00","2017","08","30","20:00","17.4","","14.8","","85","","29","","16","","","","97.98","","","","","","NA"
"2017-08-30 21:00","2017","08","30","21:00","15.7","","14.0","","90","","29","","9","","","","98.00","","","","","","NA"
"2017-08-30 22:00","2017","08","30","22:00","16.8","","15.0","","89","","26","","8","","","","97.99","","","","","","NA"
"2017-08-30 23:00","2017","08","30","23:00","16.5","","14.5","","88","","33","","19","","","","98.03","","","","","","NA"
"2017-08-31 00:00","2017","08","31","00:00","13.9","","12.4","","91","","3","","9","","","","98.06","","","","","","NA"
"2017-08-31 01:00","2017","08","31","01:00","13.6","","12.2","","91","","34","","6","","","","98.09","","","","","","NA"
"2017-08-31 02:00","2017","08","31","02:00","13.1","","11.9","","93","","36","","7","","","","98.13","","","","","","NA"
"2017-08-31 03:00","2017","08","31","03:00","13.5","","12.2","","92","","34","","12","","","","98.17","","","","","","NA"
"2017-08-31 04:00","2017","08","31","04:00","13.3","","11.6","","90","","35","","16","","","","98.21","","","","","","NA"
"2017-08-31 05:00","2017","08","31","05:00","12.2","","10.5","","89","","35","","15","","","","98.28","","","","","","NA"
"2017-08-31 06:00","2017","08","31","06:00","11.2","","9.8","","91","","34","","13","","","","98.36","","","","","","NA"
"2017-08-31 07:00","2017","08","31","07:00","11.2","","9.5","","89","","34","","19","","","","98.46","","","","","","NA"
"2017-08-31 08:00","2017","08","31","08:00","11.7","","7.8","","77","","1","","16","","","","98.54","","","","","","NA"
"2017-08-31 09:00","2017","08","31","09:00","12.7","","6.7","","67","","2","","21","","","","98.58","","","","","","NA"
"2017-08-31 10:00","2017","08","31","10:00","14.0","","6.9","","62","","36","","23","","","","98.61","","","","","","NA"
"2017-08-31 11:00","2017","08","31","11:00","15.2","","6.7","","57","","35","","22","","","","98.61","","","","","","NA"
"2017-08-31 12:00","2017","08","31","12:00","16.1","","6.6","","53","","34","","24","","","","98.60","","","","","","NA"
"2017-08-31 13:00","2017","08","31","13:00","14.9","","6.3","","56","","33","","22","","","","98.62","","","","","","NA"
"2017-08-31 14:00","2017","08","31","14:00","14.9","","5.3","","53","","33","","24","","","","98.60","","","","","","NA"
"2017-08-31 15:00","2017","08","31","15:00","15.4","","4.0","","47","","33","","21","","","","98.62","","","","","","NA"
"2017-08-31 16:00","2017","08","31","16:00","14.8","","4.3","","49","","34","","22","","","","98.60","","","","","","NA"
"2017-08-31 17:00","2017","08","31","17:00","14.1","","4.6","","53","","34","","18","","","","98.63","","","","","","NA"
"2017-08-31 18:00","2017","08","31","18:00","12.2","","3.5","","55","","34","","16","","","","98.66","","","","","","NA"
"2017-08-31 19:00","2017","08","31","19:00","10.3","","3.8","","64","","33","","8","","","","98.72","","","","","","NA"
"2017-08-31 20:00","2017","08","31","20:00","7.1","","4.1","","81","","30","","8","","","","98.77","","","","","","NA"
"2017-08-31 21:00","2017","08","31","21:00","7.7","","4.2","","79","","32","","9","","","","98.81","","","","","","NA"
"2017-08-31 22:00","2017","08","31","22:00","8.0","","4.3","","77","","33","","8","","","","98.85","","","","","","NA"
"2017-08-31 23:00","2017","08","31","23:00","7.1","","4.4","","83","","34","","6","","","","98.85","","","","","","NA"
