"Station Name","KITCHENER/WATERLOO"
"Province","ONTARIO"
"Latitude","43.46"
"Longitude","-80.38"
"Elevation","321.60"
"Climate Identifier","6144239"
"WMO Identifier","71368"
"TC Identifier","YKF"
"All times are specified in Local Standard Time (LST). Add 1 hour to adjust for Daylight Saving Time where and when it is observed."

"Legend"
"E","Estimated"
"M","Missing"
"NA","Not Available"

"Date/Time","Year","Month","Day","Time","Temp (°C)","Temp Flag","Dew Point Temp (°C)","Dew Point Temp Flag","Rel Hum (%)","Rel Hum Flag","Wind Dir (10s deg)","Wind Dir Flag","Wind Spd (km/h)","Wind Spd Flag","Visibility (km)","Visibility Flag","Stn Press (kPa)","Stn Press Flag","Hmdx","Hmdx Flag","Wind Chill","Wind Chill Flag","Weather"
"2017-04-01 00:00","2017","04","01","00:00","1.4","","0.4","","93","","35","","15","","16.1","","97.26","","","","","","NA"
"2017-04-01 01:00","2017","04","01","01:00","1.2","","0.2","","93","","36","","15","","16.1","","97.28","","","","","","NA"
"2017-04-01 02:00","2017","04","01","02:00","1.3","","0.1","","92","","36","","18","","16.1","","97.33","","","","","","NA"
"2017-04-01 03:00","2017","04","01","03:00","1.3","","0.0","","91","","36","","15","","16.1","","97.41","","","","","","NA"
"2017-04-01 04:00","2017","04","01","04:00","1.1","","-0.1","","92","","36","","15","","16.1","","97.47","","","","","","NA"
"2017-04-01 05:00","2017","04","01","05:00","1.1","","-0.1","","92","","33","","15","","16.1","","97.58","","","","","","NA"
"2017-04-01 06:00","2017","04","01","06:00","1.1","","-0.2","","91","","34","","13","","16.1","","97.65","","","","","","NA"
"2017-04-01 07:00","2017","04","01","07:00","1.2","","-0.1","","91","","33","","15","","16.1","","97.76","","","","","","NA"
"2017-04-01 08:00","2017","04","01","08:00","1.6","","0.1","","90","","32","","15","","16.1","","97.85","","","","","","NA"
"2017-04-01 09:00","2017","04","01","09:00","2.1","","-0.4","","84","","34","","21","","16.1","","97.91","","","","","","NA"
"2017-04-01 10:00","2017","04","01","10:00","2.8","","-0.4","","80","","1","","17","","16.1","","97.91","","","","","","NA"
"2017-04-01 11:00","2017","04","01","11:00","4.1","","-0.5","","72","","34","","18","","16.1","","97.97","","","","","","NA"
"2017-04-01 12:00","2017","04","01","12:00","6.6","","1.1","","68","","35","","18","","16.1","","97.96","","","","","","NA"
"2017-04-01 13:00","2017","04","01","13:00","8.6","","1.2","","60","","36","","17","","16.1","","97.94","","","","","","NA"
"2017-04-01 14:00","2017","04","01","14:00","9.7","","1.3","","56","","34","","21","","16.1","","97.91","","","","","","NA"
"2017-04-01 15:00","2017","04","01","15:00","10.4","","1.2","","53","","32","","28","","16.1","","97.95","","","","","","NA"
"2017-04-01 16:00","2017","04","01","16:00","10.4","","1.3","","53","","30","","18","","16.1","","97.97","","","","","","NA"
"2017-04-01 17:00","2017","04","01","17:00","9.8","","-0.7","","48","","32","","22","","16.1","","97.98","","","","","","NA"
"2017-04-01 18:00","2017","04","01","18:00","8.6","","-3.0","","44","","31","","17","","16.1","","98.06","","","","","","NA"
"2017-04-01 19:00","2017","04","01","19:00","5.9","","-4.1","","49","","32","","17","","16.1","","98.11","","","","","","NA"
"2017-04-01 20:00","2017","04","01","20:00","4.8","","-4.3","","52","","32","","15","","16.1","","98.17","","","","","","NA"
"2017-04-01 21:00","2017","04","01","21:00","3.1","","-4.2","","59","","30","","11","","16.1","","98.23","","","","","","NA"
"2017-04-01 22:00","2017","04","01","22:00","2.4","","-2.5","","70","","30","","13","","16.1","","98.24","","","","","","NA"
"2017-04-01 23:00","2017","04","01","23:00","1.4","","-2.6","","75","","30","","9","","16.1","","98.23","","","","","","NA"
"2017-04-02 00:00","2017","04","02","00:00","1.3","","-2.8","","74","","22","","8","","16.1","","98.21","","","","","","NA"
"2017-04-02 01:00","2017","04","02","01:00","-0.4","","-2.9","","83","","30","","9","","16.1","","98.25","","","","-4","","NA"
"2017-04-02 02:00","2017","04","02","02:00","0.1","","-2.7","","82","","33","","5","","16.1","","98.23","","","","","","NA"
"2017-04-02 03:00","2017","04","02","03:00","-1.1","","-3.1","","86","","","","0","","16.1","","98.23","","","","","","NA"
"2017-04-02 04:00","2017","04","02","04:00","-0.8","","-3.0","","85","","","","0","","16.1","","98.22","","","","","","NA"
"2017-04-02 05:00","2017","04","02","05:00","-0.7","","-1.7","","93","","","M","4","","16.1","","98.21","","","","-2","","NA"
"2017-04-02 06:00","2017","04","02","06:00","0.8","","-2.1","","81","","32","","8","","16.1","","98.26","","","","","","NA"
"2017-04-02 07:00","2017","04","02","07:00","1.8","","-0.5","","85","","28","","5","","16.1","","98.29","","","","","","NA"
"2017-04-02 08:00","2017","04","02","08:00","6.3","","0.1","","65","","30","","13","","16.1","","98.33","","","","","","NA"
"2017-04-02 09:00","2017","04","02","09:00","9.3","","0.0","","52","","31","","9","","16.1","","98.34","","","","","","NA"
"2017-04-02 10:00","2017","04","02","10:00","10.8","","0.6","","49","","32","","13","","16.1","","98.34","","","","","","NA"
"2017-04-02 11:00","2017","04","02","11:00","12.5","","1.0","","45","","27","","18","","16.1","","98.30","","","","","","NA"
"2017-04-02 12:00","2017","04","02","12:00","13.8","","0.5","","40","","29","","18","","16.1","","98.21","","","","","","NA"
"2017-04-02 13:00","2017","04","02","13:00","15.0","","0.3","","36","","28","","32","","16.1","","98.19","","","","","","NA"
"2017-04-02 14:00","2017","04","02","14:00","15.0","","-0.1","","36","","26","","24","","16.1","","98.14","","","","","","NA"
"2017-04-02 15:00","2017","04","02","15:00","14.5","","-0.9","","35","","30","","26","","16.1","","98.09","","","","","","NA"
"2017-04-02 16:00","2017","04","02","16:00","15.2","","-0.6","","34","","28","","24","","16.1","","98.05","","","","","","NA"
"2017-04-02 17:00","2017","04","02","17:00","13.6","","-0.8","","37","","30","","21","","16.1","","98.06","","","","","","NA"
"2017-04-02 18:00","2017","04","02","18:00","12.3","","-0.5","","41","","27","","13","","16.1","","98.03","","","","","","NA"
"2017-04-02 19:00","2017","04","02","19:00","9.6","","-0.8","","48","","26","","9","","16.1","","98.03","","","","","","NA"
"2017-04-02 20:00","2017","04","02","20:00","6.9","","2.4","","73","","","","0","","16.1","","98.00","","","","","","NA"
"2017-04-02 21:00","2017","04","02","21:00","7.0","","-0.1","","61","","19","","8","","16.1","","98.03","","","","","","NA"
"2017-04-02 22:00","2017","04","02","22:00","7.6","","1.9","","67","","","M","4","","16.1","","98.01","","","","","","NA"
"2017-04-02 23:00","2017","04","02","23:00","5.0","","2.1","","82","","","","0","","16.1","","97.97","","","","","","NA"
"2017-04-03 00:00","2017","04","03","00:00","5.3","","2.5","","82","","9","","8","","16.1","","97.94","","","","","","NA"
"2017-04-03 01:00","2017","04","03","01:00","5.4","","2.4","","81","","6","","11","","16.1","","97.86","","","","","","NA"
"2017-04-03 02:00","2017","04","03","02:00","5.8","","2.4","","79","","7","","9","","16.1","","97.76","","","","","","NA"
"2017-04-03 03:00","2017","04","03","03:00","6.0","","2.1","","76","","17","","5","","16.1","","97.77","","","","","","NA"
"2017-04-03 04:00","2017","04","03","04:00","6.3","","2.1","","74","","8","","5","","16.1","","97.77","","","","","","NA"
"2017-04-03 05:00","2017","04","03","05:00","6.2","","2.1","","75","","8","","9","","16.1","","97.75","","","","","","Rain"
"2017-04-03 06:00","2017","04","03","06:00","5.7","","3.3","","84","","8","","5","","16.1","","97.81","","","","","","NA"
"2017-04-03 07:00","2017","04","03","07:00","6.0","","2.8","","80","","6","","17","","16.1","","97.74","","","","","","NA"
"2017-04-03 08:00","2017","04","03","08:00","7.5","","3.9","","78","","8","","17","","16.1","","97.67","","","","","","NA"
"2017-04-03 09:00","2017","04","03","09:00","9.4","","4.0","","69","","8","","21","","16.1","","97.62","","","","","","NA"
"2017-04-03 10:00","2017","04","03","10:00","12.3","","2.8","","52","","10","","32","","16.1","","97.48","","","","","","NA"
"2017-04-03 11:00","2017","04","03","11:00","12.4","","2.0","","49","","9","","34","","16.1","","97.35","","","","","","NA"
"2017-04-03 12:00","2017","04","03","12:00","11.6","","1.8","","51","","9","","28","","16.1","","97.27","","","","","","NA"
"2017-04-03 13:00","2017","04","03","13:00","11.5","","2.0","","52","","9","","22","","16.1","","97.18","","","","","","Rain"
"2017-04-03 14:00","2017","04","03","14:00","11.9","","2.3","","51","","8","","30","","16.1","","97.02","","","","","","NA"
"2017-04-03 15:00","2017","04","03","15:00","10.6","","1.7","","54","","9","","37","","16.1","","96.91","","","","","","Rain"
"2017-04-03 16:00","2017","04","03","16:00","10.4","","1.8","","55","","8","","26","","16.1","","96.76","","","","","","NA"
"2017-04-03 17:00","2017","04","03","17:00","9.8","","1.8","","57","","8","","34","","16.1","","96.67","","","","","","NA"
"2017-04-03 18:00","2017","04","03","18:00","9.1","","1.5","","59","","8","","37","","16.1","","96.56","","","","","","NA"
"2017-04-03 19:00","2017","04","03","19:00","9.1","","1.3","","58","","8","","35","","16.1","","96.48","","","","","","NA"
"2017-04-03 20:00","2017","04","03","20:00","8.9","","1.7","","60","","9","","30","","16.1","","96.42","","","","","","NA"
"2017-04-03 21:00","2017","04","03","21:00","6.0","","3.9","","86","","9","","24","","8.1","","96.38","","","","","","Rain,Fog"
"2017-04-03 22:00","2017","04","03","22:00","5.3","","4.3","","93","","8","","22","","4.8","","96.26","","","","","","Moderate Rain,Fog"
"2017-04-03 23:00","2017","04","03","23:00","5.2","","4.6","","96","","8","","18","","4.8","","96.11","","","","","","Moderate Rain,Fog"
"2017-04-04 00:00","2017","04","04","00:00","5.5","","5.1","","97","","8","","22","","6.4","","95.95","","","","","","Rain,Fog"
"2017-04-04 01:00","2017","04","04","01:00","5.3","","4.7","","96","","10","","15","","14.5","","95.89","","","","","","Rain"
"2017-04-04 02:00","2017","04","04","02:00","5.2","","4.8","","97","","8","","11","","9.7","","95.79","","","","","","Rain,Fog"
"2017-04-04 03:00","2017","04","04","03:00","5.2","","4.8","","97","","8","","8","","9.7","","95.72","","","","","","Fog"
"2017-04-04 04:00","2017","04","04","04:00","5.3","","5.0","","98","","9","","9","","0.8","","95.63","","","","","","Fog"
"2017-04-04 05:00","2017","04","04","05:00","5.7","","5.4","","98","","8","","5","","0.4","","95.61","","","","","","Rain,Fog"
"2017-04-04 06:00","2017","04","04","06:00","6.1","","5.8","","98","","11","","4","","2.4","","95.59","","","","","","Rain,Fog"
"2017-04-04 07:00","2017","04","04","07:00","6.6","","6.3","","98","","10","","4","","3.6","","95.60","","","","","","Rain,Fog"
"2017-04-04 08:00","2017","04","04","08:00","7.6","","7.3","","98","","14","","8","","4.8","","95.55","","","","","","Rain,Fog"
"2017-04-04 09:00","2017","04","04","09:00","9.2","","8.9","","98","","17","","9","","0.8","","95.52","","","","","","Fog"
"2017-04-04 10:00","2017","04","04","10:00","11.2","","10.9","","98","","20","","17","","4.0","","95.55","","","","","","Rain,Fog"
"2017-04-04 11:00","2017","04","04","11:00","12.0","","11.7","","98","","22","","22","","11.3","","95.57","","","","","","Rain"
"2017-04-04 12:00","2017","04","04","12:00","11.9","","11.0","","94","","23","","30","","4.8","","95.61","","","","","","Rain,Fog"
"2017-04-04 13:00","2017","04","04","13:00","10.3","","9.1","","92","","26","","45","","6.4","","95.69","","","","","","Rain,Fog"
"2017-04-04 14:00","2017","04","04","14:00","7.5","","5.8","","89","","25","","43","","16.1","","95.84","","","","","","NA"
"2017-04-04 15:00","2017","04","04","15:00","4.8","","3.3","","90","","26","","39","","16.1","","95.98","","","","","","Rain"
"2017-04-04 16:00","2017","04","04","16:00","4.8","","2.6","","86","","26","","45","","16.1","","96.12","","","","","","NA"
"2017-04-04 17:00","2017","04","04","17:00","4.4","","2.1","","85","","27","","41","","16.1","","96.26","","","","","","NA"
"2017-04-04 18:00","2017","04","04","18:00","4.3","","2.0","","85","","26","","34","","16.1","","96.39","","","","","","NA"
"2017-04-04 19:00","2017","04","04","19:00","3.8","","1.8","","87","","27","","32","","16.1","","96.53","","","","","","NA"
"2017-04-04 20:00","2017","04","04","20:00","3.4","","1.6","","88","","28","","32","","16.1","","96.68","","","","","","NA"
"2017-04-04 21:00","2017","04","04","21:00","3.1","","1.3","","88","","29","","28","","16.1","","96.81","","","","","","NA"
"2017-04-04 22:00","2017","04","04","22:00","3.1","","1.6","","90","","29","","24","","16.1","","96.88","","","","","","NA"
"2017-04-04 23:00","2017","04","04","23:00","3.3","","1.5","","88","","29","","24","","16.1","","96.99","","","","","","NA"
"2017-04-05 00:00","2017","04","05","00:00","3.5","","1.5","","87","","31","","21","","16.1","","97.14","","","","","","NA"
"2017-04-05 01:00","2017","04","05","01:00","3.9","","1.7","","85","","30","","13","","16.1","","97.16","","","","","","NA"
"2017-04-05 02:00","2017","04","05","02:00","4.2","","2.4","","88","","30","","18","","16.1","","97.23","","","","","","NA"
"2017-04-05 03:00","2017","04","05","03:00","4.3","","2.5","","88","","30","","17","","16.1","","97.40","","","","","","NA"
"2017-04-05 04:00","2017","04","05","04:00","4.3","","2.5","","88","","33","","18","","16.1","","97.42","","","","","","NA"
"2017-04-05 05:00","2017","04","05","05:00","4.6","","2.5","","86","","33","","21","","16.1","","97.49","","","","","","NA"
"2017-04-05 06:00","2017","04","05","06:00","3.3","","1.4","","87","","33","","11","","16.1","","97.57","","","","","","NA"
"2017-04-05 07:00","2017","04","05","07:00","4.3","","1.8","","84","","35","","5","","16.1","","97.62","","","","","","NA"
"2017-04-05 08:00","2017","04","05","08:00","5.6","","1.4","","74","","5","","9","","16.1","","97.66","","","","","","NA"
"2017-04-05 09:00","2017","04","05","09:00","7.6","","2.3","","69","","8","","9","","16.1","","97.63","","","","","","NA"
"2017-04-05 10:00","2017","04","05","10:00","8.3","","2.0","","65","","10","","8","","16.1","","97.65","","","","","","NA"
"2017-04-05 11:00","2017","04","05","11:00","9.2","","2.1","","61","","12","","9","","16.1","","97.65","","","","","","NA"
"2017-04-05 12:00","2017","04","05","12:00","10.3","","2.1","","57","","6","","8","","16.1","","97.56","","","","","","NA"
"2017-04-05 13:00","2017","04","05","13:00","11.1","","1.3","","51","","10","","18","","16.1","","97.42","","","","","","NA"
"2017-04-05 14:00","2017","04","05","14:00","10.8","","1.4","","52","","11","","22","","16.1","","97.29","","","","","","NA"
"2017-04-05 15:00","2017","04","05","15:00","9.6","","3.4","","65","","10","","18","","16.1","","97.28","","","","","","NA"
"2017-04-05 16:00","2017","04","05","16:00","8.9","","2.6","","65","","6","","21","","16.1","","97.25","","","","","","NA"
"2017-04-05 17:00","2017","04","05","17:00","7.1","","2.3","","72","","7","","34","","16.1","","97.15","","","","","","NA"
"2017-04-05 18:00","2017","04","05","18:00","6.0","","1.6","","73","","7","","28","","16.1","","97.16","","","","","","NA"
"2017-04-05 19:00","2017","04","05","19:00","5.1","","1.5","","77","","7","","28","","16.1","","97.07","","","","","","NA"
"2017-04-05 20:00","2017","04","05","20:00","4.9","","1.2","","77","","6","","35","","16.1","","97.02","","","","","","NA"
"2017-04-05 21:00","2017","04","05","21:00","4.9","","1.3","","77","","5","","34","","16.1","","96.99","","","","","","NA"
"2017-04-05 22:00","2017","04","05","22:00","4.6","","1.5","","80","","6","","34","","16.1","","96.87","","","","","","Rain"
"2017-04-05 23:00","2017","04","05","23:00","4.7","","1.3","","78","","6","","43","","16.1","","96.74","","","","","","NA"
"2017-04-06 00:00","2017","04","06","00:00","4.2","","2.2","","87","","6","","43","","9.7","","96.63","","","","","","Rain,Fog"
"2017-04-06 01:00","2017","04","06","01:00","4.2","","2.7","","90","","8","","52","","16.1","","96.30","","","","","","Rain"
"2017-04-06 02:00","2017","04","06","02:00","4.5","","2.7","","88","","7","","37","","16.1","","96.32","","","","","","NA"
"2017-04-06 03:00","2017","04","06","03:00","4.6","","2.6","","87","","7","","35","","16.1","","96.13","","","","","","NA"
"2017-04-06 04:00","2017","04","06","04:00","4.8","","2.6","","86","","7","","32","","16.1","","96.06","","","","","","NA"
"2017-04-06 05:00","2017","04","06","05:00","4.8","","3.0","","88","","7","","34","","16.1","","95.98","","","","","","NA"
"2017-04-06 06:00","2017","04","06","06:00","4.9","","3.3","","89","","7","","35","","16.1","","95.91","","","","","","NA"
"2017-04-06 07:00","2017","04","06","07:00","5.1","","3.8","","91","","7","","32","","16.1","","95.85","","","","","","NA"
"2017-04-06 08:00","2017","04","06","08:00","5.3","","4.6","","95","","8","","28","","6.4","","95.78","","","","","","Rain,Fog"
"2017-04-06 09:00","2017","04","06","09:00","5.6","","5.0","","96","","7","","26","","11.3","","95.72","","","","","","Rain"
"2017-04-06 10:00","2017","04","06","10:00","5.9","","5.2","","95","","7","","22","","8.1","","95.68","","","","","","Rain,Fog"
"2017-04-06 11:00","2017","04","06","11:00","6.1","","5.4","","95","","6","","17","","6.4","","95.70","","","","","","Moderate Rain,Fog"
"2017-04-06 12:00","2017","04","06","12:00","6.4","","5.7","","95","","2","","21","","9.7","","95.63","","","","","","Rain,Fog"
"2017-04-06 13:00","2017","04","06","13:00","7.4","","6.2","","92","","4","","22","","16.1","","95.52","","","","","","Rain"
"2017-04-06 14:00","2017","04","06","14:00","7.0","","5.6","","91","","5","","21","","16.1","","95.52","","","","","","Rain"
"2017-04-06 15:00","2017","04","06","15:00","5.9","","4.6","","91","","3","","17","","16.1","","95.52","","","","","","Rain"
"2017-04-06 16:00","2017","04","06","16:00","4.9","","3.4","","90","","2","","26","","16.1","","95.49","","","","","","Rain"
"2017-04-06 17:00","2017","04","06","17:00","3.6","","2.0","","89","","2","","26","","16.1","","95.51","","","","","","Rain"
"2017-04-06 18:00","2017","04","06","18:00","1.5","","0.3","","92","","36","","28","","9.7","","95.62","","","","","","Snow"
"2017-04-06 19:00","2017","04","06","19:00","0.6","","0.0","","96","","36","","22","","2.0","","95.69","","","","","","Snow"
"2017-04-06 20:00","2017","04","06","20:00","0.8","","0.1","","95","","34","","24","","4.8","","95.76","","","","","","Snow"
"2017-04-06 21:00","2017","04","06","21:00","0.7","","0.0","","95","","34","","26","","3.2","","95.81","","","","","","Snow"
"2017-04-06 22:00","2017","04","06","22:00","0.6","","-0.4","","93","","34","","28","","2.8","","95.83","","","","","","Snow"
"2017-04-06 23:00","2017","04","06","23:00","0.5","","-0.4","","94","","34","","32","","2.0","","95.86","","","","","","Snow"
"2017-04-07 00:00","2017","04","07","00:00","0.4","","-0.5","","94","","34","","35","","2.0","","95.89","","","","","","Snow"
"2017-04-07 01:00","2017","04","07","01:00","0.2","","-0.8","","93","","33","","30","","2.0","","95.93","","","","","","Snow"
"2017-04-07 02:00","2017","04","07","02:00","0.1","","-1.7","","88","","33","","43","","4.8","","95.93","","","","","","Snow"
"2017-04-07 03:00","2017","04","07","03:00","-0.2","","-2.3","","86","","33","","37","","12.9","","96.00","","","","-7","","Snow"
"2017-04-07 04:00","2017","04","07","04:00","-0.3","","-3.0","","82","","34","","43","","14.5","","96.05","","","","-8","","Snow"
"2017-04-07 05:00","2017","04","07","05:00","-0.5","","-3.2","","82","","34","","37","","16.1","","96.12","","","","-8","","Snow"
"2017-04-07 06:00","2017","04","07","06:00","-0.8","","-3.3","","83","","34","","39","","12.9","","96.21","","","","-8","","Snow"
"2017-04-07 07:00","2017","04","07","07:00","-0.9","","-3.2","","84","","33","","28","","12.9","","96.34","","","","-7","","Snow"
"2017-04-07 08:00","2017","04","07","08:00","-0.6","","-3.8","","79","","33","","45","","16.1","","96.39","","","","-9","","Snow"
"2017-04-07 09:00","2017","04","07","09:00","-0.6","","-4.2","","77","","33","","54","","16.1","","96.49","","","","-9","","NA"
"2017-04-07 10:00","2017","04","07","10:00","0.1","","-4.2","","73","","33","","37","","16.1","","96.58","","","","","","NA"
"2017-04-07 11:00","2017","04","07","11:00","0.2","","-4.7","","70","","32","","48","","16.1","","96.62","","","","","","NA"
"2017-04-07 12:00","2017","04","07","12:00","1.5","","-3.2","","71","","32","","41","","14.5","","96.71","","","","","","NA"
"2017-04-07 13:00","2017","04","07","13:00","2.5","","-2.7","","69","","34","","39","","16.1","","96.76","","","","","","NA"
"2017-04-07 14:00","2017","04","07","14:00","3.2","","-2.8","","65","","33","","45","","16.1","","96.77","","","","","","NA"
"2017-04-07 15:00","2017","04","07","15:00","4.0","","-3.7","","57","","33","","43","","16.1","","96.84","","","","","","NA"
"2017-04-07 16:00","2017","04","07","16:00","4.6","","-5.2","","49","","31","","35","","16.1","","96.91","","","","","","NA"
"2017-04-07 17:00","2017","04","07","17:00","5.0","","-5.0","","49","","31","","30","","16.1","","97.01","","","","","","NA"
"2017-04-07 18:00","2017","04","07","18:00","4.0","","-6.1","","48","","31","","30","","16.1","","97.08","","","","","","NA"
"2017-04-07 19:00","2017","04","07","19:00","2.8","","-6.6","","50","","30","","21","","16.1","","97.14","","","","","","NA"
"2017-04-07 20:00","2017","04","07","20:00","1.8","","-5.5","","59","","29","","18","","16.1","","97.21","","","","","","NA"
"2017-04-07 21:00","2017","04","07","21:00","1.3","","-4.4","","66","","29","","22","","16.1","","97.27","","","","","","NA"
"2017-04-07 22:00","2017","04","07","22:00","0.8","","-3.7","","72","","29","","18","","16.1","","97.32","","","","","","NA"
"2017-04-07 23:00","2017","04","07","23:00","0.7","","-3.6","","73","","30","","17","","16.1","","97.32","","","","","","NA"
"2017-04-08 00:00","2017","04","08","00:00","0.4","","-3.9","","73","","30","","15","","16.1","","97.36","","","","","","NA"
"2017-04-08 01:00","2017","04","08","01:00","0.0","","-3.6","","77","","30","","15","","16.1","","97.36","","","","-4","","NA"
"2017-04-08 02:00","2017","04","08","02:00","-0.5","","-3.4","","81","","29","","15","","16.1","","97.37","","","","-5","","NA"
"2017-04-08 03:00","2017","04","08","03:00","-0.6","","-2.9","","85","","30","","17","","16.1","","97.40","","","","-6","","NA"
"2017-04-08 04:00","2017","04","08","04:00","-1.2","","-3.0","","88","","30","","11","","16.1","","97.46","","","","-5","","NA"
"2017-04-08 05:00","2017","04","08","05:00","-1.0","","-2.7","","88","","30","","15","","16.1","","97.52","","","","-6","","NA"
"2017-04-08 06:00","2017","04","08","06:00","-1.2","","-2.8","","89","","29","","11","","16.1","","97.60","","","","-5","","NA"
"2017-04-08 07:00","2017","04","08","07:00","0.5","","-2.0","","83","","29","","13","","16.1","","97.66","","","","","","NA"
"2017-04-08 08:00","2017","04","08","08:00","2.6","","-2.5","","69","","30","","18","","16.1","","97.72","","","","","","NA"
"2017-04-08 09:00","2017","04","08","09:00","5.3","","-4.6","","49","","30","","18","","16.1","","97.74","","","","","","NA"
"2017-04-08 10:00","2017","04","08","10:00","6.4","","-6.5","","39","","31","","21","","16.1","","97.75","","","","","","NA"
"2017-04-08 11:00","2017","04","08","11:00","8.5","","-6.2","","35","","31","","22","","16.1","","97.79","","","","","","NA"
"2017-04-08 12:00","2017","04","08","12:00","10.1","","-4.3","","36","","33","","18","","16.1","","97.75","","","","","","NA"
"2017-04-08 13:00","2017","04","08","13:00","11.1","","-3.8","","35","","34","","21","","16.1","","97.73","","","","","","NA"
"2017-04-08 14:00","2017","04","08","14:00","12.2","","-4.8","","30","","34","","21","","16.1","","97.71","","","","","","NA"
"2017-04-08 15:00","2017","04","08","15:00","12.4","","-3.7","","32","","27","","17","","16.1","","97.68","","","","","","NA"
"2017-04-08 16:00","2017","04","08","16:00","12.6","","-3.4","","33","","29","","21","","16.1","","97.66","","","","","","NA"
"2017-04-08 17:00","2017","04","08","17:00","12.1","","-4.2","","32","","27","","21","","16.1","","97.67","","","","","","NA"
"2017-04-08 18:00","2017","04","08","18:00","11.0","","-5.4","","31","","26","","24","","16.1","","97.66","","","","","","NA"
"2017-04-08 19:00","2017","04","08","19:00","8.6","","-5.2","","37","","25","","15","","16.1","","97.68","","","","","","NA"
"2017-04-08 20:00","2017","04","08","20:00","7.9","","-4.9","","40","","23","","8","","16.1","","97.71","","","","","","NA"
"2017-04-08 21:00","2017","04","08","21:00","6.1","","-0.9","","61","","20","","13","","16.1","","97.75","","","","","","NA"
"2017-04-08 22:00","2017","04","08","22:00","5.2","","-1.9","","60","","22","","13","","16.1","","97.75","","","","","","NA"
"2017-04-08 23:00","2017","04","08","23:00","3.8","","-2.8","","62","","18","","9","","16.1","","97.73","","","","","","NA"
"2017-04-09 00:00","2017","04","09","00:00","2.8","","-3.4","","64","","19","","5","","16.1","","97.73","","","","","","NA"
"2017-04-09 01:00","2017","04","09","01:00","2.0","","-3.1","","69","","15","","8","","16.1","","97.73","","","","","","NA"
"2017-04-09 02:00","2017","04","09","02:00","2.2","","-4.3","","62","","19","","11","","16.1","","97.68","","","","","","NA"
"2017-04-09 03:00","2017","04","09","03:00","2.3","","-4.9","","59","","18","","8","","16.1","","97.70","","","","","","NA"
"2017-04-09 04:00","2017","04","09","04:00","2.1","","-4.9","","60","","18","","8","","16.1","","97.71","","","","","","NA"
"2017-04-09 05:00","2017","04","09","05:00","0.1","","-4.0","","74","","10","","9","","16.1","","97.74","","","","","","NA"
"2017-04-09 06:00","2017","04","09","06:00","3.3","","-2.7","","65","","18","","5","","16.1","","97.78","","","","","","NA"
"2017-04-09 07:00","2017","04","09","07:00","4.9","","-1.9","","62","","18","","9","","16.1","","97.82","","","","","","NA"
"2017-04-09 08:00","2017","04","09","08:00","6.6","","-1.5","","56","","18","","15","","16.1","","97.81","","","","","","NA"
"2017-04-09 09:00","2017","04","09","09:00","8.9","","-1.4","","49","","19","","26","","16.1","","97.79","","","","","","NA"
"2017-04-09 10:00","2017","04","09","10:00","12.6","","0.0","","42","","21","","22","","16.1","","97.76","","","","","","NA"
"2017-04-09 11:00","2017","04","09","11:00","15.6","","0.3","","35","","19","","30","","16.1","","97.70","","","","","","NA"
"2017-04-09 12:00","2017","04","09","12:00","17.1","","1.0","","33","","20","","30","","16.1","","97.67","","","","","","NA"
"2017-04-09 13:00","2017","04","09","13:00","18.9","","1.5","","31","","20","","34","","16.1","","97.64","","","","","","NA"
"2017-04-09 14:00","2017","04","09","14:00","18.6","","1.4","","31","","20","","34","","16.1","","97.61","","","","","","NA"
"2017-04-09 15:00","2017","04","09","15:00","19.6","","1.7","","30","","20","","32","","16.1","","97.55","","","","","","NA"
"2017-04-09 16:00","2017","04","09","16:00","19.8","","2.1","","30","","19","","28","","16.1","","97.48","","","","","","NA"
"2017-04-09 17:00","2017","04","09","17:00","19.7","","1.2","","29","","19","","26","","16.1","","97.47","","","","","","NA"
"2017-04-09 18:00","2017","04","09","18:00","18.0","","0.1","","30","","20","","21","","16.1","","97.48","","","","","","NA"
"2017-04-09 19:00","2017","04","09","19:00","16.0","","1.1","","36","","18","","11","","16.1","","97.43","","","","","","NA"
"2017-04-09 20:00","2017","04","09","20:00","14.4","","1.7","","42","","19","","11","","16.1","","97.45","","","","","","NA"
"2017-04-09 21:00","2017","04","09","21:00","13.6","","2.3","","46","","20","","13","","16.1","","97.50","","","","","","NA"
"2017-04-09 22:00","2017","04","09","22:00","13.2","","2.1","","47","","19","","11","","16.1","","97.53","","","","","","NA"
"2017-04-09 23:00","2017","04","09","23:00","12.9","","2.3","","48","","19","","13","","16.1","","97.51","","","","","","NA"
"2017-04-10 00:00","2017","04","10","00:00","13.1","","2.6","","49","","19","","11","","16.1","","97.52","","","","","","NA"
"2017-04-10 01:00","2017","04","10","01:00","12.4","","2.7","","51","","20","","8","","16.1","","97.50","","","","","","NA"
"2017-04-10 02:00","2017","04","10","02:00","13.6","","1.9","","45","","18","","15","","16.1","","97.44","","","","","","NA"
"2017-04-10 03:00","2017","04","10","03:00","13.3","","1.6","","45","","18","","17","","16.1","","97.36","","","","","","NA"
"2017-04-10 04:00","2017","04","10","04:00","12.5","","1.6","","47","","18","","11","","16.1","","97.35","","","","","","NA"
"2017-04-10 05:00","2017","04","10","05:00","12.7","","1.3","","46","","18","","18","","16.1","","97.31","","","","","","NA"
"2017-04-10 06:00","2017","04","10","06:00","13.2","","1.3","","44","","20","","17","","16.1","","97.32","","","","","","NA"
"2017-04-10 07:00","2017","04","10","07:00","14.4","","1.5","","41","","20","","21","","16.1","","97.36","","","","","","NA"
"2017-04-10 08:00","2017","04","10","08:00","15.8","","2.7","","41","","20","","22","","16.1","","97.38","","","","","","NA"
"2017-04-10 09:00","2017","04","10","09:00","18.6","","4.1","","38","","21","","34","","16.1","","97.37","","","","","","NA"
"2017-04-10 10:00","2017","04","10","10:00","19.6","","5.5","","39","","22","","34","","16.1","","97.39","","","","","","NA"
"2017-04-10 11:00","2017","04","10","11:00","20.4","","6.9","","41","","23","","41","","16.1","","97.42","","","","","","NA"
"2017-04-10 12:00","2017","04","10","12:00","20.2","","7.2","","43","","21","","37","","16.1","","97.39","","","","","","NA"
"2017-04-10 13:00","2017","04","10","13:00","21.5","","8.4","","42","","21","","35","","16.1","","97.37","","","","","","NA"
"2017-04-10 14:00","2017","04","10","14:00","15.2","","12.1","","82","","20","","13","","16.1","","97.37","","","","","","Thunderstorms,Rain"
"2017-04-10 15:00","2017","04","10","15:00","16.1","","13.5","","85","","19","","26","","16.1","","97.44","","","","","","NA"
"2017-04-10 16:00","2017","04","10","16:00","19.3","","11.9","","62","","21","","30","","16.1","","97.48","","","","","","NA"
"2017-04-10 17:00","2017","04","10","17:00","20.1","","11.5","","57","","22","","24","","16.1","","97.52","","","","","","NA"
"2017-04-10 18:00","2017","04","10","18:00","19.9","","11.8","","59","","23","","26","","16.1","","97.55","","","","","","NA"
"2017-04-10 19:00","2017","04","10","19:00","18.5","","11.7","","64","","20","","18","","16.1","","97.55","","","","","","NA"
"2017-04-10 20:00","2017","04","10","20:00","17.7","","11.8","","68","","20","","13","","16.1","","97.64","","","","","","NA"
"2017-04-10 21:00","2017","04","10","21:00","16.1","","13.1","","82","","22","","17","","16.1","","97.66","","","","","","NA"
"2017-04-10 22:00","2017","04","10","22:00","15.7","","13.4","","86","","19","","9","","16.1","","97.60","","","","","","NA"
"2017-04-10 23:00","2017","04","10","23:00","15.8","","13.0","","83","","20","","15","","16.1","","97.60","","","","","","NA"
"2017-04-11 00:00","2017","04","11","00:00","15.8","","12.0","","78","","20","","18","","16.1","","97.59","","","","","","NA"
"2017-04-11 01:00","2017","04","11","01:00","14.8","","12.2","","84","","20","","30","","16.1","","97.55","","","","","","NA"
"2017-04-11 02:00","2017","04","11","02:00","15.0","","11.8","","81","","23","","32","","16.1","","97.66","","","","","","NA"
"2017-04-11 03:00","2017","04","11","03:00","14.4","","12.1","","86","","22","","32","","16.1","","97.65","","","","","","Rain"
"2017-04-11 04:00","2017","04","11","04:00","13.1","","11.0","","87","","26","","18","","16.1","","97.72","","","","","","NA"
"2017-04-11 05:00","2017","04","11","05:00","12.2","","9.8","","85","","26","","21","","16.1","","97.73","","","","","","NA"
"2017-04-11 06:00","2017","04","11","06:00","10.8","","9.1","","89","","22","","8","","16.1","","97.78","","","","","","NA"
"2017-04-11 07:00","2017","04","11","07:00","12.3","","10.7","","90","","23","","9","","16.1","","97.85","","","","","","NA"
"2017-04-11 08:00","2017","04","11","08:00","14.0","","11.7","","86","","24","","9","","16.1","","97.89","","","","","","NA"
"2017-04-11 09:00","2017","04","11","09:00","14.2","","11.9","","86","","22","","18","","16.1","","97.89","","","","","","NA"
"2017-04-11 10:00","2017","04","11","10:00","15.7","","12.9","","83","","24","","15","","16.1","","97.90","","","","","","NA"
"2017-04-11 11:00","2017","04","11","11:00","17.9","","13.3","","74","","23","","21","","16.1","","97.88","","","","","","NA"
"2017-04-11 12:00","2017","04","11","12:00","17.7","","13.2","","74","","26","","18","","16.1","","97.86","","","","","","NA"
"2017-04-11 13:00","2017","04","11","13:00","20.8","","12.0","","57","","22","","24","","16.1","","97.84","","","","","","NA"
"2017-04-11 14:00","2017","04","11","14:00","15.0","","11.9","","82","","19","","26","","12.9","","97.85","","","","","","Thunderstorms,Rain"
"2017-04-11 15:00","2017","04","11","15:00","15.6","","14.0","","90","","21","","11","","14.5","","97.85","","","","","","Rain"
"2017-04-11 16:00","2017","04","11","16:00","17.0","","13.5","","79","","22","","17","","16.1","","97.80","","","","","","Rain"
"2017-04-11 17:00","2017","04","11","17:00","15.6","","12.6","","82","","29","","24","","12.9","","97.86","","","","","","NA"
"2017-04-11 18:00","2017","04","11","18:00","11.8","","8.7","","81","","30","","24","","16.1","","97.99","","","","","","NA"
"2017-04-11 19:00","2017","04","11","19:00","9.5","","7.0","","84","","31","","24","","16.1","","98.04","","","","","","NA"
"2017-04-11 20:00","2017","04","11","20:00","8.7","","6.8","","88","","28","","26","","14.5","","98.16","","","","","","NA"
"2017-04-11 21:00","2017","04","11","21:00","7.8","","3.7","","75","","28","","35","","16.1","","98.22","","","","","","NA"
"2017-04-11 22:00","2017","04","11","22:00","7.6","","3.1","","73","","28","","30","","16.1","","98.22","","","","","","NA"
"2017-04-11 23:00","2017","04","11","23:00","7.3","","3.5","","77","","28","","28","","16.1","","98.26","","","","","","NA"
"2017-04-12 00:00","2017","04","12","00:00","6.2","","3.4","","82","","29","","21","","16.1","","98.31","","","","","","NA"
"2017-04-12 01:00","2017","04","12","01:00","5.4","","2.9","","84","","29","","18","","16.1","","98.34","","","","","","NA"
"2017-04-12 02:00","2017","04","12","02:00","4.7","","2.1","","83","","29","","22","","16.1","","98.35","","","","","","NA"
"2017-04-12 03:00","2017","04","12","03:00","4.3","","1.1","","80","","28","","21","","16.1","","98.39","","","","","","NA"
"2017-04-12 04:00","2017","04","12","04:00","4.2","","0.7","","78","","29","","26","","16.1","","98.41","","","","","","NA"
"2017-04-12 05:00","2017","04","12","05:00","3.9","","0.5","","78","","28","","21","","16.1","","98.45","","","","","","NA"
"2017-04-12 06:00","2017","04","12","06:00","3.6","","0.9","","83","","27","","30","","16.1","","98.52","","","","","","NA"
"2017-04-12 07:00","2017","04","12","07:00","3.1","","0.2","","81","","30","","22","","16.1","","98.64","","","","","","NA"
"2017-04-12 08:00","2017","04","12","08:00","3.0","","-0.1","","80","","29","","21","","16.1","","98.68","","","","","","NA"
"2017-04-12 09:00","2017","04","12","09:00","3.8","","1.1","","82","","28","","18","","14.5","","98.68","","","","","","Rain"
"2017-04-12 10:00","2017","04","12","10:00","4.4","","1.8","","83","","26","","18","","16.1","","98.71","","","","","","Rain"
"2017-04-12 11:00","2017","04","12","11:00","5.3","","2.0","","79","","26","","22","","16.1","","98.71","","","","","","NA"
"2017-04-12 12:00","2017","04","12","12:00","5.4","","2.1","","79","","26","","24","","16.1","","98.76","","","","","","NA"
"2017-04-12 13:00","2017","04","12","13:00","5.8","","1.8","","76","","26","","26","","16.1","","98.78","","","","","","NA"
"2017-04-12 14:00","2017","04","12","14:00","5.6","","1.9","","77","","28","","26","","16.1","","98.81","","","","","","NA"
"2017-04-12 15:00","2017","04","12","15:00","6.0","","0.8","","69","","29","","30","","16.1","","98.81","","","","","","NA"
"2017-04-12 16:00","2017","04","12","16:00","5.7","","0.5","","69","","30","","30","","16.1","","98.86","","","","","","NA"
"2017-04-12 17:00","2017","04","12","17:00","5.9","","-0.1","","65","","30","","32","","16.1","","98.89","","","","","","NA"
"2017-04-12 18:00","2017","04","12","18:00","5.4","","-0.9","","64","","31","","28","","16.1","","98.95","","","","","","NA"
"2017-04-12 19:00","2017","04","12","19:00","4.4","","-2.0","","63","","31","","21","","16.1","","99.00","","","","","","NA"
"2017-04-12 20:00","2017","04","12","20:00","3.1","","-1.8","","70","","30","","11","","16.1","","99.10","","","","","","NA"
"2017-04-12 21:00","2017","04","12","21:00","2.3","","-2.6","","70","","30","","9","","16.1","","99.16","","","","","","NA"
"2017-04-12 22:00","2017","04","12","22:00","1.6","","-3.1","","71","","30","","11","","16.1","","99.18","","","","","","NA"
"2017-04-12 23:00","2017","04","12","23:00","0.8","","-3.2","","75","","31","","8","","16.1","","99.20","","","","","","NA"
"2017-04-13 00:00","2017","04","13","00:00","0.6","","-3.4","","75","","30","","9","","16.1","","99.19","","","","","","NA"
"2017-04-13 01:00","2017","04","13","01:00","0.7","","-3.1","","76","","32","","11","","16.1","","99.15","","","","","","NA"
"2017-04-13 02:00","2017","04","13","02:00","-0.1","","-2.8","","82","","32","","8","","16.1","","99.17","","","","-3","","NA"
"2017-04-13 03:00","2017","04","13","03:00","-0.1","","-2.8","","82","","","","0","","16.1","","99.17","","","","","","NA"
"2017-04-13 04:00","2017","04","13","04:00","-1.2","","-2.9","","88","","","","0","","16.1","","99.18","","","","","","NA"
"2017-04-13 05:00","2017","04","13","05:00","-1.1","","-1.9","","94","","","","0","","16.1","","99.18","","","","","","NA"
"2017-04-13 06:00","2017","04","13","06:00","-0.9","","-1.8","","94","","","","0","","16.1","","99.28","","","","","","NA"
"2017-04-13 07:00","2017","04","13","07:00","1.2","","-0.4","","89","","","","0","","16.1","","99.35","","","","","","NA"
"2017-04-13 08:00","2017","04","13","08:00","4.2","","0.0","","74","","25","","5","","16.1","","99.40","","","","","","NA"
"2017-04-13 09:00","2017","04","13","09:00","6.4","","-2.4","","53","","19","","9","","16.1","","99.44","","","","","","NA"
"2017-04-13 10:00","2017","04","13","10:00","7.5","","-2.4","","50","","22","","8","","16.1","","99.42","","","","","","NA"
"2017-04-13 11:00","2017","04","13","11:00","8.9","","-2.4","","45","","18","","9","","16.1","","99.38","","","","","","NA"
"2017-04-13 12:00","2017","04","13","12:00","9.2","","-2.7","","43","","","M","4","","16.1","","99.34","","","","","","NA"
"2017-04-13 13:00","2017","04","13","13:00","10.4","","-4.1","","36","","","M","4","","16.1","","99.29","","","","","","NA"
"2017-04-13 14:00","2017","04","13","14:00","11.3","","-4.3","","33","","13","","5","","16.1","","99.20","","","","","","NA"
"2017-04-13 15:00","2017","04","13","15:00","11.5","","-4.6","","32","","17","","5","","16.1","","99.11","","","","","","NA"
"2017-04-13 16:00","2017","04","13","16:00","11.5","","-4.3","","33","","","M","5","","16.1","","99.03","","","","","","NA"
"2017-04-13 17:00","2017","04","13","17:00","11.1","","-4.5","","33","","","M","4","","16.1","","99.02","","","","","","NA"
"2017-04-13 18:00","2017","04","13","18:00","11.0","","-4.0","","35","","","","0","","16.1","","99.00","","","","","","NA"
"2017-04-13 19:00","2017","04","13","19:00","9.7","","-2.2","","43","","","","0","","16.1","","98.97","","","","","","NA"
"2017-04-13 20:00","2017","04","13","20:00","7.6","","-1.2","","54","","21","","9","","16.1","","99.00","","","","","","NA"
"2017-04-13 21:00","2017","04","13","21:00","5.9","","-0.6","","63","","20","","8","","16.1","","99.07","","","","","","NA"
"2017-04-13 22:00","2017","04","13","22:00","4.8","","1.0","","76","","","M","4","","16.1","","99.08","","","","","","NA"
"2017-04-13 23:00","2017","04","13","23:00","5.2","","2.6","","83","","","","0","","16.1","","99.08","","","","","","NA"
"2017-04-14 00:00","2017","04","14","00:00","5.3","","2.3","","81","","3","","5","","16.1","","99.06","","","","","","NA"
"2017-04-14 01:00","2017","04","14","01:00","5.2","","-2.7","","57","","4","","11","","16.1","","99.06","","","","","","NA"
"2017-04-14 02:00","2017","04","14","02:00","4.7","","-4.7","","51","","4","","9","","16.1","","99.02","","","","","","NA"
"2017-04-14 03:00","2017","04","14","03:00","4.2","","-4.5","","53","","3","","8","","16.1","","99.04","","","","","","NA"
"2017-04-14 04:00","2017","04","14","04:00","3.6","","-4.2","","57","","4","","8","","16.1","","99.03","","","","","","NA"
"2017-04-14 05:00","2017","04","14","05:00","2.3","","-1.5","","76","","5","","4","","16.1","","99.05","","","","","","NA"
"2017-04-14 06:00","2017","04","14","06:00","4.1","","-3.9","","56","","6","","9","","16.1","","99.11","","","","","","NA"
"2017-04-14 07:00","2017","04","14","07:00","5.0","","-5.2","","48","","4","","9","","16.1","","99.12","","","","","","NA"
"2017-04-14 08:00","2017","04","14","08:00","8.6","","-3.9","","41","","6","","13","","16.1","","99.15","","","","","","NA"
"2017-04-14 09:00","2017","04","14","09:00","11.0","","-3.8","","35","","7","","13","","16.1","","99.13","","","","","","NA"
"2017-04-14 10:00","2017","04","14","10:00","13.0","","-3.6","","31","","9","","17","","16.1","","99.13","","","","","","NA"
"2017-04-14 11:00","2017","04","14","11:00","13.7","","-3.2","","31","","9","","22","","16.1","","99.07","","","","","","NA"
"2017-04-14 12:00","2017","04","14","12:00","14.3","","-3.1","","30","","8","","17","","16.1","","99.03","","","","","","NA"
"2017-04-14 13:00","2017","04","14","13:00","14.6","","-2.7","","30","","10","","13","","16.1","","98.98","","","","","","NA"
"2017-04-14 14:00","2017","04","14","14:00","14.8","","-4.4","","26","","12","","18","","16.1","","98.91","","","","","","NA"
"2017-04-14 15:00","2017","04","14","15:00","15.5","","-3.8","","26","","12","","17","","16.1","","98.84","","","","","","NA"
"2017-04-14 16:00","2017","04","14","16:00","15.2","","-4.0","","26","","12","","15","","16.1","","98.79","","","","","","NA"
"2017-04-14 17:00","2017","04","14","17:00","14.4","","-5.8","","24","","9","","18","","16.1","","98.82","","","","","","NA"
"2017-04-14 18:00","2017","04","14","18:00","13.4","","-3.7","","30","","12","","17","","16.1","","98.79","","","","","","NA"
"2017-04-14 19:00","2017","04","14","19:00","9.5","","-2.0","","45","","10","","13","","16.1","","98.74","","","","","","NA"
"2017-04-14 20:00","2017","04","14","20:00","7.8","","-4.0","","43","","11","","13","","16.1","","98.79","","","","","","NA"
"2017-04-14 21:00","2017","04","14","21:00","6.8","","-2.6","","51","","8","","5","","16.1","","98.78","","","","","","NA"
"2017-04-14 22:00","2017","04","14","22:00","5.1","","-3.2","","55","","12","","5","","16.1","","98.77","","","","","","NA"
"2017-04-14 23:00","2017","04","14","23:00","3.8","","-3.1","","61","","6","","9","","16.1","","98.71","","","","","","NA"
"2017-04-15 00:00","2017","04","15","00:00","4.6","","-3.8","","55","","5","","5","","16.1","","98.65","","","","","","NA"
"2017-04-15 01:00","2017","04","15","01:00","5.2","","-4.5","","49","","5","","8","","16.1","","98.57","","","","","","NA"
"2017-04-15 02:00","2017","04","15","02:00","4.3","","-3.4","","57","","8","","8","","16.1","","98.47","","","","","","NA"
"2017-04-15 03:00","2017","04","15","03:00","3.9","","-2.2","","65","","","","0","","16.1","","98.40","","","","","","NA"
"2017-04-15 04:00","2017","04","15","04:00","4.0","","-0.9","","70","","6","","4","","16.1","","98.35","","","","","","NA"
"2017-04-15 05:00","2017","04","15","05:00","3.3","","0.4","","81","","35","","4","","16.1","","98.30","","","","","","NA"
"2017-04-15 06:00","2017","04","15","06:00","5.1","","0.7","","73","","","","0","","16.1","","98.31","","","","","","Rain"
"2017-04-15 07:00","2017","04","15","07:00","5.7","","0.5","","69","","","M","4","","16.1","","98.26","","","","","","Rain"
"2017-04-15 08:00","2017","04","15","08:00","5.8","","2.3","","78","","10","","5","","16.1","","98.23","","","","","","Rain"
"2017-04-15 09:00","2017","04","15","09:00","7.1","","2.7","","74","","13","","5","","16.1","","98.16","","","","","","NA"
"2017-04-15 10:00","2017","04","15","10:00","7.4","","4.6","","83","","15","","5","","16.1","","98.13","","","","","","Rain"
"2017-04-15 11:00","2017","04","15","11:00","8.0","","6.1","","88","","15","","15","","9.7","","97.97","","","","","","Rain,Fog"
"2017-04-15 12:00","2017","04","15","12:00","11.9","","10.6","","92","","18","","18","","16.1","","97.83","","","","","","Rain"
"2017-04-15 13:00","2017","04","15","13:00","19.2","","12.3","","64","","20","","26","","16.1","","97.71","","","","","","NA"
"2017-04-15 14:00","2017","04","15","14:00","21.0","","11.2","","53","","23","","35","","16.1","","97.63","","","","","","NA"
"2017-04-15 15:00","2017","04","15","15:00","21.7","","11.6","","52","","24","","34","","16.1","","97.55","","","","","","NA"
"2017-04-15 16:00","2017","04","15","16:00","22.2","","12.3","","53","","23","","24","","16.1","","97.50","","25","","","","NA"
"2017-04-15 17:00","2017","04","15","17:00","21.9","","12.9","","56","","22","","22","","16.1","","97.46","","25","","","","NA"
"2017-04-15 18:00","2017","04","15","18:00","21.5","","12.9","","57","","20","","24","","16.1","","97.39","","","","","","NA"
"2017-04-15 19:00","2017","04","15","19:00","20.0","","12.6","","62","","20","","21","","16.1","","97.36","","","","","","NA"
"2017-04-15 20:00","2017","04","15","20:00","19.0","","12.1","","64","","21","","17","","16.1","","97.36","","","","","","NA"
"2017-04-15 21:00","2017","04","15","21:00","19.7","","12.1","","61","","23","","24","","16.1","","97.38","","","","","","NA"
"2017-04-15 22:00","2017","04","15","22:00","19.5","","11.6","","60","","23","","22","","16.1","","97.36","","","","","","NA"
"2017-04-15 23:00","2017","04","15","23:00","19.1","","11.3","","60","","23","","24","","16.1","","97.35","","","","","","NA"
"2017-04-16 00:00","2017","04","16","00:00","18.7","","10.4","","58","","23","","24","","16.1","","97.33","","","","","","NA"
"2017-04-16 01:00","2017","04","16","01:00","18.1","","10.0","","59","","23","","22","","16.1","","97.30","","","","","","NA"
"2017-04-16 02:00","2017","04","16","02:00","18.4","","9.6","","56","","23","","21","","16.1","","97.25","","","","","","NA"
"2017-04-16 03:00","2017","04","16","03:00","18.4","","9.8","","57","","22","","22","","16.1","","97.19","","","","","","NA"
"2017-04-16 04:00","2017","04","16","04:00","17.4","","9.8","","61","","22","","21","","16.1","","97.15","","","","","","NA"
"2017-04-16 05:00","2017","04","16","05:00","17.0","","9.5","","61","","22","","21","","16.1","","97.13","","","","","","NA"
"2017-04-16 06:00","2017","04","16","06:00","16.9","","9.7","","62","","23","","26","","16.1","","97.15","","","","","","NA"
"2017-04-16 07:00","2017","04","16","07:00","15.2","","10.1","","72","","21","","22","","16.1","","97.12","","","","","","Rain"
"2017-04-16 08:00","2017","04","16","08:00","17.3","","9.3","","59","","21","","28","","16.1","","97.02","","","","","","NA"
"2017-04-16 09:00","2017","04","16","09:00","19.8","","10.0","","53","","21","","28","","16.1","","96.95","","","","","","NA"
"2017-04-16 10:00","2017","04","16","10:00","19.5","","10.9","","57","","23","","34","","16.1","","96.89","","","","","","NA"
"2017-04-16 11:00","2017","04","16","11:00","19.4","","10.8","","57","","25","","45","","16.1","","96.97","","","","","","NA"
"2017-04-16 12:00","2017","04","16","12:00","19.5","","11.7","","60","","26","","39","","16.1","","97.00","","","","","","NA"
"2017-04-16 13:00","2017","04","16","13:00","19.8","","11.7","","59","","26","","45","","16.1","","97.04","","","","","","NA"
"2017-04-16 14:00","2017","04","16","14:00","19.6","","11.9","","61","","25","","39","","16.1","","97.04","","","","","","NA"
"2017-04-16 15:00","2017","04","16","15:00","19.4","","12.2","","63","","27","","35","","16.1","","97.06","","","","","","NA"
"2017-04-16 16:00","2017","04","16","16:00","19.1","","12.5","","65","","27","","30","","16.1","","97.10","","","","","","NA"
"2017-04-16 17:00","2017","04","16","17:00","19.3","","12.7","","65","","26","","26","","16.1","","97.12","","","","","","NA"
"2017-04-16 18:00","2017","04","16","18:00","18.5","","12.0","","65","","27","","32","","16.1","","97.15","","","","","","NA"
"2017-04-16 19:00","2017","04","16","19:00","18.0","","12.1","","68","","26","","24","","16.1","","97.23","","","","","","NA"
"2017-04-16 20:00","2017","04","16","20:00","17.1","","12.1","","72","","28","","21","","16.1","","97.30","","","","","","NA"
"2017-04-16 21:00","2017","04","16","21:00","14.4","","10.8","","79","","32","","26","","16.1","","97.44","","","","","","NA"
"2017-04-16 22:00","2017","04","16","22:00","12.2","","8.0","","75","","32","","22","","16.1","","97.54","","","","","","NA"
"2017-04-16 23:00","2017","04","16","23:00","9.8","","6.9","","82","","31","","26","","16.1","","97.69","","","","","","NA"
"2017-04-17 00:00","2017","04","17","00:00","9.0","","5.2","","77","","32","","15","","16.1","","97.69","","","","","","NA"
"2017-04-17 01:00","2017","04","17","01:00","8.3","","3.0","","69","","30","","18","","16.1","","97.73","","","","","","NA"
"2017-04-17 02:00","2017","04","17","02:00","7.5","","2.9","","73","","32","","17","","16.1","","97.72","","","","","","NA"
"2017-04-17 03:00","2017","04","17","03:00","6.5","","2.4","","75","","31","","18","","16.1","","97.76","","","","","","NA"
"2017-04-17 04:00","2017","04","17","04:00","5.1","","2.3","","82","","29","","15","","16.1","","97.80","","","","","","NA"
"2017-04-17 05:00","2017","04","17","05:00","4.5","","2.0","","84","","29","","21","","16.1","","97.89","","","","","","NA"
"2017-04-17 06:00","2017","04","17","06:00","4.2","","1.7","","84","","29","","17","","16.1","","97.99","","","","","","NA"
"2017-04-17 07:00","2017","04","17","07:00","5.0","","2.2","","82","","30","","24","","16.1","","98.08","","","","","","NA"
"2017-04-17 08:00","2017","04","17","08:00","5.8","","2.5","","79","","31","","24","","16.1","","98.11","","","","","","NA"
"2017-04-17 09:00","2017","04","17","09:00","7.2","","2.8","","73","","31","","26","","16.1","","98.15","","","","","","NA"
"2017-04-17 10:00","2017","04","17","10:00","8.5","","3.2","","69","","29","","28","","16.1","","98.22","","","","","","NA"
"2017-04-17 11:00","2017","04","17","11:00","9.2","","3.4","","67","","32","","21","","16.1","","98.26","","","","","","NA"
"2017-04-17 12:00","2017","04","17","12:00","10.2","","3.6","","63","","31","","22","","16.1","","98.26","","","","","","NA"
"2017-04-17 13:00","2017","04","17","13:00","11.9","","4.1","","59","","30","","22","","16.1","","98.28","","","","","","NA"
"2017-04-17 14:00","2017","04","17","14:00","12.4","","4.1","","57","","28","","30","","16.1","","98.28","","","","","","NA"
"2017-04-17 15:00","2017","04","17","15:00","12.0","","2.3","","51","","31","","22","","16.1","","98.28","","","","","","NA"
"2017-04-17 16:00","2017","04","17","16:00","11.2","","2.1","","53","","32","","21","","16.1","","98.31","","","","","","NA"
"2017-04-17 17:00","2017","04","17","17:00","10.6","","1.8","","54","","30","","21","","16.1","","98.37","","","","","","NA"
"2017-04-17 18:00","2017","04","17","18:00","9.7","","1.0","","55","","30","","18","","16.1","","98.40","","","","","","NA"
"2017-04-17 19:00","2017","04","17","19:00","8.1","","1.9","","65","","32","","15","","16.1","","98.49","","","","","","NA"
"2017-04-17 20:00","2017","04","17","20:00","5.9","","0.7","","69","","32","","15","","16.1","","98.56","","","","","","NA"
"2017-04-17 21:00","2017","04","17","21:00","4.4","","0.5","","76","","32","","11","","16.1","","98.62","","","","","","NA"
"2017-04-17 22:00","2017","04","17","22:00","3.2","","0.6","","83","","2","","11","","16.1","","98.68","","","","","","NA"
"2017-04-17 23:00","2017","04","17","23:00","1.4","","-0.8","","86","","2","","9","","16.1","","98.73","","","","","","NA"
"2017-04-18 00:00","2017","04","18","00:00","0.6","","-1.6","","85","","2","","9","","16.1","","98.80","","","","","","NA"
"2017-04-18 01:00","2017","04","18","01:00","0.3","","-2.1","","84","","3","","5","","16.1","","98.81","","","","","","NA"
"2017-04-18 02:00","2017","04","18","02:00","-0.3","","-2.2","","87","","","M","4","","16.1","","98.85","","","","-2","","NA"
"2017-04-18 03:00","2017","04","18","03:00","-0.6","","-3.0","","84","","5","","8","","16.1","","98.88","","","","-3","","NA"
"2017-04-18 04:00","2017","04","18","04:00","-1.0","","-2.6","","89","","5","","9","","16.1","","98.89","","","","-4","","NA"
"2017-04-18 05:00","2017","04","18","05:00","-2.3","","-3.6","","91","","7","","11","","16.1","","98.94","","","","-6","","NA"
"2017-04-18 06:00","2017","04","18","06:00","-1.9","","-3.6","","88","","7","","11","","16.1","","98.98","","","","-6","","NA"
"2017-04-18 07:00","2017","04","18","07:00","0.6","","-2.3","","81","","7","","13","","16.1","","99.04","","","","","","NA"
"2017-04-18 08:00","2017","04","18","08:00","2.9","","-0.7","","77","","9","","18","","16.1","","99.08","","","","","","NA"
"2017-04-18 09:00","2017","04","18","09:00","4.3","","-0.2","","73","","9","","11","","16.1","","99.09","","","","","","NA"
"2017-04-18 10:00","2017","04","18","10:00","6.7","","0.3","","63","","10","","15","","16.1","","99.07","","","","","","NA"
"2017-04-18 11:00","2017","04","18","11:00","8.4","","0.4","","57","","8","","21","","16.1","","99.00","","","","","","NA"
"2017-04-18 12:00","2017","04","18","12:00","9.9","","1.5","","56","","12","","17","","16.1","","98.95","","","","","","NA"
"2017-04-18 13:00","2017","04","18","13:00","10.5","","1.1","","52","","12","","17","","16.1","","98.95","","","","","","NA"
"2017-04-18 14:00","2017","04","18","14:00","10.8","","1.0","","51","","12","","13","","16.1","","98.90","","","","","","NA"
"2017-04-18 15:00","2017","04","18","15:00","11.4","","1.0","","49","","11","","15","","16.1","","98.83","","","","","","NA"
"2017-04-18 16:00","2017","04","18","16:00","11.4","","0.7","","48","","11","","13","","16.1","","98.77","","","","","","NA"
"2017-04-18 17:00","2017","04","18","17:00","11.0","","2.0","","54","","12","","17","","16.1","","98.68","","","","","","NA"
"2017-04-18 18:00","2017","04","18","18:00","8.1","","1.1","","61","","11","","22","","16.1","","98.65","","","","","","NA"
"2017-04-18 19:00","2017","04","18","19:00","5.5","","0.0","","68","","8","","17","","16.1","","98.67","","","","","","NA"
"2017-04-18 20:00","2017","04","18","20:00","4.2","","-1.0","","69","","10","","17","","16.1","","98.63","","","","","","NA"
"2017-04-18 21:00","2017","04","18","21:00","3.2","","-2.0","","69","","8","","13","","16.1","","98.59","","","","","","NA"
"2017-04-18 22:00","2017","04","18","22:00","3.6","","-3.0","","62","","9","","11","","16.1","","98.54","","","","","","NA"
"2017-04-18 23:00","2017","04","18","23:00","3.5","","-1.8","","68","","9","","15","","16.1","","98.49","","","","","","NA"
"2017-04-19 00:00","2017","04","19","00:00","4.3","","-1.1","","68","","9","","11","","16.1","","98.42","","","","","","NA"
"2017-04-19 01:00","2017","04","19","01:00","4.8","","-0.6","","68","","7","","11","","16.1","","98.30","","","","","","NA"
"2017-04-19 02:00","2017","04","19","02:00","5.2","","0.8","","73","","8","","9","","16.1","","98.22","","","","","","Rain"
"2017-04-19 03:00","2017","04","19","03:00","5.0","","1.4","","77","","6","","11","","16.1","","98.12","","","","","","Rain"
"2017-04-19 04:00","2017","04","19","04:00","5.7","","1.7","","75","","11","","9","","16.1","","97.98","","","","","","NA"
"2017-04-19 05:00","2017","04","19","05:00","6.3","","1.8","","73","","15","","9","","16.1","","97.96","","","","","","NA"
"2017-04-19 06:00","2017","04","19","06:00","6.2","","2.1","","75","","14","","13","","16.1","","97.93","","","","","","NA"
"2017-04-19 07:00","2017","04","19","07:00","7.5","","3.2","","74","","16","","9","","16.1","","97.90","","","","","","Rain"
"2017-04-19 08:00","2017","04","19","08:00","9.6","","5.8","","77","","19","","15","","16.1","","97.86","","","","","","NA"
"2017-04-19 09:00","2017","04","19","09:00","12.2","","8.8","","80","","19","","22","","16.1","","97.80","","","","","","NA"
"2017-04-19 10:00","2017","04","19","10:00","14.3","","12.7","","90","","20","","26","","16.1","","97.70","","","","","","NA"
"2017-04-19 11:00","2017","04","19","11:00","16.9","","14.1","","84","","22","","26","","16.1","","97.74","","","","","","NA"
"2017-04-19 12:00","2017","04","19","12:00","18.0","","14.7","","81","","23","","26","","16.1","","97.69","","","","","","NA"
"2017-04-19 13:00","2017","04","19","13:00","16.6","","14.5","","87","","22","","15","","16.1","","97.72","","","","","","Rain"
"2017-04-19 14:00","2017","04","19","14:00","17.0","","14.9","","87","","24","","17","","16.1","","97.73","","","","","","Rain"
"2017-04-19 15:00","2017","04","19","15:00","18.9","","14.6","","76","","26","","18","","12.9","","97.69","","","","","","NA"
"2017-04-19 16:00","2017","04","19","16:00","19.1","","12.6","","66","","31","","32","","16.1","","97.75","","","","","","NA"
"2017-04-19 17:00","2017","04","19","17:00","17.6","","11.0","","65","","32","","21","","16.1","","97.80","","","","","","NA"
"2017-04-19 18:00","2017","04","19","18:00","15.8","","10.0","","68","","32","","21","","16.1","","97.89","","","","","","NA"
"2017-04-19 19:00","2017","04","19","19:00","13.1","","8.0","","71","","32","","15","","16.1","","97.97","","","","","","NA"
"2017-04-19 20:00","2017","04","19","20:00","11.4","","7.6","","77","","33","","13","","16.1","","98.03","","","","","","NA"
"2017-04-19 21:00","2017","04","19","21:00","10.5","","7.4","","81","","33","","9","","16.1","","98.08","","","","","","NA"
"2017-04-19 22:00","2017","04","19","22:00","9.5","","6.9","","84","","34","","11","","16.1","","98.10","","","","","","NA"
"2017-04-19 23:00","2017","04","19","23:00","8.9","","6.9","","87","","34","","4","","16.1","","98.13","","","","","","NA"
"2017-04-20 00:00","2017","04","20","00:00","8.2","","6.3","","88","","36","","5","","16.1","","98.16","","","","","","NA"
"2017-04-20 01:00","2017","04","20","01:00","8.1","","5.4","","83","","","M","4","","16.1","","98.18","","","","","","NA"
"2017-04-20 02:00","2017","04","20","02:00","7.7","","5.0","","83","","4","","8","","16.1","","98.18","","","","","","NA"
"2017-04-20 03:00","2017","04","20","03:00","7.4","","5.2","","86","","6","","11","","16.1","","98.21","","","","","","NA"
"2017-04-20 04:00","2017","04","20","04:00","6.8","","4.6","","86","","6","","18","","16.1","","98.17","","","","","","NA"
"2017-04-20 05:00","2017","04","20","05:00","6.7","","4.8","","87","","6","","18","","16.1","","98.11","","","","","","NA"
"2017-04-20 06:00","2017","04","20","06:00","6.9","","4.9","","87","","8","","21","","16.1","","98.04","","","","","","NA"
"2017-04-20 07:00","2017","04","20","07:00","6.8","","4.9","","88","","10","","24","","16.1","","98.11","","","","","","NA"
"2017-04-20 08:00","2017","04","20","08:00","5.7","","4.4","","91","","10","","21","","16.1","","98.14","","","","","","NA"
"2017-04-20 09:00","2017","04","20","09:00","4.7","","3.7","","93","","7","","35","","16.1","","98.09","","","","","","Rain"
"2017-04-20 10:00","2017","04","20","10:00","4.6","","3.4","","92","","9","","32","","4.8","","98.15","","","","","","Fog"
"2017-04-20 11:00","2017","04","20","11:00","4.7","","3.5","","92","","9","","32","","16.1","","97.93","","","","","","Rain"
"2017-04-20 12:00","2017","04","20","12:00","4.4","","3.4","","93","","9","","30","","16.1","","97.82","","","","","","Rain"
"2017-04-20 13:00","2017","04","20","13:00","4.1","","3.2","","94","","9","","30","","16.1","","97.74","","","","","","Rain"
"2017-04-20 14:00","2017","04","20","14:00","4.0","","3.1","","94","","8","","28","","9.7","","97.60","","","","","","Rain,Fog"
"2017-04-20 15:00","2017","04","20","15:00","4.2","","3.3","","94","","8","","28","","16.1","","97.52","","","","","","NA"
"2017-04-20 16:00","2017","04","20","16:00","4.2","","3.6","","96","","8","","26","","16.1","","97.46","","","","","","Rain"
"2017-04-20 17:00","2017","04","20","17:00","4.3","","","M","","M","7","","24","","8.1","","97.51","","","","","","Moderate Rain"
"2017-04-20 18:00","2017","04","20","18:00","4.5","","3.6","","94","","9","","32","","4.8","","97.46","","","","","","Rain,Fog"
"2017-04-20 19:00","2017","04","20","19:00","4.9","","4.0","","94","","9","","26","","16.1","","97.30","","","","","","Rain"
"2017-04-20 20:00","2017","04","20","20:00","5.0","","4.3","","95","","9","","21","","16.1","","97.30","","","","","","NA"
"2017-04-20 21:00","2017","04","20","21:00","4.9","","4.3","","96","","9","","17","","16.1","","97.21","","","","","","Rain"
"2017-04-20 22:00","2017","04","20","22:00","4.9","","4.3","","96","","10","","13","","16.1","","97.20","","","","","","NA"
"2017-04-20 23:00","2017","04","20","23:00","4.7","","4.3","","97","","4","","9","","1.2","","97.13","","","","","","Fog"
"2017-04-21 00:00","2017","04","21","00:00","4.8","","4.5","","98","","8","","8","","0.6","","97.10","","","","","","Fog"
"2017-04-21 01:00","2017","04","21","01:00","4.8","","4.5","","98","","12","","4","","1.0","","97.08","","","","","","Fog"
"2017-04-21 02:00","2017","04","21","02:00","5.2","","4.9","","98","","29","","8","","2.4","","97.06","","","","","","Fog"
"2017-04-21 03:00","2017","04","21","03:00","5.4","","5.1","","98","","","","0","","4.0","","97.02","","","","","","Fog"
"2017-04-21 04:00","2017","04","21","04:00","6.2","","5.9","","98","","23","","8","","0.6","","97.03","","","","","","Fog"
"2017-04-21 05:00","2017","04","21","05:00","6.7","","6.4","","98","","24","","11","","3.6","","97.06","","","","","","Fog"
"2017-04-21 06:00","2017","04","21","06:00","7.3","","7.0","","98","","24","","11","","8.1","","97.13","","","","","","Fog"
"2017-04-21 07:00","2017","04","21","07:00","8.2","","7.7","","97","","23","","11","","11.3","","97.17","","","","","","NA"
"2017-04-21 08:00","2017","04","21","08:00","9.0","","7.9","","93","","24","","17","","16.1","","97.17","","","","","","NA"
"2017-04-21 09:00","2017","04","21","09:00","8.3","","6.4","","88","","29","","21","","16.1","","97.20","","","","","","NA"
"2017-04-21 10:00","2017","04","21","10:00","8.2","","7.1","","93","","29","","22","","3.2","","97.27","","","","","","Rain,Fog"
"2017-04-21 11:00","2017","04","21","11:00","8.9","","7.0","","88","","28","","28","","14.5","","97.28","","","","","","Rain"
"2017-04-21 12:00","2017","04","21","12:00","9.2","","5.8","","79","","26","","26","","16.1","","97.34","","","","","","NA"
"2017-04-21 13:00","2017","04","21","13:00","8.0","","4.7","","80","","29","","30","","16.1","","97.38","","","","","","NA"
"2017-04-21 14:00","2017","04","21","14:00","8.6","","4.8","","77","","27","","28","","16.1","","97.42","","","","","","NA"
"2017-04-21 15:00","2017","04","21","15:00","8.7","","4.0","","72","","29","","28","","16.1","","97.40","","","","","","NA"
"2017-04-21 16:00","2017","04","21","16:00","8.7","","3.3","","69","","28","","32","","16.1","","97.47","","","","","","NA"
"2017-04-21 17:00","2017","04","21","17:00","7.2","","3.2","","76","","29","","26","","16.1","","97.59","","","","","","NA"
"2017-04-21 18:00","2017","04","21","18:00","6.4","","2.6","","77","","30","","26","","16.1","","97.62","","","","","","NA"
"2017-04-21 19:00","2017","04","21","19:00","5.5","","2.5","","81","","30","","21","","16.1","","97.67","","","","","","NA"
"2017-04-21 20:00","2017","04","21","20:00","4.8","","1.8","","81","","30","","22","","16.1","","97.74","","","","","","NA"
"2017-04-21 21:00","2017","04","21","21:00","3.7","","0.9","","82","","28","","15","","16.1","","97.81","","","","","","NA"
"2017-04-21 22:00","2017","04","21","22:00","4.3","","1.3","","81","","29","","21","","16.1","","97.80","","","","","","NA"
"2017-04-21 23:00","2017","04","21","23:00","4.0","","1.2","","82","","29","","17","","16.1","","97.84","","","","","","NA"
"2017-04-22 00:00","2017","04","22","00:00","4.2","","1.7","","84","","31","","18","","16.1","","97.85","","","","","","NA"
"2017-04-22 01:00","2017","04","22","01:00","4.1","","1.8","","85","","31","","13","","16.1","","97.83","","","","","","NA"
"2017-04-22 02:00","2017","04","22","02:00","4.2","","2.1","","86","","32","","11","","16.1","","97.78","","","","","","NA"
"2017-04-22 03:00","2017","04","22","03:00","4.2","","1.6","","83","","31","","11","","16.1","","97.82","","","","","","NA"
"2017-04-22 04:00","2017","04","22","04:00","4.3","","1.3","","81","","31","","13","","16.1","","97.84","","","","","","NA"
"2017-04-22 05:00","2017","04","22","05:00","3.7","","0.9","","82","","32","","15","","16.1","","97.86","","","","","","NA"
"2017-04-22 06:00","2017","04","22","06:00","3.4","","-0.5","","76","","35","","22","","16.1","","97.88","","","","","","NA"
"2017-04-22 07:00","2017","04","22","07:00","4.1","","0.0","","75","","36","","13","","16.1","","98.01","","","","","","NA"
"2017-04-22 08:00","2017","04","22","08:00","5.0","","0.2","","71","","36","","24","","16.1","","98.02","","","","","","NA"
"2017-04-22 09:00","2017","04","22","09:00","6.8","","0.5","","64","","35","","24","","16.1","","98.05","","","","","","NA"
"2017-04-22 10:00","2017","04","22","10:00","8.4","","0.6","","58","","1","","21","","16.1","","98.08","","","","","","NA"
"2017-04-22 11:00","2017","04","22","11:00","9.9","","1.4","","55","","35","","18","","16.1","","98.04","","","","","","NA"
"2017-04-22 12:00","2017","04","22","12:00","11.1","","1.8","","53","","34","","22","","16.1","","98.04","","","","","","NA"
"2017-04-22 13:00","2017","04","22","13:00","12.4","","-0.8","","40","","1","","28","","16.1","","98.02","","","","","","NA"
"2017-04-22 14:00","2017","04","22","14:00","13.5","","1.0","","42","","1","","15","","16.1","","98.02","","","","","","NA"
"2017-04-22 15:00","2017","04","22","15:00","13.9","","-0.6","","37","","36","","17","","16.1","","98.01","","","","","","NA"
"2017-04-22 16:00","2017","04","22","16:00","13.3","","-2.5","","33","","2","","17","","16.1","","97.99","","","","","","NA"
"2017-04-22 17:00","2017","04","22","17:00","14.0","","-1.5","","34","","36","","15","","16.1","","98.00","","","","","","NA"
"2017-04-22 18:00","2017","04","22","18:00","13.4","","-3.2","","31","","1","","13","","16.1","","97.97","","","","","","NA"
"2017-04-22 19:00","2017","04","22","19:00","11.2","","-2.3","","39","","34","","8","","16.1","","98.00","","","","","","NA"
"2017-04-22 20:00","2017","04","22","20:00","8.5","","1.3","","60","","32","","15","","16.1","","98.05","","","","","","NA"
"2017-04-22 21:00","2017","04","22","21:00","7.6","","2.5","","70","","34","","17","","16.1","","98.10","","","","","","NA"
"2017-04-22 22:00","2017","04","22","22:00","5.1","","1.6","","78","","31","","4","","16.1","","98.15","","","","","","NA"
"2017-04-22 23:00","2017","04","22","23:00","4.4","","1.6","","82","","31","","8","","16.1","","98.16","","","","","","NA"
"2017-04-23 00:00","2017","04","23","00:00","3.1","","0.5","","83","","30","","9","","16.1","","98.19","","","","","","NA"
"2017-04-23 01:00","2017","04","23","01:00","2.6","","0.5","","86","","28","","5","","16.1","","98.14","","","","","","NA"
"2017-04-23 02:00","2017","04","23","02:00","1.7","","0.7","","93","","31","","4","","16.1","","98.09","","","","","","NA"
"2017-04-23 03:00","2017","04","23","03:00","1.1","","0.4","","95","","","","0","","16.1","","98.04","","","","","","NA"
"2017-04-23 04:00","2017","04","23","04:00","-0.9","","-1.3","","97","","8","","5","","16.1","","98.03","","","","-3","","NA"
"2017-04-23 05:00","2017","04","23","05:00","0.1","","-0.2","","98","","35","","5","","16.1","","98.07","","","","","","NA"
"2017-04-23 06:00","2017","04","23","06:00","-0.2","","-0.6","","97","","32","","4","","16.1","","98.13","","","","-1","","NA"
"2017-04-23 07:00","2017","04","23","07:00","2.9","","1.1","","88","","","M","4","","16.1","","98.17","","","","","","NA"
"2017-04-23 08:00","2017","04","23","08:00","7.8","","3.2","","73","","","","0","","16.1","","98.16","","","","","","NA"
"2017-04-23 09:00","2017","04","23","09:00","12.4","","-0.2","","42","","24","","15","","16.1","","98.13","","","","","","NA"
"2017-04-23 10:00","2017","04","23","10:00","14.1","","-1.7","","33","","27","","18","","16.1","","98.13","","","","","","NA"
"2017-04-23 11:00","2017","04","23","11:00","15.9","","-0.5","","32","","24","","22","","16.1","","98.09","","","","","","NA"
"2017-04-23 12:00","2017","04","23","12:00","16.8","","-0.7","","30","","29","","13","","16.1","","98.03","","","","","","NA"
"2017-04-23 13:00","2017","04","23","13:00","17.8","","-1.4","","27","","26","","22","","16.1","","97.96","","","","","","NA"
"2017-04-23 14:00","2017","04","23","14:00","18.0","","-0.8","","28","","31","","26","","16.1","","97.89","","","","","","NA"
"2017-04-23 15:00","2017","04","23","15:00","18.3","","-1.4","","26","","28","","17","","16.1","","97.86","","","","","","NA"
"2017-04-23 16:00","2017","04","23","16:00","18.2","","-0.5","","28","","30","","17","","16.1","","97.86","","","","","","NA"
"2017-04-23 17:00","2017","04","23","17:00","17.9","","-2.0","","26","","28","","15","","16.1","","97.87","","","","","","NA"
"2017-04-23 18:00","2017","04","23","18:00","16.8","","-0.9","","30","","27","","13","","16.1","","97.91","","","","","","NA"
"2017-04-23 19:00","2017","04","23","19:00","14.9","","-2.5","","30","","26","","13","","16.1","","97.93","","","","","","NA"
"2017-04-23 20:00","2017","04","23","20:00","12.6","","-1.2","","38","","27","","5","","16.1","","97.97","","","","","","NA"
"2017-04-23 21:00","2017","04","23","21:00","8.7","","2.5","","65","","34","","5","","16.1","","97.99","","","","","","NA"
"2017-04-23 22:00","2017","04","23","22:00","8.7","","0.9","","58","","","","0","","16.1","","98.00","","","","","","NA"
"2017-04-23 23:00","2017","04","23","23:00","7.9","","2.3","","68","","7","","9","","16.1","","98.03","","","","","","NA"
"2017-04-24 00:00","2017","04","24","00:00","6.6","","2.4","","74","","2","","5","","16.1","","98.09","","","","","","NA"
"2017-04-24 01:00","2017","04","24","01:00","6.5","","2.4","","75","","3","","8","","16.1","","98.09","","","","","","NA"
"2017-04-24 02:00","2017","04","24","02:00","5.4","","1.2","","75","","3","","8","","16.1","","98.05","","","","","","NA"
"2017-04-24 03:00","2017","04","24","03:00","3.8","","1.7","","86","","","","0","","16.1","","98.10","","","","","","NA"
"2017-04-24 04:00","2017","04","24","04:00","4.8","","1.4","","79","","2","","5","","16.1","","98.15","","","","","","NA"
"2017-04-24 05:00","2017","04","24","05:00","4.5","","1.8","","83","","5","","9","","16.1","","98.15","","","","","","NA"
"2017-04-24 06:00","2017","04","24","06:00","5.6","","2.3","","80","","5","","13","","16.1","","98.22","","","","","","NA"
"2017-04-24 07:00","2017","04","24","07:00","7.1","","3.3","","77","","9","","24","","16.1","","98.26","","","","","","NA"
"2017-04-24 08:00","2017","04","24","08:00","8.4","","3.8","","73","","10","","24","","16.1","","98.29","","","","","","NA"
"2017-04-24 09:00","2017","04","24","09:00","10.0","","3.3","","63","","11","","24","","16.1","","98.25","","","","","","NA"
"2017-04-24 10:00","2017","04","24","10:00","10.7","","3.6","","61","","8","","24","","16.1","","98.26","","","","","","NA"
"2017-04-24 11:00","2017","04","24","11:00","11.4","","3.5","","58","","6","","22","","16.1","","98.25","","","","","","NA"
"2017-04-24 12:00","2017","04","24","12:00","12.2","","4.1","","58","","6","","21","","16.1","","98.22","","","","","","NA"
"2017-04-24 13:00","2017","04","24","13:00","13.5","","4.1","","53","","6","","22","","16.1","","98.16","","","","","","NA"
"2017-04-24 14:00","2017","04","24","14:00","13.2","","3.3","","51","","10","","18","","16.1","","98.11","","","","","","NA"
"2017-04-24 15:00","2017","04","24","15:00","13.6","","2.3","","46","","9","","22","","16.1","","98.05","","","","","","NA"
"2017-04-24 16:00","2017","04","24","16:00","13.7","","3.5","","50","","7","","24","","16.1","","97.99","","","","","","NA"
"2017-04-24 17:00","2017","04","24","17:00","12.5","","2.8","","51","","8","","22","","16.1","","97.95","","","","","","NA"
"2017-04-24 18:00","2017","04","24","18:00","11.0","","1.5","","52","","8","","24","","16.1","","97.91","","","","","","NA"
"2017-04-24 19:00","2017","04","24","19:00","8.8","","0.2","","55","","9","","21","","16.1","","97.91","","","","","","NA"
"2017-04-24 20:00","2017","04","24","20:00","7.5","","0.0","","59","","8","","17","","16.1","","97.90","","","","","","NA"
"2017-04-24 21:00","2017","04","24","21:00","7.3","","0.3","","61","","9","","17","","16.1","","97.93","","","","","","NA"
"2017-04-24 22:00","2017","04","24","22:00","7.7","","0.7","","61","","9","","32","","16.1","","97.88","","","","","","NA"
"2017-04-24 23:00","2017","04","24","23:00","8.0","","0.8","","60","","9","","24","","16.1","","97.88","","","","","","NA"
"2017-04-25 00:00","2017","04","25","00:00","7.2","","1.1","","65","","9","","30","","16.1","","97.85","","","","","","NA"
"2017-04-25 01:00","2017","04","25","01:00","6.6","","0.7","","66","","9","","32","","16.1","","97.81","","","","","","NA"
"2017-04-25 02:00","2017","04","25","02:00","5.9","","0.7","","69","","10","","22","","16.1","","97.77","","","","","","NA"
"2017-04-25 03:00","2017","04","25","03:00","5.2","","0.7","","73","","8","","22","","16.1","","97.71","","","","","","NA"
"2017-04-25 04:00","2017","04","25","04:00","5.8","","0.9","","71","","9","","18","","16.1","","97.71","","","","","","NA"
"2017-04-25 05:00","2017","04","25","05:00","6.3","","0.7","","67","","8","","22","","16.1","","97.69","","","","","","NA"
"2017-04-25 06:00","2017","04","25","06:00","5.8","","2.2","","77","","8","","21","","16.1","","97.71","","","","","","Rain"
"2017-04-25 07:00","2017","04","25","07:00","5.0","","4.0","","93","","8","","15","","4.0","","97.76","","","","","","Rain,Fog"
"2017-04-25 08:00","2017","04","25","08:00","5.6","","4.7","","94","","8","","15","","8.1","","97.74","","","","","","Rain,Fog"
"2017-04-25 09:00","2017","04","25","09:00","7.6","","7.0","","96","","9","","21","","11.3","","97.71","","","","","","Rain"
"2017-04-25 10:00","2017","04","25","10:00","8.6","","7.6","","93","","10","","21","","16.1","","97.69","","","","","","NA"
"2017-04-25 11:00","2017","04","25","11:00","8.9","","7.8","","93","","10","","21","","16.1","","97.66","","","","","","Rain"
"2017-04-25 12:00","2017","04","25","12:00","9.9","","8.6","","92","","9","","21","","16.1","","97.60","","","","","","NA"
"2017-04-25 13:00","2017","04","25","13:00","9.4","","8.3","","93","","8","","24","","16.1","","97.52","","","","","","NA"
"2017-04-25 14:00","2017","04","25","14:00","9.8","","8.4","","91","","9","","21","","14.5","","97.51","","","","","","NA"
"2017-04-25 15:00","2017","04","25","15:00","10.5","","8.7","","88","","9","","15","","16.1","","97.44","","","","","","NA"
"2017-04-25 16:00","2017","04","25","16:00","9.9","","8.4","","90","","10","","21","","12.9","","97.42","","","","","","NA"
"2017-04-25 17:00","2017","04","25","17:00","9.4","","8.4","","94","","9","","24","","9.7","","97.40","","","","","","Fog"
"2017-04-25 18:00","2017","04","25","18:00","9.2","","8.5","","95","","9","","18","","6.4","","97.34","","","","","","Fog"
"2017-04-25 19:00","2017","04","25","19:00","8.9","","8.5","","97","","8","","21","","1.6","","97.30","","","","","","Fog"
"2017-04-25 20:00","2017","04","25","20:00","9.0","","8.7","","98","","8","","17","","1.2","","97.29","","","","","","Fog"
"2017-04-25 21:00","2017","04","25","21:00","9.3","","8.7","","96","","8","","17","","4.8","","97.27","","","","","","Fog"
"2017-04-25 22:00","2017","04","25","22:00","9.1","","8.4","","95","","7","","15","","4.8","","97.24","","","","","","Fog"
"2017-04-25 23:00","2017","04","25","23:00","8.8","","8.2","","96","","8","","13","","4.8","","97.20","","","","","","Fog"
"2017-04-26 00:00","2017","04","26","00:00","8.4","","7.7","","95","","7","","11","","8.1","","97.20","","","","","","Fog"
"2017-04-26 01:00","2017","04","26","01:00","8.6","","8.0","","96","","7","","5","","8.1","","97.17","","","","","","Fog"
"2017-04-26 02:00","2017","04","26","02:00","9.2","","8.5","","95","","8","","8","","9.7","","97.14","","","","","","Fog"
"2017-04-26 03:00","2017","04","26","03:00","9.3","","8.6","","95","","7","","9","","11.3","","97.11","","","","","","NA"
"2017-04-26 04:00","2017","04","26","04:00","9.1","","8.4","","95","","5","","8","","8.1","","97.08","","","","","","Fog"
"2017-04-26 05:00","2017","04","26","05:00","8.1","","7.7","","97","","6","","8","","3.6","","97.08","","","","","","Fog"
"2017-04-26 06:00","2017","04","26","06:00","8.9","","8.6","","98","","9","","9","","0.4","","97.08","","","","","","Fog"
"2017-04-26 07:00","2017","04","26","07:00","9.4","","9.1","","98","","8","","11","","0.4","","97.09","","","","","","Fog"
"2017-04-26 08:00","2017","04","26","08:00","10.2","","9.9","","98","","10","","13","","4.0","","97.11","","","","","","Fog"
"2017-04-26 09:00","2017","04","26","09:00","11.2","","10.3","","94","","12","","5","","9.7","","97.15","","","","","","Fog"
"2017-04-26 10:00","2017","04","26","10:00","13.0","","10.6","","85","","9","","15","","12.9","","97.12","","","","","","NA"
"2017-04-26 11:00","2017","04","26","11:00","15.1","","11.6","","80","","12","","13","","16.1","","97.06","","","","","","NA"
"2017-04-26 12:00","2017","04","26","12:00","16.7","","11.9","","73","","13","","15","","16.1","","96.97","","","","","","NA"
"2017-04-26 13:00","2017","04","26","13:00","17.4","","12.1","","71","","12","","22","","16.1","","96.87","","","","","","NA"
"2017-04-26 14:00","2017","04","26","14:00","18.0","","12.0","","68","","11","","24","","16.1","","96.86","","","","","","NA"
"2017-04-26 15:00","2017","04","26","15:00","18.0","","12.7","","71","","13","","22","","16.1","","96.75","","","","","","NA"
"2017-04-26 16:00","2017","04","26","16:00","18.7","","12.5","","67","","12","","24","","16.1","","96.64","","","","","","NA"
"2017-04-26 17:00","2017","04","26","17:00","18.0","","12.2","","68","","13","","26","","16.1","","96.65","","","","","","NA"
"2017-04-26 18:00","2017","04","26","18:00","16.0","","11.7","","75","","10","","17","","16.1","","96.72","","","","","","NA"
"2017-04-26 19:00","2017","04","26","19:00","13.4","","10.6","","83","","9","","18","","16.1","","96.74","","","","","","NA"
"2017-04-26 20:00","2017","04","26","20:00","11.1","","9.9","","92","","10","","11","","16.1","","96.77","","","","","","NA"
"2017-04-26 21:00","2017","04","26","21:00","10.5","","9.7","","95","","9","","11","","16.1","","96.81","","","","","","NA"
"2017-04-26 22:00","2017","04","26","22:00","11.1","","10.0","","93","","10","","9","","16.1","","96.77","","","","","","NA"
"2017-04-26 23:00","2017","04","26","23:00","11.1","","10.0","","93","","12","","8","","16.1","","96.74","","","","","","NA"
"2017-04-27 00:00","2017","04","27","00:00","10.7","","9.8","","94","","10","","8","","16.1","","96.72","","","","","","NA"
"2017-04-27 01:00","2017","04","27","01:00","10.6","","10.0","","96","","","","0","","16.1","","96.69","","","","","","NA"
"2017-04-27 02:00","2017","04","27","02:00","9.1","","8.7","","97","","8","","5","","4.8","","96.63","","","","","","Fog"
"2017-04-27 03:00","2017","04","27","03:00","9.1","","8.8","","98","","9","","4","","0.8","","96.62","","","","","","Fog"
"2017-04-27 04:00","2017","04","27","04:00","8.6","","8.3","","98","","7","","5","","0.8","","96.61","","","","","","Fog"
"2017-04-27 05:00","2017","04","27","05:00","7.7","","7.4","","98","","9","","8","","1.2","","96.58","","","","","","Fog"
"2017-04-27 06:00","2017","04","27","06:00","11.1","","10.8","","98","","11","","9","","16.1","","96.59","","","","","","NA"
"2017-04-27 07:00","2017","04","27","07:00","14.1","","12.3","","89","","14","","15","","16.1","","96.62","","","","","","NA"
"2017-04-27 08:00","2017","04","27","08:00","16.3","","12.8","","80","","15","","17","","16.1","","96.64","","","","","","NA"
"2017-04-27 09:00","2017","04","27","09:00","18.6","","13.1","","70","","14","","18","","16.1","","96.58","","","","","","NA"
"2017-04-27 10:00","2017","04","27","10:00","21.2","","13.8","","62","","14","","18","","16.1","","96.51","","","","","","NA"
"2017-04-27 11:00","2017","04","27","11:00","23.5","","15.3","","60","","14","","21","","16.1","","96.46","","28","","","","NA"
"2017-04-27 12:00","2017","04","27","12:00","25.3","","14.4","","50","","19","","24","","16.1","","96.43","","29","","","","NA"
"2017-04-27 13:00","2017","04","27","13:00","25.9","","13.5","","46","","19","","24","","16.1","","96.40","","29","","","","NA"
"2017-04-27 14:00","2017","04","27","14:00","26.1","","13.7","","46","","18","","28","","16.1","","96.28","","29","","","","NA"
"2017-04-27 15:00","2017","04","27","15:00","26.2","","13.0","","43","","15","","35","","16.1","","96.13","","29","","","","NA"
"2017-04-27 16:00","2017","04","27","16:00","17.8","","15.1","","84","","23","","34","","16.1","","96.36","","","","","","Rain"
"2017-04-27 17:00","2017","04","27","17:00","16.4","","13.9","","85","","25","","26","","16.1","","96.39","","","","","","Rain"
"2017-04-27 18:00","2017","04","27","18:00","16.9","","13.9","","82","","24","","24","","16.1","","96.41","","","","","","NA"
"2017-04-27 19:00","2017","04","27","19:00","16.6","","14.1","","85","","18","","15","","16.1","","96.49","","","","","","NA"
"2017-04-27 20:00","2017","04","27","20:00","16.1","","13.3","","83","","22","","18","","16.1","","96.57","","","","","","NA"
"2017-04-27 21:00","2017","04","27","21:00","15.6","","10.1","","70","","23","","22","","16.1","","96.70","","","","","","NA"
"2017-04-27 22:00","2017","04","27","22:00","14.0","","8.1","","68","","27","","28","","16.1","","96.81","","","","","","NA"
"2017-04-27 23:00","2017","04","27","23:00","12.0","","7.1","","72","","29","","24","","16.1","","96.96","","","","","","NA"
"2017-04-28 00:00","2017","04","28","00:00","10.7","","6.7","","76","","28","","18","","16.1","","97.11","","","","","","NA"
"2017-04-28 01:00","2017","04","28","01:00","9.8","","5.9","","76","","28","","21","","16.1","","97.23","","","","","","NA"
"2017-04-28 02:00","2017","04","28","02:00","8.7","","4.5","","75","","28","","17","","16.1","","97.25","","","","","","NA"
"2017-04-28 03:00","2017","04","28","03:00","8.9","","4.5","","74","","26","","18","","16.1","","97.37","","","","","","NA"
"2017-04-28 04:00","2017","04","28","04:00","8.4","","4.2","","75","","27","","15","","16.1","","97.38","","","","","","NA"
"2017-04-28 05:00","2017","04","28","05:00","6.8","","4.0","","82","","22","","9","","16.1","","97.44","","","","","","NA"
"2017-04-28 06:00","2017","04","28","06:00","7.4","","4.1","","80","","21","","13","","16.1","","97.58","","","","","","NA"
"2017-04-28 07:00","2017","04","28","07:00","8.6","","4.0","","73","","19","","15","","16.1","","97.63","","","","","","NA"
"2017-04-28 08:00","2017","04","28","08:00","10.7","","4.4","","65","","21","","18","","16.1","","97.67","","","","","","NA"
"2017-04-28 09:00","2017","04","28","09:00","11.0","","4.2","","63","","23","","28","","16.1","","97.71","","","","","","NA"
"2017-04-28 10:00","2017","04","28","10:00","12.2","","4.9","","61","","25","","28","","16.1","","97.72","","","","","","NA"
"2017-04-28 11:00","2017","04","28","11:00","13.5","","5.3","","57","","22","","22","","16.1","","97.75","","","","","","NA"
"2017-04-28 12:00","2017","04","28","12:00","14.4","","6.7","","60","","23","","21","","16.1","","97.72","","","","","","NA"
"2017-04-28 13:00","2017","04","28","13:00","15.7","","5.7","","51","","24","","26","","16.1","","97.68","","","","","","NA"
"2017-04-28 14:00","2017","04","28","14:00","16.0","","7.3","","56","","21","","22","","16.1","","97.71","","","","","","NA"
"2017-04-28 15:00","2017","04","28","15:00","16.1","","6.3","","52","","21","","26","","16.1","","97.77","","","","","","NA"
"2017-04-28 16:00","2017","04","28","16:00","15.5","","3.1","","43","","22","","32","","16.1","","97.77","","","","","","NA"
"2017-04-28 17:00","2017","04","28","17:00","15.2","","3.1","","44","","22","","22","","16.1","","97.78","","","","","","NA"
"2017-04-28 18:00","2017","04","28","18:00","14.6","","4.1","","49","","22","","24","","16.1","","97.73","","","","","","NA"
"2017-04-28 19:00","2017","04","28","19:00","13.9","","4.9","","54","","21","","17","","16.1","","97.67","","","","","","NA"
"2017-04-28 20:00","2017","04","28","20:00","13.5","","6.0","","60","","19","","13","","16.1","","97.67","","","","","","NA"
"2017-04-28 21:00","2017","04","28","21:00","12.6","","6.2","","65","","22","","13","","16.1","","97.61","","","","","","NA"
"2017-04-28 22:00","2017","04","28","22:00","12.8","","6.5","","65","","21","","18","","16.1","","97.69","","","","","","NA"
"2017-04-28 23:00","2017","04","28","23:00","12.3","","6.6","","68","","24","","17","","16.1","","97.69","","","","","","NA"
"2017-04-29 00:00","2017","04","29","00:00","12.0","","6.7","","70","","24","","17","","16.1","","97.70","","","","","","NA"
"2017-04-29 01:00","2017","04","29","01:00","12.0","","6.9","","71","","24","","17","","16.1","","97.64","","","","","","NA"
"2017-04-29 02:00","2017","04","29","02:00","11.2","","7.0","","75","","28","","17","","16.1","","97.67","","","","","","NA"
"2017-04-29 03:00","2017","04","29","03:00","10.5","","7.2","","80","","27","","13","","16.1","","97.73","","","","","","NA"
"2017-04-29 04:00","2017","04","29","04:00","9.4","","6.9","","84","","33","","21","","16.1","","97.69","","","","","","NA"
"2017-04-29 05:00","2017","04","29","05:00","7.4","","4.1","","80","","33","","21","","16.1","","97.80","","","","","","NA"
"2017-04-29 06:00","2017","04","29","06:00","6.7","","3.2","","78","","34","","21","","16.1","","97.91","","","","","","NA"
"2017-04-29 07:00","2017","04","29","07:00","7.0","","2.8","","74","","35","","13","","16.1","","98.00","","","","","","NA"
"2017-04-29 08:00","2017","04","29","08:00","7.4","","1.8","","68","","33","","21","","16.1","","98.12","","","","","","NA"
"2017-04-29 09:00","2017","04","29","09:00","8.1","","2.2","","66","","33","","18","","16.1","","98.18","","","","","","NA"
"2017-04-29 10:00","2017","04","29","10:00","8.1","","1.6","","63","","32","","21","","16.1","","98.19","","","","","","NA"
"2017-04-29 11:00","2017","04","29","11:00","9.0","","2.2","","62","","32","","26","","16.1","","98.21","","","","","","NA"
"2017-04-29 12:00","2017","04","29","12:00","9.9","","1.4","","56","","33","","18","","16.1","","98.22","","","","","","NA"
"2017-04-29 13:00","2017","04","29","13:00","11.1","","2.3","","54","","29","","24","","16.1","","98.33","","","","","","NA"
"2017-04-29 14:00","2017","04","29","14:00","11.1","","2.0","","53","","29","","21","","16.1","","98.37","","","","","","NA"
"2017-04-29 15:00","2017","04","29","15:00","11.0","","2.5","","56","","33","","21","","16.1","","98.36","","","","","","NA"
"2017-04-29 16:00","2017","04","29","16:00","10.7","","2.5","","57","","32","","17","","16.1","","98.33","","","","","","NA"
"2017-04-29 17:00","2017","04","29","17:00","10.2","","1.7","","56","","33","","21","","16.1","","98.35","","","","","","NA"
"2017-04-29 18:00","2017","04","29","18:00","9.9","","2.7","","61","","33","","9","","16.1","","98.39","","","","","","NA"
"2017-04-29 19:00","2017","04","29","19:00","9.2","","3.1","","66","","31","","8","","16.1","","98.43","","","","","","NA"
"2017-04-29 20:00","2017","04","29","20:00","8.2","","3.1","","70","","35","","11","","16.1","","98.57","","","","","","NA"
"2017-04-29 21:00","2017","04","29","21:00","7.2","","0.3","","61","","36","","13","","16.1","","98.62","","","","","","NA"
"2017-04-29 22:00","2017","04","29","22:00","6.9","","-1.1","","57","","1","","13","","16.1","","98.61","","","","","","NA"
"2017-04-29 23:00","2017","04","29","23:00","6.5","","-1.1","","58","","3","","5","","16.1","","98.57","","","","","","NA"
"2017-04-30 00:00","2017","04","30","00:00","6.6","","-0.7","","59","","4","","11","","16.1","","98.54","","","","","","NA"
"2017-04-30 01:00","2017","04","30","01:00","7.1","","-0.7","","58","","5","","21","","16.1","","98.40","","","","","","NA"
"2017-04-30 02:00","2017","04","30","02:00","6.8","","-1.2","","57","","6","","21","","16.1","","98.35","","","","","","NA"
"2017-04-30 03:00","2017","04","30","03:00","5.9","","0.3","","67","","7","","28","","16.1","","98.33","","","","","","Rain"
"2017-04-30 04:00","2017","04","30","04:00","6.2","","-1.0","","60","","9","","41","","16.1","","98.25","","","","","","NA"
"2017-04-30 05:00","2017","04","30","05:00","3.5","","0.9","","83","","9","","35","","16.1","","98.38","","","","","","Rain"
"2017-04-30 06:00","2017","04","30","06:00","2.9","","0.2","","82","","8","","34","","16.1","","98.38","","","","","","NA"
"2017-04-30 07:00","2017","04","30","07:00","2.9","","-0.3","","80","","9","","34","","16.1","","98.29","","","","","","NA"
"2017-04-30 08:00","2017","04","30","08:00","3.5","","-0.9","","73","","9","","43","","16.1","","98.29","","","","","","NA"
"2017-04-30 09:00","2017","04","30","09:00","4.0","","0.1","","76","","8","","37","","16.1","","98.21","","","","","","NA"
"2017-04-30 10:00","2017","04","30","10:00","3.8","","0.0","","76","","8","","35","","16.1","","98.17","","","","","","NA"
"2017-04-30 11:00","2017","04","30","11:00","4.2","","0.3","","76","","9","","43","","16.1","","98.07","","","","","","NA"
"2017-04-30 12:00","2017","04","30","12:00","5.1","","1.3","","76","","8","","30","","16.1","","98.00","","","","","","NA"
"2017-04-30 13:00","2017","04","30","13:00","4.8","","1.0","","76","","10","","37","","16.1","","97.92","","","","","","NA"
"2017-04-30 14:00","2017","04","30","14:00","5.4","","1.6","","76","","9","","24","","16.1","","97.82","","","","","","NA"
"2017-04-30 15:00","2017","04","30","15:00","5.5","","1.9","","77","","9","","24","","16.1","","97.74","","","","","","NA"
"2017-04-30 16:00","2017","04","30","16:00","4.8","","2.3","","84","","8","","18","","16.1","","97.69","","","","","","Thunderstorms,Rain"
"2017-04-30 17:00","2017","04","30","17:00","4.4","","2.7","","89","","8","","24","","16.1","","97.65","","","","","","NA"
"2017-04-30 18:00","2017","04","30","18:00","4.5","","2.9","","89","","8","","21","","16.1","","97.62","","","","","","NA"
"2017-04-30 19:00","2017","04","30","19:00","4.7","","3.1","","89","","9","","18","","16.1","","97.56","","","","","","NA"
"2017-04-30 20:00","2017","04","30","20:00","5.3","","4.1","","92","","10","","21","","3.2","","97.51","","","","","","Moderate Rain,Fog"
"2017-04-30 21:00","2017","04","30","21:00","5.3","","4.3","","93","","10","","15","","14.5","","97.53","","","","","","Rain"
"2017-04-30 22:00","2017","04","30","22:00","5.2","","4.3","","94","","11","","17","","16.1","","97.50","","","","","","Rain"
"2017-04-30 23:00","2017","04","30","23:00","4.8","","4.1","","95","","7","","15","","16.1","","97.31","","","","","","Rain"
