"Station Name","KITCHENER/WATERLOO"
"Province","ONTARIO"
"Current Station Operator","NAV Canada"
"Latitude","43.46"
"Longitude","-80.38"
"Elevation","321.60"
"Climate Identifier","6144239"
"WMO Identifier","71368"
"TC Identifier","YKF"
"All times are specified in Local Standard Time (LST). Add 1 hour to adjust for Daylight Saving Time where and when it is observed."

"Legend"
"E","Estimated"
"M","Missing"
"NA","Not Available"

"Date/Time","Year","Month","Day","Time","Temp (°C)","Temp Flag","Dew Point Temp (°C)","Dew Point Temp Flag","Rel Hum (%)","Rel Hum Flag","Wind Dir (10s deg)","Wind Dir Flag","Wind Spd (km/h)","Wind Spd Flag","Visibility (km)","Visibility Flag","Stn Press (kPa)","Stn Press Flag","Hmdx","Hmdx Flag","Wind Chill","Wind Chill Flag","Weather"
"2018-09-01 00:00","2018","09","01","00:00","13.9","","13.9","","100","","","","0","","4.0","","98.42","","","","","","Fog"
"2018-09-01 01:00","2018","09","01","01:00","12.3","","12.2","","99","","36","","8","","0.8","","98.37","","","","","","Fog"
"2018-09-01 02:00","2018","09","01","02:00","10.8","","10.7","","99","","","","0","","0.4","","98.35","","","","","","Fog"
"2018-09-01 03:00","2018","09","01","03:00","10.6","","10.6","","100","","","M","4","","0.4","","98.35","","","","","","Fog"
"2018-09-01 04:00","2018","09","01","04:00","11.0","","11.0","","100","","6","","4","","0.4","","98.30","","","","","","Fog"
"2018-09-01 05:00","2018","09","01","05:00","11.9","","11.9","","100","","","","0","","0.2","","98.30","","","","","","Fog"
"2018-09-01 06:00","2018","09","01","06:00","12.3","","12.3","","100","","","M","4","","0.4","","98.34","","","","","","Fog"
"2018-09-01 07:00","2018","09","01","07:00","14.0","","14.0","","100","","13","","4","","0.2","","98.31","","","","","","Fog"
"2018-09-01 08:00","2018","09","01","08:00","17.1","","17.1","","100","","14","","8","","0.4","","98.35","","","","","","Fog"
"2018-09-01 09:00","2018","09","01","09:00","18.7","","18.7","","100","","","M","4","","0.4","","98.44","","","","","","Fog"
"2018-09-01 10:00","2018","09","01","10:00","21.1","","20.2","","95","","21","","15","","12.9","","98.40","","29","","","","NA"
"2018-09-01 11:00","2018","09","01","11:00","23.9","","20.5","","81","","17","","11","","16.1","","98.37","","32","","","","NA"
"2018-09-01 12:00","2018","09","01","12:00","26.4","","20.8","","71","","17","","18","","16.1","","98.31","","35","","","","NA"
"2018-09-01 13:00","2018","09","01","13:00","27.5","","20.3","","64","","18","","22","","16.1","","98.24","","35","","","","NA"
"2018-09-01 14:00","2018","09","01","14:00","28.9","","20.7","","61","","19","","17","","11.3","","98.19","","37","","","","NA"
"2018-09-01 15:00","2018","09","01","15:00","29.3","","20.8","","60","","18","","18","","14.5","","98.11","","38","","","","NA"
"2018-09-01 16:00","2018","09","01","16:00","28.2","","20.6","","63","","20","","21","","16.1","","98.06","","36","","","","NA"
"2018-09-01 17:00","2018","09","01","17:00","26.9","","20.1","","66","","18","","22","","16.1","","98.05","","35","","","","NA"
"2018-09-01 18:00","2018","09","01","18:00","26.0","","19.5","","67","","20","","17","","16.1","","98.10","","33","","","","NA"
"2018-09-01 19:00","2018","09","01","19:00","24.4","","19.8","","75","","20","","9","","16.1","","98.04","","32","","","","NA"
"2018-09-01 20:00","2018","09","01","20:00","23.2","","20.0","","82","","15","","9","","16.1","","98.05","","31","","","","NA"
"2018-09-01 21:00","2018","09","01","21:00","23.5","","20.2","","82","","16","","13","","16.1","","98.12","","31","","","","NA"
"2018-09-01 22:00","2018","09","01","22:00","22.7","","20.3","","86","","19","","9","","16.1","","98.12","","31","","","","NA"
"2018-09-01 23:00","2018","09","01","23:00","22.1","","20.3","","89","","18","","8","","16.1","","98.11","","30","","","","NA"
"2018-09-02 00:00","2018","09","02","00:00","22.3","","20.5","","89","","17","","15","","16.1","","98.10","","30","","","","NA"
"2018-09-02 01:00","2018","09","02","01:00","22.0","","20.7","","92","","18","","13","","16.1","","98.07","","30","","","","NA"
"2018-09-02 02:00","2018","09","02","02:00","21.8","","20.6","","93","","21","","9","","16.1","","98.06","","30","","","","NA"
"2018-09-02 03:00","2018","09","02","03:00","21.6","","20.6","","94","","21","","13","","16.1","","98.06","","30","","","","NA"
"2018-09-02 04:00","2018","09","02","04:00","21.7","","20.7","","94","","20","","13","","16.1","","98.07","","30","","","","NA"
"2018-09-02 05:00","2018","09","02","05:00","22.1","","20.9","","93","","21","","13","","16.1","","98.13","","30","","","","NA"
"2018-09-02 06:00","2018","09","02","06:00","22.4","","21.2","","93","","22","","13","","16.1","","98.17","","31","","","","NA"
"2018-09-02 07:00","2018","09","02","07:00","22.6","","21.3","","92","","22","","17","","16.1","","98.25","","31","","","","NA"
"2018-09-02 08:00","2018","09","02","08:00","23.3","","21.4","","89","","24","","15","","16.1","","98.27","","32","","","","NA"
"2018-09-02 09:00","2018","09","02","09:00","23.9","","21.2","","85","","22","","15","","16.1","","98.23","","32","","","","NA"
"2018-09-02 10:00","2018","09","02","10:00","23.4","","21.7","","90","","23","","17","","9.7","","98.28","","32","","","","Rain,Fog"
"2018-09-02 11:00","2018","09","02","11:00","24.8","","21.7","","82","","24","","21","","16.1","","98.27","","34","","","","NA"
"2018-09-02 12:00","2018","09","02","12:00","25.9","","22.3","","80","","18","","15","","16.1","","98.22","","36","","","","NA"
"2018-09-02 13:00","2018","09","02","13:00","27.9","","22.4","","71","","21","","21","","16.1","","98.21","","38","","","","NA"
"2018-09-02 14:00","2018","09","02","14:00","28.8","","22.1","","67","","20","","18","","16.1","","98.18","","38","","","","NA"
"2018-09-02 15:00","2018","09","02","15:00","28.7","","21.8","","66","","21","","21","","16.1","","98.17","","38","","","","NA"
"2018-09-02 16:00","2018","09","02","16:00","28.7","","22.0","","66","","22","","17","","16.1","","98.16","","38","","","","NA"
"2018-09-02 17:00","2018","09","02","17:00","28.1","","21.3","","66","","22","","21","","16.1","","98.14","","37","","","","NA"
"2018-09-02 18:00","2018","09","02","18:00","27.1","","21.9","","73","","22","","15","","16.1","","98.14","","36","","","","NA"
"2018-09-02 19:00","2018","09","02","19:00","25.6","","22.2","","81","","20","","11","","16.1","","98.14","","35","","","","NA"
"2018-09-02 20:00","2018","09","02","20:00","24.2","","21.9","","87","","19","","8","","16.1","","98.20","","33","","","","NA"
"2018-09-02 21:00","2018","09","02","21:00","24.0","","21.9","","88","","20","","9","","16.1","","98.25","","33","","","","NA"
"2018-09-02 22:00","2018","09","02","22:00","23.9","","21.7","","88","","20","","11","","16.1","","98.27","","33","","","","NA"
"2018-09-02 23:00","2018","09","02","23:00","23.6","","21.4","","87","","20","","13","","16.1","","98.26","","32","","","","NA"
"2018-09-03 00:00","2018","09","03","00:00","23.3","","21.1","","87","","21","","15","","16.1","","98.28","","32","","","","NA"
"2018-09-03 01:00","2018","09","03","01:00","22.6","","21.1","","91","","20","","13","","16.1","","98.30","","31","","","","NA"
"2018-09-03 02:00","2018","09","03","02:00","22.1","","20.9","","93","","19","","13","","16.1","","98.26","","30","","","","NA"
"2018-09-03 03:00","2018","09","03","03:00","22.1","","20.9","","93","","20","","15","","16.1","","98.26","","30","","","","NA"
"2018-09-03 04:00","2018","09","03","04:00","22.5","","21.2","","92","","23","","11","","16.1","","98.30","","31","","","","NA"
"2018-09-03 05:00","2018","09","03","05:00","22.1","","20.8","","92","","22","","9","","16.1","","98.32","","30","","","","NA"
"2018-09-03 06:00","2018","09","03","06:00","22.5","","21.0","","91","","24","","15","","16.1","","98.37","","31","","","","NA"
"2018-09-03 07:00","2018","09","03","07:00","23.3","","21.3","","89","","23","","13","","16.1","","98.43","","32","","","","NA"
"2018-09-03 08:00","2018","09","03","08:00","24.3","","21.7","","85","","22","","13","","16.1","","98.45","","33","","","","NA"
"2018-09-03 09:00","2018","09","03","09:00","27.2","","22.3","","74","","24","","21","","16.1","","98.48","","37","","","","NA"
"2018-09-03 10:00","2018","09","03","10:00","28.4","","22.1","","68","","24","","24","","16.1","","98.48","","38","","","","NA"
"2018-09-03 11:00","2018","09","03","11:00","28.2","","22.1","","69","","26","","24","","16.1","","98.50","","38","","","","NA"
"2018-09-03 12:00","2018","09","03","12:00","26.7","","21.6","","73","","30","","13","","16.1","","98.45","","36","","","","NA"
"2018-09-03 13:00","2018","09","03","13:00","26.4","","21.1","","72","","28","","18","","16.1","","98.47","","35","","","","NA"
"2018-09-03 14:00","2018","09","03","14:00","29.2","","20.3","","58","","31","","18","","16.1","","98.45","","37","","","","NA"
"2018-09-03 15:00","2018","09","03","15:00","28.6","","20.1","","60","","29","","21","","16.1","","98.47","","36","","","","NA"
"2018-09-03 16:00","2018","09","03","16:00","27.4","","20.8","","67","","28","","17","","16.1","","98.52","","36","","","","NA"
"2018-09-03 17:00","2018","09","03","17:00","27.7","","20.3","","64","","28","","17","","16.1","","98.50","","36","","","","NA"
"2018-09-03 18:00","2018","09","03","18:00","25.7","","21.0","","75","","31","","17","","16.1","","98.51","","34","","","","NA"
"2018-09-03 19:00","2018","09","03","19:00","23.5","","20.5","","83","","32","","9","","16.1","","98.56","","31","","","","NA"
"2018-09-03 20:00","2018","09","03","20:00","22.1","","19.8","","87","","29","","5","","16.1","","98.64","","30","","","","NA"
"2018-09-03 21:00","2018","09","03","21:00","20.5","","19.9","","96","","33","","5","","16.1","","98.71","","28","","","","NA"
"2018-09-03 22:00","2018","09","03","22:00","20.2","","19.6","","96","","","","0","","16.1","","98.72","","27","","","","NA"
"2018-09-03 23:00","2018","09","03","23:00","18.7","","18.4","","98","","33","","5","","16.1","","98.75","","","","","","NA"
"2018-09-04 00:00","2018","09","04","00:00","18.2","","18.0","","99","","","","0","","8.1","","98.74","","","","","","Fog"
"2018-09-04 01:00","2018","09","04","01:00","18.9","","18.7","","99","","34","","8","","9.7","","98.74","","","","","","Fog"
"2018-09-04 02:00","2018","09","04","02:00","17.9","","17.7","","99","","","","0","","4.8","","98.72","","","","","","Fog"
"2018-09-04 03:00","2018","09","04","03:00","17.5","","17.3","","99","","","","0","","4.8","","98.73","","","","","","Fog"
"2018-09-04 04:00","2018","09","04","04:00","17.9","","17.7","","99","","","","0","","0.8","","98.72","","","","","","Fog"
"2018-09-04 05:00","2018","09","04","05:00","17.2","","17.2","","100","","","","0","","0.6","","98.76","","","","","","Fog"
"2018-09-04 06:00","2018","09","04","06:00","17.0","","16.8","","99","","8","","4","","11.3","","98.77","","","","","","NA"
"2018-09-04 07:00","2018","09","04","07:00","19.4","","18.8","","96","","","M","4","","16.1","","98.79","","","","","","NA"
"2018-09-04 08:00","2018","09","04","08:00","22.3","","19.3","","83","","9","","9","","16.1","","98.80","","29","","","","NA"
"2018-09-04 09:00","2018","09","04","09:00","23.3","","19.5","","79","","12","","9","","16.1","","98.83","","30","","","","NA"
"2018-09-04 10:00","2018","09","04","10:00","23.5","","20.3","","82","","16","","11","","16.1","","98.86","","31","","","","NA"
"2018-09-04 11:00","2018","09","04","11:00","24.1","","20.6","","80","","14","","13","","16.1","","98.80","","32","","","","NA"
"2018-09-04 12:00","2018","09","04","12:00","24.9","","21.1","","79","","17","","13","","16.1","","98.75","","33","","","","NA"
"2018-09-04 13:00","2018","09","04","13:00","26.8","","21.6","","73","","15","","9","","14.5","","98.71","","36","","","","NA"
"2018-09-04 14:00","2018","09","04","14:00","28.2","","21.6","","67","","19","","5","","14.5","","98.61","","37","","","","NA"
"2018-09-04 15:00","2018","09","04","15:00","29.3","","22.3","","65","","21","","17","","16.1","","98.55","","39","","","","NA"
"2018-09-04 16:00","2018","09","04","16:00","28.5","","22.7","","70","","19","","13","","16.1","","98.52","","38","","","","NA"
"2018-09-04 17:00","2018","09","04","17:00","28.1","","22.9","","73","","19","","11","","16.1","","98.48","","38","","","","NA"
"2018-09-04 18:00","2018","09","04","18:00","28.0","","22.8","","73","","20","","11","","16.1","","98.45","","38","","","","NA"
"2018-09-04 19:00","2018","09","04","19:00","26.1","","22.3","","79","","19","","9","","16.1","","98.45","","36","","","","NA"
"2018-09-04 20:00","2018","09","04","20:00","23.2","","21.3","","89","","18","","9","","16.1","","98.51","","32","","","","NA"
"2018-09-04 21:00","2018","09","04","21:00","22.7","","21.4","","92","","15","","8","","16.1","","98.51","","31","","","","NA"
"2018-09-04 22:00","2018","09","04","22:00","22.0","","21.7","","98","","11","","5","","8.1","","98.52","","31","","","","Fog"
"2018-09-04 23:00","2018","09","04","23:00","21.4","","21.1","","98","","13","","5","","4.8","","98.50","","30","","","","Fog"
"2018-09-05 00:00","2018","09","05","00:00","20.1","","19.6","","97","","17","","8","","8.1","","98.46","","27","","","","Fog"
"2018-09-05 01:00","2018","09","05","01:00","21.0","","20.6","","97","","19","","8","","9.7","","98.45","","29","","","","Fog"
"2018-09-05 02:00","2018","09","05","02:00","20.3","","20.1","","99","","19","","4","","4.8","","98.42","","28","","","","Fog"
"2018-09-05 03:00","2018","09","05","03:00","19.2","","18.9","","98","","12","","4","","4.8","","98.40","","","","","","Fog"
"2018-09-05 04:00","2018","09","05","04:00","18.6","","18.3","","98","","","","0","","3.2","","98.37","","","","","","Fog"
"2018-09-05 05:00","2018","09","05","05:00","18.7","","18.4","","98","","14","","5","","4.8","","98.36","","","","","","Fog"
"2018-09-05 06:00","2018","09","05","06:00","19.2","","19.0","","99","","12","","4","","4.0","","98.37","","","","","","Fog"
"2018-09-05 07:00","2018","09","05","07:00","22.3","","21.3","","94","","18","","8","","11.3","","98.40","","31","","","","NA"
"2018-09-05 08:00","2018","09","05","08:00","24.9","","22.6","","87","","19","","13","","16.1","","98.37","","35","","","","NA"
"2018-09-05 09:00","2018","09","05","09:00","28.0","","22.9","","73","","21","","15","","16.1","","98.35","","38","","","","NA"
"2018-09-05 10:00","2018","09","05","10:00","30.0","","22.4","","63","","24","","21","","16.1","","98.32","","40","","","","NA"
"2018-09-05 11:00","2018","09","05","11:00","30.6","","22.5","","61","","21","","21","","16.1","","98.28","","40","","","","NA"
"2018-09-05 12:00","2018","09","05","12:00","31.6","","22.1","","56","","22","","28","","16.1","","98.22","","41","","","","NA"
"2018-09-05 13:00","2018","09","05","13:00","32.3","","22.9","","57","","22","","21","","16.1","","98.17","","42","","","","NA"
"2018-09-05 14:00","2018","09","05","14:00","31.1","","22.4","","59","","23","","21","","16.1","","98.10","","41","","","","NA"
"2018-09-05 15:00","2018","09","05","15:00","31.2","","22.1","","58","","20","","26","","16.1","","98.04","","41","","","","NA"
"2018-09-05 16:00","2018","09","05","16:00","31.0","","21.2","","55","","22","","32","","16.1","","98.03","","40","","","","NA"
"2018-09-05 17:00","2018","09","05","17:00","30.2","","21.4","","59","","23","","28","","16.1","","98.05","","39","","","","NA"
"2018-09-05 18:00","2018","09","05","18:00","28.8","","21.5","","64","","22","","18","","16.1","","98.05","","38","","","","NA"
"2018-09-05 19:00","2018","09","05","19:00","27.2","","21.6","","71","","21","","17","","16.1","","98.06","","36","","","","NA"
"2018-09-05 20:00","2018","09","05","20:00","26.1","","22.0","","78","","21","","17","","16.1","","98.12","","35","","","","NA"
"2018-09-05 21:00","2018","09","05","21:00","25.8","","22.2","","80","","22","","15","","16.1","","98.13","","35","","","","NA"
"2018-09-05 22:00","2018","09","05","22:00","21.9","","20.4","","91","","29","","13","","16.1","","98.20","","30","","","","Rain"
"2018-09-05 23:00","2018","09","05","23:00","21.9","","20.7","","93","","31","","13","","16.1","","98.23","","30","","","","NA"
"2018-09-06 00:00","2018","09","06","00:00","20.8","","20.3","","97","","30","","5","","16.1","","98.25","","29","","","","NA"
"2018-09-06 01:00","2018","09","06","01:00","20.8","","20.3","","97","","29","","5","","16.1","","98.24","","29","","","","NA"
"2018-09-06 02:00","2018","09","06","02:00","20.0","","19.4","","96","","32","","9","","16.1","","98.27","","27","","","","NA"
"2018-09-06 03:00","2018","09","06","03:00","19.4","","18.6","","95","","31","","11","","16.1","","98.33","","","","","","Rain"
"2018-09-06 04:00","2018","09","06","04:00","19.1","","18.5","","96","","31","","9","","16.1","","98.34","","","","","","Rain"
"2018-09-06 05:00","2018","09","06","05:00","19.0","","18.4","","96","","30","","8","","16.1","","98.41","","","","","","NA"
"2018-09-06 06:00","2018","09","06","06:00","18.6","","17.1","","91","","34","","15","","16.1","","98.47","","","","","","NA"
"2018-09-06 07:00","2018","09","06","07:00","18.4","","17.4","","94","","34","","9","","16.1","","98.51","","","","","","NA"
"2018-09-06 08:00","2018","09","06","08:00","19.1","","18.0","","93","","34","","11","","16.1","","98.54","","","","","","NA"
"2018-09-06 09:00","2018","09","06","09:00","19.9","","18.2","","90","","36","","9","","16.1","","98.57","","","","","","NA"
"2018-09-06 10:00","2018","09","06","10:00","21.2","","18.2","","83","","35","","13","","16.1","","98.64","","27","","","","NA"
"2018-09-06 11:00","2018","09","06","11:00","21.8","","17.9","","78","","33","","15","","16.1","","98.67","","28","","","","NA"
"2018-09-06 12:00","2018","09","06","12:00","22.5","","17.9","","75","","35","","9","","16.1","","98.65","","28","","","","NA"
"2018-09-06 13:00","2018","09","06","13:00","23.2","","17.3","","69","","33","","13","","16.1","","98.63","","29","","","","NA"
"2018-09-06 14:00","2018","09","06","14:00","24.7","","17.6","","64","","34","","11","","16.1","","98.56","","30","","","","NA"
"2018-09-06 15:00","2018","09","06","15:00","23.4","","17.2","","68","","31","","11","","16.1","","98.54","","29","","","","NA"
"2018-09-06 16:00","2018","09","06","16:00","23.7","","16.1","","62","","31","","11","","16.1","","98.53","","28","","","","NA"
"2018-09-06 17:00","2018","09","06","17:00","22.6","","16.7","","69","","31","","8","","16.1","","98.53","","28","","","","NA"
"2018-09-06 18:00","2018","09","06","18:00","21.3","","16.3","","73","","32","","8","","16.1","","98.53","","26","","","","NA"
"2018-09-06 19:00","2018","09","06","19:00","18.9","","17.4","","91","","32","","8","","16.1","","98.57","","","","","","NA"
"2018-09-06 20:00","2018","09","06","20:00","19.2","","16.3","","83","","4","","8","","16.1","","98.60","","","","","","NA"
"2018-09-06 21:00","2018","09","06","21:00","18.1","","15.4","","84","","2","","9","","16.1","","98.67","","","","","","NA"
"2018-09-06 22:00","2018","09","06","22:00","16.5","","14.6","","89","","35","","8","","16.1","","98.69","","","","","","NA"
"2018-09-06 23:00","2018","09","06","23:00","15.3","","11.9","","80","","36","","5","","16.1","","98.69","","","","","","NA"
"2018-09-07 00:00","2018","09","07","00:00","14.7","","12.1","","84","","36","","9","","16.1","","98.69","","","","","","NA"
"2018-09-07 01:00","2018","09","07","01:00","13.5","","12.0","","90","","33","","8","","16.1","","98.67","","","","","","NA"
"2018-09-07 02:00","2018","09","07","02:00","13.2","","12.1","","93","","33","","5","","16.1","","98.64","","","","","","NA"
"2018-09-07 03:00","2018","09","07","03:00","12.6","","12.1","","97","","35","","5","","16.1","","98.61","","","","","","NA"
"2018-09-07 04:00","2018","09","07","04:00","12.2","","11.7","","97","","35","","5","","16.1","","98.61","","","","","","NA"
"2018-09-07 05:00","2018","09","07","05:00","12.0","","11.7","","98","","","M","4","","16.1","","98.61","","","","","","NA"
"2018-09-07 06:00","2018","09","07","06:00","11.8","","11.3","","97","","35","","8","","16.1","","98.63","","","","","","NA"
"2018-09-07 07:00","2018","09","07","07:00","13.5","","12.9","","96","","32","","5","","16.1","","98.64","","","","","","NA"
"2018-09-07 08:00","2018","09","07","08:00","16.6","","14.3","","86","","1","","8","","16.1","","98.63","","","","","","NA"
"2018-09-07 09:00","2018","09","07","09:00","19.4","","16.3","","82","","4","","8","","16.1","","98.64","","","","","","NA"
"2018-09-07 10:00","2018","09","07","10:00","21.2","","16.4","","74","","6","","9","","16.1","","98.64","","26","","","","NA"
"2018-09-07 11:00","2018","09","07","11:00","21.6","","15.3","","67","","36","","11","","16.1","","98.63","","26","","","","NA"
"2018-09-07 12:00","2018","09","07","12:00","22.8","","13.0","","54","","36","","9","","16.1","","98.59","","26","","","","NA"
"2018-09-07 13:00","2018","09","07","13:00","22.6","","12.4","","52","","1","","11","","16.1","","98.55","","25","","","","NA"
"2018-09-07 14:00","2018","09","07","14:00","22.7","","11.9","","50","","32","","9","","16.1","","98.49","","25","","","","NA"
"2018-09-07 15:00","2018","09","07","15:00","22.8","","11.2","","47","","35","","11","","16.1","","98.45","","25","","","","NA"
"2018-09-07 16:00","2018","09","07","16:00","22.6","","10.5","","46","","35","","11","","16.1","","98.44","","","","","","NA"
"2018-09-07 17:00","2018","09","07","17:00","20.5","","10.2","","51","","36","","13","","16.1","","98.44","","","","","","NA"
"2018-09-07 18:00","2018","09","07","18:00","19.4","","11.6","","60","","3","","8","","16.1","","98.47","","","","","","NA"
"2018-09-07 19:00","2018","09","07","19:00","18.0","","12.1","","68","","3","","9","","16.1","","98.51","","","","","","NA"
"2018-09-07 20:00","2018","09","07","20:00","16.6","","11.2","","70","","1","","5","","16.1","","98.56","","","","","","NA"
"2018-09-07 21:00","2018","09","07","21:00","14.9","","11.3","","79","","36","","8","","16.1","","98.59","","","","","","NA"
"2018-09-07 22:00","2018","09","07","22:00","14.7","","10.2","","74","","1","","9","","16.1","","98.58","","","","","","NA"
"2018-09-07 23:00","2018","09","07","23:00","13.8","","9.3","","74","","1","","8","","16.1","","98.61","","","","","","NA"
"2018-09-08 00:00","2018","09","08","00:00","13.9","","9.0","","72","","1","","11","","16.1","","98.61","","","","","","NA"
"2018-09-08 01:00","2018","09","08","01:00","13.5","","8.5","","71","","1","","9","","16.1","","98.59","","","","","","NA"
"2018-09-08 02:00","2018","09","08","02:00","13.5","","8.4","","71","","1","","9","","16.1","","98.56","","","","","","NA"
"2018-09-08 03:00","2018","09","08","03:00","13.3","","8.1","","70","","3","","8","","16.1","","98.55","","","","","","NA"
"2018-09-08 04:00","2018","09","08","04:00","13.4","","8.5","","72","","4","","15","","16.1","","98.59","","","","","","NA"
"2018-09-08 05:00","2018","09","08","05:00","12.7","","8.2","","74","","4","","17","","16.1","","98.61","","","","","","NA"
"2018-09-08 06:00","2018","09","08","06:00","12.1","","7.8","","75","","5","","17","","16.1","","98.64","","","","","","NA"
"2018-09-08 07:00","2018","09","08","07:00","12.0","","6.8","","71","","4","","18","","16.1","","98.70","","","","","","NA"
"2018-09-08 08:00","2018","09","08","08:00","12.3","","6.6","","68","","5","","17","","16.1","","98.72","","","","","","NA"
"2018-09-08 09:00","2018","09","08","09:00","12.9","","6.2","","64","","5","","24","","16.1","","98.74","","","","","","NA"
"2018-09-08 10:00","2018","09","08","10:00","13.6","","6.2","","61","","6","","18","","16.1","","98.79","","","","","","NA"
"2018-09-08 11:00","2018","09","08","11:00","14.1","","6.5","","60","","7","","18","","16.1","","98.77","","","","","","NA"
"2018-09-08 12:00","2018","09","08","12:00","15.1","","7.5","","60","","7","","17","","16.1","","98.73","","","","","","NA"
"2018-09-08 13:00","2018","09","08","13:00","15.5","","5.1","","50","","8","","17","","16.1","","98.70","","","","","","NA"
"2018-09-08 14:00","2018","09","08","14:00","15.8","","4.8","","48","","10","","18","","16.1","","98.66","","","","","","NA"
"2018-09-08 15:00","2018","09","08","15:00","15.6","","3.8","","45","","7","","17","","16.1","","98.65","","","","","","NA"
"2018-09-08 16:00","2018","09","08","16:00","15.2","","4.2","","48","","7","","18","","16.1","","98.64","","","","","","NA"
"2018-09-08 17:00","2018","09","08","17:00","14.3","","4.9","","53","","7","","13","","16.1","","98.61","","","","","","NA"
"2018-09-08 18:00","2018","09","08","18:00","12.8","","6.9","","67","","6","","9","","16.1","","98.60","","","","","","NA"
"2018-09-08 19:00","2018","09","08","19:00","11.0","","7.2","","77","","6","","5","","16.1","","98.60","","","","","","NA"
"2018-09-08 20:00","2018","09","08","20:00","10.1","","6.8","","80","","3","","8","","16.1","","98.63","","","","","","NA"
"2018-09-08 21:00","2018","09","08","21:00","9.3","","7.1","","86","","5","","4","","16.1","","98.64","","","","","","NA"
"2018-09-08 22:00","2018","09","08","22:00","10.0","","6.2","","77","","4","","5","","16.1","","98.66","","","","","","NA"
"2018-09-08 23:00","2018","09","08","23:00","9.8","","6.2","","78","","4","","8","","16.1","","98.64","","","","","","NA"
"2018-09-09 00:00","2018","09","09","00:00","9.5","","5.7","","77","","5","","11","","16.1","","98.61","","","","","","NA"
"2018-09-09 01:00","2018","09","09","01:00","9.7","","5.3","","74","","5","","13","","16.1","","98.61","","","","","","NA"
"2018-09-09 02:00","2018","09","09","02:00","10.0","","4.6","","69","","5","","18","","16.1","","98.55","","","","","","NA"
"2018-09-09 03:00","2018","09","09","03:00","9.5","","4.7","","72","","5","","15","","16.1","","98.48","","","","","","NA"
"2018-09-09 04:00","2018","09","09","04:00","9.5","","4.8","","72","","5","","17","","16.1","","98.49","","","","","","NA"
"2018-09-09 05:00","2018","09","09","05:00","9.2","","4.5","","72","","5","","15","","16.1","","98.48","","","","","","NA"
"2018-09-09 06:00","2018","09","09","06:00","9.2","","4.4","","72","","4","","18","","16.1","","98.45","","","","","","NA"
"2018-09-09 07:00","2018","09","09","07:00","9.7","","5.7","","76","","7","","21","","16.1","","98.44","","","","","","NA"
"2018-09-09 08:00","2018","09","09","08:00","10.1","","6.3","","77","","6","","22","","16.1","","98.47","","","","","","NA"
"2018-09-09 09:00","2018","09","09","09:00","11.1","","7.3","","77","","6","","18","","16.1","","98.48","","","","","","NA"
"2018-09-09 10:00","2018","09","09","10:00","12.1","","8.0","","76","","6","","24","","16.1","","98.49","","","","","","NA"
"2018-09-09 11:00","2018","09","09","11:00","13.1","","9.0","","76","","8","","26","","16.1","","98.47","","","","","","NA"
"2018-09-09 12:00","2018","09","09","12:00","14.2","","9.3","","72","","8","","26","","16.1","","98.44","","","","","","NA"
"2018-09-09 13:00","2018","09","09","13:00","14.8","","7.8","","62","","9","","34","","16.1","","98.42","","","","","","NA"
"2018-09-09 14:00","2018","09","09","14:00","15.1","","8.2","","63","","10","","35","","16.1","","98.41","","","","","","NA"
"2018-09-09 15:00","2018","09","09","15:00","14.6","","8.3","","66","","9","","41","","16.1","","98.36","","","","","","NA"
"2018-09-09 16:00","2018","09","09","16:00","15.0","","8.9","","67","","8","","30","","16.1","","98.33","","","","","","NA"
"2018-09-09 17:00","2018","09","09","17:00","14.2","","8.2","","67","","8","","37","","16.1","","98.38","","","","","","NA"
"2018-09-09 18:00","2018","09","09","18:00","13.6","","8.5","","71","","7","","30","","16.1","","98.33","","","","","","NA"
"2018-09-09 19:00","2018","09","09","19:00","12.8","","8.1","","73","","7","","26","","16.1","","98.33","","","","","","NA"
"2018-09-09 20:00","2018","09","09","20:00","11.8","","7.0","","72","","6","","22","","16.1","","98.36","","","","","","NA"
"2018-09-09 21:00","2018","09","09","21:00","11.0","","6.6","","74","","6","","17","","16.1","","98.32","","","","","","NA"
"2018-09-09 22:00","2018","09","09","22:00","10.4","","6.9","","79","","6","","15","","16.1","","98.30","","","","","","NA"
"2018-09-09 23:00","2018","09","09","23:00","11.6","","7.8","","78","","7","","18","","16.1","","98.27","","","","","","NA"
"2018-09-10 00:00","2018","09","10","00:00","11.9","","8.8","","81","","7","","17","","16.1","","98.24","","","","","","Rain"
"2018-09-10 01:00","2018","09","10","01:00","12.3","","10.1","","86","","8","","30","","16.1","","98.12","","","","","","Rain"
"2018-09-10 02:00","2018","09","10","02:00","11.9","","10.7","","92","","8","","24","","11.3","","98.13","","","","","","Moderate Rain"
"2018-09-10 03:00","2018","09","10","03:00","12.0","","11.2","","95","","8","","28","","16.1","","98.00","","","","","","Rain"
"2018-09-10 04:00","2018","09","10","04:00","12.2","","11.5","","95","","8","","35","","4.0","","97.96","","","","","","Rain,Fog"
"2018-09-10 05:00","2018","09","10","05:00","12.4","","11.6","","95","","8","","32","","11.3","","97.90","","","","","","Rain"
"2018-09-10 06:00","2018","09","10","06:00","12.2","","11.6","","96","","8","","30","","4.0","","97.86","","","","","","Rain,Fog"
"2018-09-10 07:00","2018","09","10","07:00","12.2","","11.4","","95","","8","","28","","16.1","","97.87","","","","","","NA"
"2018-09-10 08:00","2018","09","10","08:00","12.4","","11.7","","96","","9","","26","","9.7","","97.87","","","","","","Rain,Fog"
"2018-09-10 09:00","2018","09","10","09:00","12.6","","11.8","","95","","9","","28","","6.4","","97.85","","","","","","Rain,Fog"
"2018-09-10 10:00","2018","09","10","10:00","12.7","","11.9","","95","","8","","32","","8.1","","97.84","","","","","","Rain,Fog"
"2018-09-10 11:00","2018","09","10","11:00","12.7","","11.9","","95","","9","","30","","4.8","","97.79","","","","","","Rain,Fog"
"2018-09-10 12:00","2018","09","10","12:00","12.6","","12.0","","96","","8","","28","","4.8","","97.75","","","","","","Fog"
"2018-09-10 13:00","2018","09","10","13:00","12.4","","11.6","","95","","8","","26","","6.4","","97.73","","","","","","Rain,Fog"
"2018-09-10 14:00","2018","09","10","14:00","12.5","","11.7","","95","","7","","22","","4.8","","97.69","","","","","","Rain,Fog"
"2018-09-10 15:00","2018","09","10","15:00","12.7","","12.1","","96","","8","","22","","2.8","","97.68","","","","","","Rain,Fog"
"2018-09-10 16:00","2018","09","10","16:00","12.6","","12.0","","96","","6","","15","","4.8","","97.64","","","","","","Rain,Fog"
"2018-09-10 17:00","2018","09","10","17:00","12.7","","12.2","","97","","8","","17","","4.0","","97.67","","","","","","Rain,Fog"
"2018-09-10 18:00","2018","09","10","18:00","12.7","","12.2","","97","","7","","15","","4.8","","97.67","","","","","","Rain,Fog"
"2018-09-10 19:00","2018","09","10","19:00","12.9","","12.4","","97","","7","","13","","9.7","","97.65","","","","","","Rain,Fog"
"2018-09-10 20:00","2018","09","10","20:00","13.1","","12.6","","97","","8","","15","","9.7","","97.70","","","","","","Rain,Fog"
"2018-09-10 21:00","2018","09","10","21:00","13.2","","12.9","","98","","6","","8","","2.8","","97.75","","","","","","Fog"
"2018-09-10 22:00","2018","09","10","22:00","13.4","","13.3","","99","","6","","4","","4.0","","97.76","","","","","","Fog"
"2018-09-10 23:00","2018","09","10","23:00","13.5","","13.4","","99","","31","","8","","1.6","","97.80","","","","","","Fog"
"2018-09-11 00:00","2018","09","11","00:00","13.4","","13.3","","99","","33","","5","","3.6","","97.83","","","","","","Fog"
"2018-09-11 01:00","2018","09","11","01:00","13.4","","13.3","","99","","32","","8","","2.4","","97.85","","","","","","Fog"
"2018-09-11 02:00","2018","09","11","02:00","13.4","","13.3","","99","","32","","8","","1.2","","97.86","","","","","","Fog"
"2018-09-11 03:00","2018","09","11","03:00","13.5","","13.4","","99","","31","","8","","1.2","","97.89","","","","","","Fog"
"2018-09-11 04:00","2018","09","11","04:00","13.5","","13.4","","99","","31","","11","","6.4","","97.95","","","","","","Fog"
"2018-09-11 05:00","2018","09","11","05:00","13.3","","13.0","","98","","32","","8","","12.9","","98.01","","","","","","NA"
"2018-09-11 06:00","2018","09","11","06:00","13.2","","12.7","","97","","32","","11","","11.3","","98.07","","","","","","NA"
"2018-09-11 07:00","2018","09","11","07:00","13.1","","12.3","","95","","33","","15","","16.1","","98.18","","","","","","NA"
"2018-09-11 08:00","2018","09","11","08:00","13.0","","12.2","","95","","36","","11","","16.1","","98.24","","","","","","NA"
"2018-09-11 09:00","2018","09","11","09:00","14.3","","12.5","","89","","1","","15","","16.1","","98.29","","","","","","NA"
"2018-09-11 10:00","2018","09","11","10:00","15.8","","13.1","","84","","1","","11","","16.1","","98.33","","","","","","NA"
"2018-09-11 11:00","2018","09","11","11:00","16.7","","12.9","","78","","","M","4","","16.1","","98.36","","","","","","NA"
"2018-09-11 12:00","2018","09","11","12:00","17.9","","13.7","","76","","","","0","","16.1","","98.38","","","","","","NA"
"2018-09-11 13:00","2018","09","11","13:00","19.4","","14.5","","73","","","M","5","","16.1","","98.38","","","","","","NA"
"2018-09-11 14:00","2018","09","11","14:00","20.9","","14.4","","66","","20","","8","","16.1","","98.37","","25","","","","NA"
"2018-09-11 15:00","2018","09","11","15:00","21.5","","14.3","","63","","","M","4","","16.1","","98.34","","25","","","","NA"
"2018-09-11 16:00","2018","09","11","16:00","22.1","","15.0","","64","","","M","8","","16.1","","98.34","","26","","","","NA"
"2018-09-11 17:00","2018","09","11","17:00","21.7","","14.3","","62","","16","","8","","16.1","","98.33","","25","","","","NA"
"2018-09-11 18:00","2018","09","11","18:00","19.2","","14.7","","75","","17","","15","","16.1","","98.35","","","","","","NA"
"2018-09-11 19:00","2018","09","11","19:00","17.0","","14.6","","85","","17","","11","","16.1","","98.39","","","","","","NA"
"2018-09-11 20:00","2018","09","11","20:00","14.5","","13.5","","94","","17","","5","","16.1","","98.45","","","","","","NA"
"2018-09-11 21:00","2018","09","11","21:00","12.9","","12.7","","99","","","","0","","16.1","","98.50","","","","","","NA"
"2018-09-11 22:00","2018","09","11","22:00","14.5","","14.2","","98","","8","","5","","16.1","","98.54","","","","","","NA"
"2018-09-11 23:00","2018","09","11","23:00","15.1","","14.3","","95","","","M","4","","16.1","","98.56","","","","","","NA"
"2018-09-12 00:00","2018","09","12","00:00","13.5","","13.4","","99","","","","0","","1.2","","98.53","","","","","","Fog"
"2018-09-12 01:00","2018","09","12","01:00","11.1","","11.0","","99","","","","0","","0.2","","98.51","","","","","","Rain,Fog"
"2018-09-12 02:00","2018","09","12","02:00","10.8","","10.8","","100","","33","","4","","0.4","","98.54","","","","","","Fog"
"2018-09-12 03:00","2018","09","12","03:00","10.6","","10.6","","100","","33","","4","","0.2","","98.56","","","","","","Fog"
"2018-09-12 04:00","2018","09","12","04:00","10.6","","10.6","","100","","","","0","","0.2","","98.57","","","","","","Fog"
"2018-09-12 05:00","2018","09","12","05:00","10.5","","10.5","","100","","","","0","","0.2","","98.62","","","","","","Fog"
"2018-09-12 06:00","2018","09","12","06:00","10.5","","10.5","","100","","31","","4","","0.2","","98.68","","","","","","Fog"
"2018-09-12 07:00","2018","09","12","07:00","11.2","","11.2","","100","","35","","5","","0.2","","98.71","","","","","","Fog"
"2018-09-12 08:00","2018","09","12","08:00","13.7","","13.7","","100","","","","0","","11.3","","98.71","","","","","","NA"
"2018-09-12 09:00","2018","09","12","09:00","16.6","","15.0","","90","","8","","5","","16.1","","98.73","","","","","","NA"
"2018-09-12 10:00","2018","09","12","10:00","19.4","","16.1","","81","","10","","9","","16.1","","98.71","","","","","","NA"
"2018-09-12 11:00","2018","09","12","11:00","20.0","","15.9","","77","","","M","4","","16.1","","98.72","","25","","","","NA"
"2018-09-12 12:00","2018","09","12","12:00","21.5","","16.0","","70","","7","","9","","16.1","","98.69","","26","","","","NA"
"2018-09-12 13:00","2018","09","12","13:00","22.3","","15.6","","65","","9","","8","","16.1","","98.68","","27","","","","NA"
"2018-09-12 14:00","2018","09","12","14:00","22.3","","15.9","","67","","10","","9","","16.1","","98.64","","27","","","","NA"
"2018-09-12 15:00","2018","09","12","15:00","22.7","","15.6","","64","","11","","5","","16.1","","98.59","","27","","","","NA"
"2018-09-12 16:00","2018","09","12","16:00","22.6","","15.4","","64","","13","","9","","16.1","","98.57","","27","","","","NA"
"2018-09-12 17:00","2018","09","12","17:00","21.1","","15.8","","72","","11","","15","","16.1","","98.58","","26","","","","NA"
"2018-09-12 18:00","2018","09","12","18:00","19.2","","15.3","","78","","10","","11","","16.1","","98.61","","","","","","NA"
"2018-09-12 19:00","2018","09","12","19:00","16.4","","14.6","","89","","10","","8","","16.1","","98.60","","","","","","NA"
"2018-09-12 20:00","2018","09","12","20:00","15.6","","14.9","","95","","7","","8","","16.1","","98.66","","","","","","NA"
"2018-09-12 21:00","2018","09","12","21:00","14.2","","14.1","","99","","4","","4","","11.3","","98.67","","","","","","NA"
"2018-09-12 22:00","2018","09","12","22:00","12.9","","12.8","","99","","6","","5","","4.8","","98.65","","","","","","Fog"
"2018-09-12 23:00","2018","09","12","23:00","14.0","","13.9","","99","","","M","4","","8.1","","98.65","","","","","","Fog"
"2018-09-13 00:00","2018","09","13","00:00","13.0","","12.9","","99","","7","","5","","1.2","","98.64","","","","","","Fog"
"2018-09-13 01:00","2018","09","13","01:00","12.3","","12.2","","99","","","M","4","","1.0","","98.67","","","","","","Fog"
"2018-09-13 02:00","2018","09","13","02:00","13.3","","13.2","","99","","","","0","","3.2","","98.68","","","","","","Fog"
"2018-09-13 03:00","2018","09","13","03:00","14.4","","14.3","","99","","4","","5","","1.2","","98.65","","","","","","Fog"
"2018-09-13 04:00","2018","09","13","04:00","15.2","","15.2","","100","","4","","9","","0.4","","98.65","","","","","","Fog"
"2018-09-13 05:00","2018","09","13","05:00","15.9","","15.9","","100","","7","","8","","0.4","","98.67","","","","","","Fog"
"2018-09-13 06:00","2018","09","13","06:00","16.5","","16.5","","100","","9","","9","","4.8","","98.70","","","","","","Fog"
"2018-09-13 07:00","2018","09","13","07:00","16.5","","16.3","","99","","7","","11","","3.2","","98.74","","","","","","Fog"
"2018-09-13 08:00","2018","09","13","08:00","17.2","","17.0","","99","","7","","17","","6.4","","98.74","","","","","","Fog"
"2018-09-13 09:00","2018","09","13","09:00","19.3","","17.5","","89","","10","","17","","16.1","","98.77","","","","","","NA"
"2018-09-13 10:00","2018","09","13","10:00","20.9","","17.6","","81","","9","","21","","16.1","","98.75","","27","","","","NA"
"2018-09-13 11:00","2018","09","13","11:00","23.1","","18.3","","74","","8","","22","","16.1","","98.70","","29","","","","NA"
"2018-09-13 12:00","2018","09","13","12:00","22.9","","18.4","","75","","9","","24","","16.1","","98.68","","29","","","","NA"
"2018-09-13 13:00","2018","09","13","13:00","23.9","","18.7","","72","","9","","24","","16.1","","98.62","","30","","","","NA"
"2018-09-13 14:00","2018","09","13","14:00","25.1","","19.9","","72","","8","","18","","16.1","","98.58","","33","","","","NA"
"2018-09-13 15:00","2018","09","13","15:00","24.8","","20.0","","74","","11","","18","","16.1","","98.57","","32","","","","NA"
"2018-09-13 16:00","2018","09","13","16:00","23.3","","18.7","","75","","9","","17","","16.1","","98.50","","30","","","","NA"
"2018-09-13 17:00","2018","09","13","17:00","22.6","","18.0","","75","","10","","17","","16.1","","98.47","","29","","","","NA"
"2018-09-13 18:00","2018","09","13","18:00","21.3","","17.1","","76","","9","","15","","16.1","","98.48","","27","","","","NA"
"2018-09-13 19:00","2018","09","13","19:00","18.4","","15.7","","84","","7","","8","","16.1","","98.48","","","","","","NA"
"2018-09-13 20:00","2018","09","13","20:00","17.4","","15.1","","86","","9","","5","","16.1","","98.50","","","","","","NA"
"2018-09-13 21:00","2018","09","13","21:00","17.3","","15.3","","88","","6","","9","","16.1","","98.49","","","","","","NA"
"2018-09-13 22:00","2018","09","13","22:00","18.4","","16.4","","88","","7","","9","","16.1","","98.47","","","","","","NA"
"2018-09-13 23:00","2018","09","13","23:00","18.6","","16.4","","87","","7","","17","","16.1","","98.43","","","","","","NA"
"2018-09-14 00:00","2018","09","14","00:00","18.1","","16.2","","89","","7","","9","","16.1","","98.43","","","","","","NA"
"2018-09-14 01:00","2018","09","14","01:00","17.5","","16.0","","91","","9","","9","","16.1","","98.41","","","","","","NA"
"2018-09-14 02:00","2018","09","14","02:00","16.6","","15.8","","95","","8","","8","","16.1","","98.38","","","","","","NA"
"2018-09-14 03:00","2018","09","14","03:00","16.8","","16.1","","96","","","M","4","","16.1","","98.39","","","","","","NA"
"2018-09-14 04:00","2018","09","14","04:00","15.8","","15.7","","99","","","","0","","16.1","","98.39","","","","","","NA"
"2018-09-14 05:00","2018","09","14","05:00","15.2","","15.1","","99","","","","0","","2.4","","98.42","","","","","","Fog"
"2018-09-14 06:00","2018","09","14","06:00","15.1","","15.0","","99","","","","0","","1.2","","98.45","","","","","","Fog"
"2018-09-14 07:00","2018","09","14","07:00","17.5","","17.2","","98","","4","","4","","16.1","","98.46","","","","","","NA"
"2018-09-14 08:00","2018","09","14","08:00","20.3","","18.6","","90","","10","","8","","16.1","","98.43","","27","","","","NA"
"2018-09-14 09:00","2018","09","14","09:00","23.3","","20.3","","83","","16","","11","","16.1","","98.42","","31","","","","NA"
"2018-09-14 10:00","2018","09","14","10:00","25.0","","21.0","","78","","17","","13","","16.1","","98.41","","33","","","","NA"
"2018-09-14 11:00","2018","09","14","11:00","26.4","","21.1","","72","","22","","9","","16.1","","98.38","","35","","","","NA"
"2018-09-14 12:00","2018","09","14","12:00","26.6","","21.1","","71","","20","","11","","16.1","","98.36","","35","","","","NA"
"2018-09-14 13:00","2018","09","14","13:00","26.7","","20.1","","67","","","M","4","","9.7","","98.32","","34","","","","Haze"
"2018-09-14 14:00","2018","09","14","14:00","28.3","","21.0","","64","","18","","11","","16.1","","98.28","","37","","","","NA"
"2018-09-14 15:00","2018","09","14","15:00","27.9","","21.3","","67","","15","","11","","8.1","","98.24","","37","","","","Haze"
"2018-09-14 16:00","2018","09","14","16:00","28.3","","20.9","","64","","14","","9","","16.1","","98.24","","37","","","","NA"
"2018-09-14 17:00","2018","09","14","17:00","26.3","","20.6","","71","","17","","11","","16.1","","98.25","","34","","","","NA"
"2018-09-14 18:00","2018","09","14","18:00","25.1","","21.0","","78","","14","","13","","16.1","","98.25","","34","","","","NA"
"2018-09-14 19:00","2018","09","14","19:00","23.1","","20.7","","86","","12","","13","","16.1","","98.28","","31","","","","NA"
"2018-09-14 20:00","2018","09","14","20:00","21.2","","19.6","","90","","13","","9","","16.1","","98.31","","28","","","","NA"
"2018-09-14 21:00","2018","09","14","21:00","19.9","","19.1","","95","","8","","4","","16.1","","98.36","","","","","","NA"
"2018-09-14 22:00","2018","09","14","22:00","17.7","","17.2","","97","","10","","4","","16.1","","98.37","","","","","","NA"
"2018-09-14 23:00","2018","09","14","23:00","17.6","","17.4","","99","","","","0","","8.1","","98.40","","","","","","Fog"
"2018-09-15 00:00","2018","09","15","00:00","17.2","","17.0","","99","","","","0","","0.6","","98.37","","","","","","Fog"
"2018-09-15 01:00","2018","09","15","01:00","15.9","","15.7","","99","","","","0","","0.4","","98.34","","","","","","Fog"
"2018-09-15 02:00","2018","09","15","02:00","16.9","","16.9","","100","","","","0","","0.8","","98.35","","","","","","Fog"
"2018-09-15 03:00","2018","09","15","03:00","15.3","","15.3","","100","","","","0","","0.4","","98.36","","","","","","Fog"
"2018-09-15 04:00","2018","09","15","04:00","15.5","","15.5","","100","","","","0","","0.2","","98.39","","","","","","Fog"
"2018-09-15 05:00","2018","09","15","05:00","15.0","","15.0","","100","","","","0","","0.2","","98.42","","","","","","Fog"
"2018-09-15 06:00","2018","09","15","06:00","15.1","","15.1","","100","","34","","5","","1.0","","98.44","","","","","","Fog"
"2018-09-15 07:00","2018","09","15","07:00","17.3","","17.3","","100","","34","","8","","4.8","","98.48","","","","","","Fog"
"2018-09-15 08:00","2018","09","15","08:00","19.9","","19.3","","96","","","M","4","","8.1","","98.48","","","","","","Fog"
"2018-09-15 09:00","2018","09","15","09:00","22.7","","20.5","","87","","","M","4","","12.9","","98.49","","31","","","","NA"
"2018-09-15 10:00","2018","09","15","10:00","24.9","","20.4","","76","","","M","4","","16.1","","98.52","","33","","","","NA"
"2018-09-15 11:00","2018","09","15","11:00","27.0","","20.8","","68","","","M","4","","8.1","","98.50","","35","","","","Haze"
"2018-09-15 12:00","2018","09","15","12:00","28.3","","19.6","","59","","18","","5","","14.5","","98.47","","36","","","","NA"
"2018-09-15 13:00","2018","09","15","13:00","28.5","","19.4","","57","","31","","9","","16.1","","98.44","","36","","","","NA"
"2018-09-15 14:00","2018","09","15","14:00","28.8","","18.9","","55","","24","","8","","16.1","","98.40","","35","","","","NA"
"2018-09-15 15:00","2018","09","15","15:00","28.4","","18.6","","55","","","","0","","16.1","","98.36","","35","","","","NA"
"2018-09-15 16:00","2018","09","15","16:00","27.2","","20.0","","64","","32","","8","","16.1","","98.34","","35","","","","NA"
"2018-09-15 17:00","2018","09","15","17:00","25.3","","21.3","","78","","14","","5","","16.1","","98.32","","34","","","","NA"
"2018-09-15 18:00","2018","09","15","18:00","24.5","","20.9","","80","","12","","8","","16.1","","98.35","","33","","","","NA"
"2018-09-15 19:00","2018","09","15","19:00","22.6","","20.3","","87","","12","","4","","16.1","","98.38","","30","","","","NA"
"2018-09-15 20:00","2018","09","15","20:00","20.6","","20.0","","96","","10","","4","","16.1","","98.42","","28","","","","NA"
"2018-09-15 21:00","2018","09","15","21:00","20.5","","19.3","","93","","","","0","","16.1","","98.42","","28","","","","NA"
"2018-09-15 22:00","2018","09","15","22:00","19.9","","19.3","","96","","","M","4","","16.1","","98.46","","","","","","NA"
"2018-09-15 23:00","2018","09","15","23:00","18.5","","18.3","","99","","","M","4","","4.8","","98.48","","","","","","Fog"
"2018-09-16 00:00","2018","09","16","00:00","19.9","","19.3","","96","","4","","8","","12.9","","98.47","","","","","","NA"
"2018-09-16 01:00","2018","09","16","01:00","18.4","","17.9","","97","","5","","5","","9.7","","98.46","","","","","","Fog"
"2018-09-16 02:00","2018","09","16","02:00","16.5","","16.2","","98","","4","","4","","1.2","","98.46","","","","","","Fog"
"2018-09-16 03:00","2018","09","16","03:00","16.8","","16.6","","99","","","","0","","0.2","","98.47","","","","","","Fog"
"2018-09-16 04:00","2018","09","16","04:00","17.1","","17.1","","100","","","M","4","","1.2","","98.48","","","","","","Fog"
"2018-09-16 05:00","2018","09","16","05:00","16.7","","16.5","","99","","","M","4","","1.0","","98.50","","","","","","Fog"
"2018-09-16 06:00","2018","09","16","06:00","15.7","","15.7","","100","","33","","4","","0.2","","98.54","","","","","","Fog"
"2018-09-16 07:00","2018","09","16","07:00","17.2","","17.2","","100","","","","0","","2.4","","98.55","","","","","","Fog"
"2018-09-16 08:00","2018","09","16","08:00","20.7","","19.8","","94","","","","0","","12.9","","98.55","","28","","","","NA"
"2018-09-16 09:00","2018","09","16","09:00","23.2","","20.9","","87","","","M","4","","16.1","","98.56","","32","","","","NA"
"2018-09-16 10:00","2018","09","16","10:00","26.1","","20.7","","72","","13","","5","","16.1","","98.56","","34","","","","NA"
"2018-09-16 11:00","2018","09","16","11:00","27.2","","20.0","","64","","10","","9","","16.1","","98.51","","35","","","","NA"
"2018-09-16 12:00","2018","09","16","12:00","27.8","","20.1","","62","","10","","13","","11.3","","98.46","","35","","","","NA"
"2018-09-16 13:00","2018","09","16","13:00","28.8","","19.1","","55","","13","","11","","14.5","","98.42","","36","","","","NA"
"2018-09-16 14:00","2018","09","16","14:00","28.6","","19.1","","56","","16","","13","","16.1","","98.34","","35","","","","NA"
"2018-09-16 15:00","2018","09","16","15:00","28.3","","19.0","","56","","12","","15","","6.4","","98.26","","35","","","","Haze"
"2018-09-16 16:00","2018","09","16","16:00","26.0","","19.8","","68","","13","","13","","16.1","","98.22","","33","","","","NA"
"2018-09-16 17:00","2018","09","16","17:00","26.9","","20.2","","66","","11","","18","","16.1","","98.21","","35","","","","NA"
"2018-09-16 18:00","2018","09","16","18:00","25.2","","20.8","","76","","12","","11","","16.1","","98.20","","33","","","","NA"
"2018-09-16 19:00","2018","09","16","19:00","22.5","","20.3","","87","","12","","13","","16.1","","98.21","","30","","","","NA"
"2018-09-16 20:00","2018","09","16","20:00","20.5","","19.2","","92","","10","","9","","16.1","","98.23","","27","","","","NA"
"2018-09-16 21:00","2018","09","16","21:00","18.5","","18.0","","97","","","M","4","","16.1","","98.23","","","","","","NA"
"2018-09-16 22:00","2018","09","16","22:00","17.9","","17.7","","99","","","","0","","11.3","","98.21","","","","","","NA"
"2018-09-16 23:00","2018","09","16","23:00","16.6","","16.4","","99","","11","","4","","2.8","","98.17","","","","","","Fog"
"2018-09-17 00:00","2018","09","17","00:00","16.6","","16.4","","99","","11","","5","","3.6","","98.12","","","","","","Fog"
"2018-09-17 01:00","2018","09","17","01:00","15.7","","15.5","","99","","8","","4","","0.4","","98.09","","","","","","Fog"
"2018-09-17 02:00","2018","09","17","02:00","15.1","","15.1","","100","","","","0","","0.2","","98.05","","","","","","Fog"
"2018-09-17 03:00","2018","09","17","03:00","15.4","","15.4","","100","","9","","4","","0.4","","98.02","","","","","","Fog"
"2018-09-17 04:00","2018","09","17","04:00","14.9","","14.9","","100","","13","","4","","1.6","","97.96","","","","","","Fog"
"2018-09-17 05:00","2018","09","17","05:00","14.9","","14.9","","100","","","","0","","1.2","","97.95","","","","","","Fog"
"2018-09-17 06:00","2018","09","17","06:00","14.0","","14.0","","100","","","","0","","0.2","","97.95","","","","","","Fog"
"2018-09-17 07:00","2018","09","17","07:00","17.3","","17.3","","100","","14","","4","","16.1","","97.95","","","","","","NA"
"2018-09-17 08:00","2018","09","17","08:00","20.4","","19.5","","94","","","","0","","16.1","","97.92","","28","","","","NA"
"2018-09-17 09:00","2018","09","17","09:00","22.2","","19.2","","83","","19","","9","","16.1","","97.91","","29","","","","NA"
"2018-09-17 10:00","2018","09","17","10:00","23.7","","19.3","","76","","21","","11","","16.1","","97.85","","31","","","","NA"
"2018-09-17 11:00","2018","09","17","11:00","25.6","","19.4","","68","","23","","9","","16.1","","97.79","","33","","","","NA"
"2018-09-17 12:00","2018","09","17","12:00","25.5","","19.8","","70","","","M","4","","16.1","","97.73","","33","","","","NA"
"2018-09-17 13:00","2018","09","17","13:00","26.8","","19.5","","64","","19","","11","","16.1","","97.68","","34","","","","NA"
"2018-09-17 14:00","2018","09","17","14:00","27.3","","20.1","","64","","16","","17","","16.1","","97.59","","35","","","","NA"
"2018-09-17 15:00","2018","09","17","15:00","26.0","","18.3","","62","","18","","17","","16.1","","97.54","","32","","","","NA"
"2018-09-17 16:00","2018","09","17","16:00","26.0","","18.9","","64","","18","","9","","16.1","","97.49","","33","","","","NA"
"2018-09-17 17:00","2018","09","17","17:00","25.3","","19.0","","68","","16","","11","","16.1","","97.46","","32","","","","NA"
"2018-09-17 18:00","2018","09","17","18:00","24.1","","19.7","","76","","19","","13","","16.1","","97.43","","31","","","","NA"
"2018-09-17 19:00","2018","09","17","19:00","22.3","","19.3","","83","","19","","9","","16.1","","97.42","","29","","","","NA"
"2018-09-17 20:00","2018","09","17","20:00","21.3","","19.2","","88","","20","","9","","16.1","","97.45","","28","","","","NA"
"2018-09-17 21:00","2018","09","17","21:00","18.9","","18.3","","96","","27","","4","","16.1","","97.46","","","","","","NA"
"2018-09-17 22:00","2018","09","17","22:00","18.4","","17.8","","96","","","M","4","","16.1","","97.45","","","","","","NA"
"2018-09-17 23:00","2018","09","17","23:00","17.7","","17.6","","99","","25","","4","","8.1","","97.47","","","","","","Fog"
"2018-09-18 00:00","2018","09","18","00:00","17.2","","17.0","","99","","","","0","","0.4","","97.46","","","","","","Fog"
"2018-09-18 01:00","2018","09","18","01:00","16.0","","16.0","","100","","","","0","","0.4","","97.43","","","","","","Fog"
"2018-09-18 02:00","2018","09","18","02:00","16.4","","16.4","","100","","34","","4","","1.2","","97.41","","","","","","Fog"
"2018-09-18 03:00","2018","09","18","03:00","16.6","","16.6","","100","","33","","5","","1.6","","97.38","","","","","","Fog"
"2018-09-18 04:00","2018","09","18","04:00","15.8","","15.8","","100","","28","","4","","0.6","","97.38","","","","","","Fog"
"2018-09-18 05:00","2018","09","18","05:00","16.9","","16.9","","100","","29","","11","","2.8","","97.37","","","","","","Fog"
"2018-09-18 06:00","2018","09","18","06:00","18.3","","18.3","","100","","31","","9","","0.6","","97.40","","","","","","Fog"
"2018-09-18 07:00","2018","09","18","07:00","18.6","","18.4","","99","","30","","8","","2.4","","97.45","","","","","","Fog"
"2018-09-18 08:00","2018","09","18","08:00","18.8","","18.6","","99","","29","","9","","3.2","","97.42","","","","","","Fog"
"2018-09-18 09:00","2018","09","18","09:00","19.0","","18.7","","98","","31","","11","","4.8","","97.47","","","","","","Fog"
"2018-09-18 10:00","2018","09","18","10:00","19.6","","18.4","","93","","29","","13","","14.5","","97.46","","","","","","NA"
"2018-09-18 11:00","2018","09","18","11:00","21.2","","18.8","","86","","29","","18","","16.1","","97.50","","28","","","","NA"
"2018-09-18 12:00","2018","09","18","12:00","23.1","","18.2","","73","","29","","15","","16.1","","97.46","","29","","","","NA"
"2018-09-18 13:00","2018","09","18","13:00","23.9","","17.2","","66","","30","","18","","16.1","","97.43","","29","","","","NA"
"2018-09-18 14:00","2018","09","18","14:00","24.6","","16.0","","58","","30","","22","","16.1","","97.39","","29","","","","NA"
"2018-09-18 15:00","2018","09","18","15:00","25.5","","16.5","","57","","31","","21","","16.1","","97.36","","30","","","","NA"
"2018-09-18 16:00","2018","09","18","16:00","25.5","","16.0","","55","","31","","18","","16.1","","97.35","","30","","","","NA"
"2018-09-18 17:00","2018","09","18","17:00","24.4","","15.8","","58","","30","","15","","16.1","","97.37","","29","","","","NA"
"2018-09-18 18:00","2018","09","18","18:00","22.2","","15.5","","66","","31","","11","","16.1","","97.41","","26","","","","NA"
"2018-09-18 19:00","2018","09","18","19:00","19.3","","15.8","","80","","31","","15","","16.1","","97.48","","","","","","NA"
"2018-09-18 20:00","2018","09","18","20:00","16.9","","14.4","","85","","34","","17","","16.1","","97.56","","","","","","NA"
"2018-09-18 21:00","2018","09","18","21:00","14.8","","13.5","","92","","31","","11","","16.1","","97.58","","","","","","NA"
"2018-09-18 22:00","2018","09","18","22:00","14.2","","13.3","","94","","30","","11","","16.1","","97.61","","","","","","NA"
"2018-09-18 23:00","2018","09","18","23:00","14.3","","13.2","","93","","32","","13","","16.1","","97.66","","","","","","NA"
"2018-09-19 00:00","2018","09","19","00:00","14.3","","13.0","","92","","29","","8","","16.1","","97.67","","","","","","NA"
"2018-09-19 01:00","2018","09","19","01:00","14.1","","12.4","","89","","35","","9","","16.1","","97.65","","","","","","NA"
"2018-09-19 02:00","2018","09","19","02:00","13.9","","12.5","","91","","31","","8","","16.1","","97.67","","","","","","Rain"
"2018-09-19 03:00","2018","09","19","03:00","14.0","","12.6","","91","","1","","9","","16.1","","97.68","","","","","","NA"
"2018-09-19 04:00","2018","09","19","04:00","13.3","","11.9","","91","","35","","9","","16.1","","97.72","","","","","","NA"
"2018-09-19 05:00","2018","09","19","05:00","12.2","","11.3","","94","","33","","8","","16.1","","97.78","","","","","","NA"
"2018-09-19 06:00","2018","09","19","06:00","11.1","","10.7","","97","","33","","4","","16.1","","97.88","","","","","","NA"
"2018-09-19 07:00","2018","09","19","07:00","11.9","","11.0","","94","","34","","9","","16.1","","97.96","","","","","","NA"
"2018-09-19 08:00","2018","09","19","08:00","13.6","","11.7","","88","","34","","8","","16.1","","98.02","","","","","","NA"
"2018-09-19 09:00","2018","09","19","09:00","16.0","","11.8","","76","","34","","11","","16.1","","98.01","","","","","","NA"
"2018-09-19 10:00","2018","09","19","10:00","17.5","","11.9","","69","","36","","5","","16.1","","98.05","","","","","","NA"
"2018-09-19 11:00","2018","09","19","11:00","19.4","","12.7","","65","","26","","8","","16.1","","98.04","","","","","","NA"
"2018-09-19 12:00","2018","09","19","12:00","20.5","","11.9","","57","","","M","4","","16.1","","98.03","","","","","","NA"
"2018-09-19 13:00","2018","09","19","13:00","21.8","","12.0","","53","","36","","11","","16.1","","98.04","","","","","","NA"
"2018-09-19 14:00","2018","09","19","14:00","22.1","","11.6","","51","","","M","9","","16.1","","97.98","","","","","","NA"
"2018-09-19 15:00","2018","09","19","15:00","22.9","","11.2","","47","","34","","5","","16.1","","97.97","","25","","","","NA"
"2018-09-19 16:00","2018","09","19","16:00","23.1","","12.3","","50","","31","","5","","16.1","","97.94","","26","","","","NA"
"2018-09-19 17:00","2018","09","19","17:00","22.3","","12.7","","54","","35","","4","","16.1","","97.98","","25","","","","NA"
"2018-09-19 18:00","2018","09","19","18:00","18.9","","14.2","","74","","9","","13","","16.1","","98.02","","","","","","NA"
"2018-09-19 19:00","2018","09","19","19:00","16.9","","13.9","","82","","11","","17","","16.1","","98.07","","","","","","NA"
"2018-09-19 20:00","2018","09","19","20:00","15.2","","13.3","","88","","11","","11","","16.1","","98.14","","","","","","NA"
"2018-09-19 21:00","2018","09","19","21:00","13.5","","12.7","","95","","8","","9","","16.1","","98.21","","","","","","NA"
"2018-09-19 22:00","2018","09","19","22:00","15.4","","14.0","","91","","11","","9","","16.1","","98.20","","","","","","NA"
"2018-09-19 23:00","2018","09","19","23:00","14.2","","13.2","","94","","10","","9","","16.1","","98.19","","","","","","NA"
"2018-09-20 00:00","2018","09","20","00:00","12.6","","12.1","","97","","8","","8","","16.1","","98.19","","","","","","NA"
"2018-09-20 01:00","2018","09","20","01:00","12.7","","12.1","","96","","6","","8","","16.1","","98.18","","","","","","NA"
"2018-09-20 02:00","2018","09","20","02:00","11.8","","11.7","","99","","8","","8","","16.1","","98.10","","","","","","NA"
"2018-09-20 03:00","2018","09","20","03:00","11.3","","11.0","","98","","30","","5","","16.1","","98.23","","","","","","NA"
"2018-09-20 04:00","2018","09","20","04:00","9.9","","9.6","","98","","11","","9","","8.1","","98.19","","","","","","Fog"
"2018-09-20 05:00","2018","09","20","05:00","10.9","","10.8","","99","","36","","11","","16.1","","98.26","","","","","","NA"
"2018-09-20 06:00","2018","09","20","06:00","10.3","","10.0","","98","","","","0","","16.1","","98.26","","","","","","NA"
"2018-09-20 07:00","2018","09","20","07:00","13.3","","12.8","","97","","","","0","","16.1","","98.31","","","","","","NA"
"2018-09-20 08:00","2018","09","20","08:00","15.0","","13.6","","91","","10","","13","","16.1","","98.34","","","","","","NA"
"2018-09-20 09:00","2018","09","20","09:00","16.1","","13.8","","86","","11","","17","","16.1","","98.38","","","","","","NA"
"2018-09-20 10:00","2018","09","20","10:00","17.3","","14.0","","81","","11","","17","","16.1","","98.39","","","","","","NA"
"2018-09-20 11:00","2018","09","20","11:00","18.1","","13.8","","76","","10","","21","","16.1","","98.36","","","","","","NA"
"2018-09-20 12:00","2018","09","20","12:00","18.2","","13.6","","74","","8","","18","","16.1","","98.31","","","","","","NA"
"2018-09-20 13:00","2018","09","20","13:00","18.1","","13.6","","75","","9","","17","","16.1","","98.27","","","","","","NA"
"2018-09-20 14:00","2018","09","20","14:00","19.1","","14.1","","73","","9","","18","","16.1","","98.23","","","","","","Rain"
"2018-09-20 15:00","2018","09","20","15:00","18.0","","13.7","","76","","10","","21","","16.1","","98.10","","","","","","Rain"
"2018-09-20 16:00","2018","09","20","16:00","18.1","","14.1","","77","","9","","22","","16.1","","98.07","","","","","","NA"
"2018-09-20 17:00","2018","09","20","17:00","17.4","","14.2","","81","","10","","21","","16.1","","98.10","","","","","","NA"
"2018-09-20 18:00","2018","09","20","18:00","16.8","","14.3","","85","","8","","21","","16.1","","98.04","","","","","","NA"
"2018-09-20 19:00","2018","09","20","19:00","16.5","","14.4","","87","","9","","18","","16.1","","98.06","","","","","","NA"
"2018-09-20 20:00","2018","09","20","20:00","16.5","","14.4","","87","","8","","21","","16.1","","98.02","","","","","","NA"
"2018-09-20 21:00","2018","09","20","21:00","16.3","","14.5","","89","","10","","17","","16.1","","97.99","","","","","","NA"
"2018-09-20 22:00","2018","09","20","22:00","16.4","","15.0","","91","","9","","18","","16.1","","97.91","","","","","","NA"
"2018-09-20 23:00","2018","09","20","23:00","16.6","","15.5","","93","","9","","18","","16.1","","97.81","","","","","","NA"
"2018-09-21 00:00","2018","09","21","00:00","16.4","","15.8","","96","","11","","15","","16.1","","97.72","","","","","","NA"
"2018-09-21 01:00","2018","09","21","01:00","16.3","","15.9","","97","","13","","8","","11.3","","97.63","","","","","","NA"
"2018-09-21 02:00","2018","09","21","02:00","16.5","","16.2","","98","","15","","8","","9.7","","97.60","","","","","","Fog"
"2018-09-21 03:00","2018","09","21","03:00","17.4","","16.8","","96","","17","","9","","11.3","","97.52","","","","","","NA"
"2018-09-21 04:00","2018","09","21","04:00","19.7","","18.9","","95","","21","","15","","12.9","","97.47","","","","","","NA"
"2018-09-21 05:00","2018","09","21","05:00","20.1","","19.3","","95","","20","","17","","11.3","","97.41","","27","","","","NA"
"2018-09-21 06:00","2018","09","21","06:00","21.6","","20.4","","93","","20","","17","","12.9","","97.37","","30","","","","NA"
"2018-09-21 07:00","2018","09","21","07:00","22.9","","20.7","","87","","20","","22","","16.1","","97.33","","31","","","","NA"
"2018-09-21 08:00","2018","09","21","08:00","24.2","","20.8","","81","","21","","24","","16.1","","97.28","","32","","","","NA"
"2018-09-21 09:00","2018","09","21","09:00","26.6","","20.8","","70","","21","","32","","16.1","","97.20","","35","","","","NA"
"2018-09-21 10:00","2018","09","21","10:00","28.1","","20.6","","63","","22","","30","","16.1","","97.14","","36","","","","NA"
"2018-09-21 11:00","2018","09","21","11:00","29.2","","20.3","","58","","22","","37","","16.1","","97.05","","37","","","","NA"
"2018-09-21 12:00","2018","09","21","12:00","29.7","","20.7","","58","","22","","39","","16.1","","96.97","","38","","","","NA"
"2018-09-21 13:00","2018","09","21","13:00","27.9","","20.2","","62","","21","","37","","16.1","","96.90","","36","","","","NA"
"2018-09-21 14:00","2018","09","21","14:00","26.4","","20.6","","70","","22","","43","","16.1","","96.86","","34","","","","Rain"
"2018-09-21 15:00","2018","09","21","15:00","27.1","","20.5","","67","","23","","34","","16.1","","96.84","","35","","","","Rain"
"2018-09-21 16:00","2018","09","21","16:00","23.2","","20.2","","83","","25","","35","","16.1","","96.93","","31","","","","NA"
"2018-09-21 17:00","2018","09","21","17:00","24.2","","16.3","","61","","26","","48","","16.1","","96.91","","29","","","","NA"
"2018-09-21 18:00","2018","09","21","18:00","23.2","","16.9","","67","","27","","37","","16.1","","96.98","","28","","","","NA"
"2018-09-21 19:00","2018","09","21","19:00","21.9","","13.7","","59","","29","","37","","16.1","","97.19","","25","","","","NA"
"2018-09-21 20:00","2018","09","21","20:00","18.9","","10.6","","58","","29","","30","","16.1","","97.47","","","","","","NA"
"2018-09-21 21:00","2018","09","21","21:00","16.8","","10.8","","67","","30","","24","","16.1","","97.63","","","","","","NA"
"2018-09-21 22:00","2018","09","21","22:00","15.1","","8.3","","64","","30","","34","","16.1","","97.80","","","","","","NA"
"2018-09-21 23:00","2018","09","21","23:00","13.2","","7.5","","68","","30","","24","","16.1","","97.97","","","","","","NA"
"2018-09-22 00:00","2018","09","22","00:00","12.5","","6.4","","66","","30","","28","","16.1","","98.07","","","","","","NA"
"2018-09-22 01:00","2018","09","22","01:00","11.2","","7.2","","76","","31","","18","","16.1","","98.18","","","","","","NA"
"2018-09-22 02:00","2018","09","22","02:00","11.0","","7.5","","79","","31","","22","","16.1","","98.24","","","","","","NA"
"2018-09-22 03:00","2018","09","22","03:00","9.6","","7.6","","87","","31","","13","","16.1","","98.34","","","","","","NA"
"2018-09-22 04:00","2018","09","22","04:00","9.1","","6.7","","85","","31","","11","","16.1","","98.46","","","","","","NA"
"2018-09-22 05:00","2018","09","22","05:00","9.5","","6.4","","81","","30","","13","","16.1","","98.54","","","","","","NA"
"2018-09-22 06:00","2018","09","22","06:00","9.7","","6.1","","78","","32","","15","","16.1","","98.63","","","","","","NA"
"2018-09-22 07:00","2018","09","22","07:00","9.5","","6.5","","82","","33","","15","","16.1","","98.67","","","","","","NA"
"2018-09-22 08:00","2018","09","22","08:00","10.6","","7.0","","78","","35","","13","","16.1","","98.70","","","","","","NA"
"2018-09-22 09:00","2018","09","22","09:00","11.2","","7.2","","76","","35","","18","","16.1","","98.78","","","","","","NA"
"2018-09-22 10:00","2018","09","22","10:00","11.8","","6.4","","69","","36","","15","","16.1","","98.80","","","","","","NA"
"2018-09-22 11:00","2018","09","22","11:00","12.4","","5.7","","64","","35","","11","","16.1","","98.80","","","","","","NA"
"2018-09-22 12:00","2018","09","22","12:00","14.1","","5.3","","55","","2","","13","","16.1","","98.76","","","","","","NA"
"2018-09-22 13:00","2018","09","22","13:00","15.8","","6.5","","54","","15","","9","","16.1","","98.72","","","","","","NA"
"2018-09-22 14:00","2018","09","22","14:00","16.3","","6.7","","53","","21","","11","","16.1","","98.65","","","","","","NA"
"2018-09-22 15:00","2018","09","22","15:00","15.0","","4.8","","50","","","M","5","","16.1","","98.62","","","","","","NA"
"2018-09-22 16:00","2018","09","22","16:00","15.2","","6.5","","56","","20","","8","","16.1","","98.59","","","","","","NA"
"2018-09-22 17:00","2018","09","22","17:00","15.1","","7.2","","59","","16","","11","","16.1","","98.55","","","","","","NA"
"2018-09-22 18:00","2018","09","22","18:00","13.6","","7.1","","64","","18","","13","","16.1","","98.57","","","","","","NA"
"2018-09-22 19:00","2018","09","22","19:00","11.5","","7.1","","74","","20","","9","","16.1","","98.57","","","","","","NA"
"2018-09-22 20:00","2018","09","22","20:00","9.3","","7.2","","87","","22","","5","","16.1","","98.57","","","","","","NA"
"2018-09-22 21:00","2018","09","22","21:00","8.8","","7.2","","90","","20","","5","","16.1","","98.59","","","","","","NA"
"2018-09-22 22:00","2018","09","22","22:00","8.6","","6.2","","85","","30","","9","","16.1","","98.57","","","","","","NA"
"2018-09-22 23:00","2018","09","22","23:00","7.4","","5.6","","88","","","","0","","16.1","","98.58","","","","","","NA"
"2018-09-23 00:00","2018","09","23","00:00","5.5","","5.2","","98","","","","0","","16.1","","98.57","","","","","","NA"
"2018-09-23 01:00","2018","09","23","01:00","4.1","","3.5","","96","","","M","4","","16.1","","98.54","","","","","","NA"
"2018-09-23 02:00","2018","09","23","02:00","3.5","","3.2","","98","","","","0","","16.1","","98.54","","","","","","NA"
"2018-09-23 03:00","2018","09","23","03:00","3.0","","2.9","","99","","35","","5","","1.6","","98.55","","","","","","Rain,Fog"
"2018-09-23 04:00","2018","09","23","04:00","2.9","","2.8","","99","","","","0","","1.6","","98.57","","","","","","Rain,Fog"
"2018-09-23 05:00","2018","09","23","05:00","2.6","","2.5","","99","","35","","5","","11.3","","98.56","","","","","","NA"
"2018-09-23 06:00","2018","09","23","06:00","2.3","","2.2","","99","","22","","4","","16.1","","98.55","","","","","","NA"
"2018-09-23 07:00","2018","09","23","07:00","3.6","","3.5","","100","","35","","5","","16.1","","98.58","","","","","","NA"
"2018-09-23 08:00","2018","09","23","08:00","8.2","","6.9","","91","","34","","8","","16.1","","98.64","","","","","","NA"
"2018-09-23 09:00","2018","09","23","09:00","11.2","","6.0","","70","","","M","4","","16.1","","98.67","","","","","","NA"
"2018-09-23 10:00","2018","09","23","10:00","13.9","","4.6","","53","","","M","8","","16.1","","98.65","","","","","","NA"
"2018-09-23 11:00","2018","09","23","11:00","15.7","","0.7","","36","","35","","5","","16.1","","98.64","","","","","","NA"
"2018-09-23 12:00","2018","09","23","12:00","17.8","","-0.5","","29","","6","","8","","16.1","","98.57","","","","","","NA"
"2018-09-23 13:00","2018","09","23","13:00","18.7","","1.0","","30","","","M","8","","16.1","","98.51","","","","","","NA"
"2018-09-23 14:00","2018","09","23","14:00","19.5","","0.8","","28","","","","0","","16.1","","98.47","","","","","","NA"
"2018-09-23 15:00","2018","09","23","15:00","20.2","","2.3","","30","","","M","","M","16.1","","98.48","","","","","","NA"
"2018-09-23 16:00","2018","09","23","16:00","19.8","","3.8","","35","","9","","5","","16.1","","98.47","","","","","","NA"
"2018-09-23 17:00","2018","09","23","17:00","18.3","","8.2","","52","","12","","15","","16.1","","98.51","","","","","","NA"
"2018-09-23 18:00","2018","09","23","18:00","15.2","","8.5","","64","","11","","13","","16.1","","98.56","","","","","","NA"
"2018-09-23 19:00","2018","09","23","19:00","11.2","","7.5","","78","","8","","11","","16.1","","98.59","","","","","","NA"
"2018-09-23 20:00","2018","09","23","20:00","11.2","","7.4","","77","","6","","8","","16.1","","98.67","","","","","","NA"
"2018-09-23 21:00","2018","09","23","21:00","10.3","","7.2","","81","","6","","9","","16.1","","98.73","","","","","","NA"
"2018-09-23 22:00","2018","09","23","22:00","10.8","","7.7","","81","","5","","9","","16.1","","98.75","","","","","","NA"
"2018-09-23 23:00","2018","09","23","23:00","8.4","","6.4","","87","","6","","9","","16.1","","98.77","","","","","","NA"
"2018-09-24 00:00","2018","09","24","00:00","10.6","","8.5","","87","","6","","13","","16.1","","98.77","","","","","","NA"
"2018-09-24 01:00","2018","09","24","01:00","11.0","","9.7","","91","","10","","15","","16.1","","98.76","","","","","","NA"
"2018-09-24 02:00","2018","09","24","02:00","10.5","","9.2","","91","","8","","15","","16.1","","98.80","","","","","","NA"
"2018-09-24 03:00","2018","09","24","03:00","12.9","","11.5","","91","","8","","30","","16.1","","98.78","","","","","","NA"
"2018-09-24 04:00","2018","09","24","04:00","12.6","","11.2","","91","","8","","21","","16.1","","98.81","","","","","","NA"
"2018-09-24 05:00","2018","09","24","05:00","12.6","","11.0","","90","","8","","26","","16.1","","98.83","","","","","","NA"
"2018-09-24 06:00","2018","09","24","06:00","12.5","","10.6","","88","","8","","28","","16.1","","98.85","","","","","","NA"
"2018-09-24 07:00","2018","09","24","07:00","11.3","","9.6","","89","","6","","22","","16.1","","98.89","","","","","","NA"
"2018-09-24 08:00","2018","09","24","08:00","11.9","","10.2","","89","","7","","21","","16.1","","98.90","","","","","","NA"
"2018-09-24 09:00","2018","09","24","09:00","13.1","","11.1","","88","","9","","28","","16.1","","98.90","","","","","","NA"
"2018-09-24 10:00","2018","09","24","10:00","13.8","","11.5","","86","","9","","28","","16.1","","98.89","","","","","","NA"
"2018-09-24 11:00","2018","09","24","11:00","15.5","","12.0","","79","","9","","30","","16.1","","98.80","","","","","","NA"
"2018-09-24 12:00","2018","09","24","12:00","16.5","","11.9","","74","","10","","26","","16.1","","98.78","","","","","","NA"
"2018-09-24 13:00","2018","09","24","13:00","16.8","","12.5","","76","","10","","24","","16.1","","98.73","","","","","","NA"
"2018-09-24 14:00","2018","09","24","14:00","17.6","","13.4","","76","","12","","26","","16.1","","98.65","","","","","","NA"
"2018-09-24 15:00","2018","09","24","15:00","17.4","","13.5","","78","","11","","22","","16.1","","98.57","","","","","","NA"
"2018-09-24 16:00","2018","09","24","16:00","16.8","","13.8","","82","","10","","26","","16.1","","98.54","","","","","","NA"
"2018-09-24 17:00","2018","09","24","17:00","16.5","","14.4","","87","","10","","18","","16.1","","98.54","","","","","","NA"
"2018-09-24 18:00","2018","09","24","18:00","16.8","","14.8","","88","","10","","21","","16.1","","98.47","","","","","","NA"
"2018-09-24 19:00","2018","09","24","19:00","16.9","","14.9","","88","","10","","17","","16.1","","98.44","","","","","","NA"
"2018-09-24 20:00","2018","09","24","20:00","17.5","","14.7","","83","","12","","18","","16.1","","98.42","","","","","","NA"
"2018-09-24 21:00","2018","09","24","21:00","16.5","","15.0","","91","","14","","21","","16.1","","98.41","","","","","","NA"
"2018-09-24 22:00","2018","09","24","22:00","16.0","","15.1","","94","","13","","24","","16.1","","98.38","","","","","","Rain"
"2018-09-24 23:00","2018","09","24","23:00","15.9","","15.1","","95","","14","","24","","12.9","","98.35","","","","","","Rain"
"2018-09-25 00:00","2018","09","25","00:00","15.9","","15.3","","96","","15","","26","","16.1","","98.28","","","","","","Rain"
"2018-09-25 01:00","2018","09","25","01:00","15.9","","15.3","","96","","15","","26","","16.1","","98.22","","","","","","Rain"
"2018-09-25 02:00","2018","09","25","02:00","16.0","","15.1","","94","","16","","30","","16.1","","98.17","","","","","","NA"
"2018-09-25 03:00","2018","09","25","03:00","15.8","","15.0","","95","","15","","22","","16.1","","98.09","","","","","","Rain"
"2018-09-25 04:00","2018","09","25","04:00","15.6","","15.0","","96","","14","","18","","16.1","","98.04","","","","","","Rain"
"2018-09-25 05:00","2018","09","25","05:00","15.5","","15.0","","97","","14","","18","","6.4","","98.00","","","","","","Rain,Fog"
"2018-09-25 06:00","2018","09","25","06:00","15.8","","15.3","","97","","15","","21","","12.9","","97.96","","","","","","Rain"
"2018-09-25 07:00","2018","09","25","07:00","16.1","","15.8","","98","","16","","18","","11.3","","97.94","","","","","","Rain"
"2018-09-25 08:00","2018","09","25","08:00","16.6","","16.3","","98","","16","","17","","11.3","","97.88","","","","","","NA"
"2018-09-25 09:00","2018","09","25","09:00","17.6","","17.1","","97","","17","","17","","16.1","","97.87","","","","","","NA"
"2018-09-25 10:00","2018","09","25","10:00","18.3","","17.8","","97","","18","","17","","12.9","","97.83","","","","","","Rain"
"2018-09-25 11:00","2018","09","25","11:00","19.3","","18.7","","96","","18","","18","","16.1","","97.79","","","","","","NA"
"2018-09-25 12:00","2018","09","25","12:00","19.3","","18.7","","96","","20","","15","","9.7","","97.78","","","","","","Rain,Fog"
"2018-09-25 13:00","2018","09","25","13:00","19.6","","19.0","","96","","19","","21","","4.0","","97.74","","","","","","Rain,Fog"
"2018-09-25 14:00","2018","09","25","14:00","19.8","","19.2","","96","","20","","18","","16.1","","97.66","","","","","","NA"
"2018-09-25 15:00","2018","09","25","15:00","20.0","","19.4","","96","","20","","22","","8.1","","97.65","","27","","","","Fog"
"2018-09-25 16:00","2018","09","25","16:00","20.4","","19.4","","94","","20","","18","","16.1","","97.58","","27","","","","NA"
"2018-09-25 17:00","2018","09","25","17:00","20.3","","19.5","","95","","19","","18","","9.7","","97.51","","27","","","","Fog"
"2018-09-25 18:00","2018","09","25","18:00","20.3","","19.5","","95","","20","","15","","16.1","","97.51","","27","","","","NA"
"2018-09-25 19:00","2018","09","25","19:00","20.4","","19.6","","95","","19","","18","","14.5","","97.51","","28","","","","NA"
"2018-09-25 20:00","2018","09","25","20:00","20.4","","19.6","","95","","18","","22","","12.9","","97.47","","28","","","","NA"
"2018-09-25 21:00","2018","09","25","21:00","20.0","","19.4","","96","","18","","21","","4.8","","97.45","","27","","","","Rain,Fog"
"2018-09-25 22:00","2018","09","25","22:00","20.4","","19.9","","97","","18","","18","","8.1","","97.40","","28","","","","Rain,Fog"
"2018-09-25 23:00","2018","09","25","23:00","20.7","","20.1","","96","","20","","24","","11.3","","97.33","","28","","","","Rain"
"2018-09-26 00:00","2018","09","26","00:00","20.6","","19.9","","96","","17","","28","","16.1","","97.09","","28","","","","Rain"
"2018-09-26 01:00","2018","09","26","01:00","21.0","","19.7","","92","","23","","32","","16.1","","97.08","","28","","","","NA"
"2018-09-26 02:00","2018","09","26","02:00","21.3","","19.9","","91","","23","","26","","16.1","","97.09","","29","","","","NA"
"2018-09-26 03:00","2018","09","26","03:00","21.5","","19.5","","88","","24","","24","","16.1","","97.04","","29","","","","NA"
"2018-09-26 04:00","2018","09","26","04:00","20.7","","18.5","","87","","24","","21","","16.1","","97.07","","27","","","","NA"
"2018-09-26 05:00","2018","09","26","05:00","20.5","","18.7","","89","","25","","18","","16.1","","97.10","","27","","","","NA"
"2018-09-26 06:00","2018","09","26","06:00","20.1","","17.9","","87","","26","","24","","16.1","","97.10","","26","","","","NA"
"2018-09-26 07:00","2018","09","26","07:00","18.9","","16.4","","85","","27","","21","","16.1","","97.17","","","","","","NA"
"2018-09-26 08:00","2018","09","26","08:00","18.7","","16.1","","85","","27","","22","","16.1","","97.20","","","","","","NA"
"2018-09-26 09:00","2018","09","26","09:00","19.3","","15.6","","79","","28","","28","","16.1","","97.23","","","","","","NA"
"2018-09-26 10:00","2018","09","26","10:00","16.0","","12.2","","78","","30","","30","","16.1","","97.37","","","","","","NA"
"2018-09-26 11:00","2018","09","26","11:00","16.2","","11.2","","72","","30","","28","","16.1","","97.44","","","","","","NA"
"2018-09-26 12:00","2018","09","26","12:00","16.2","","9.6","","65","","29","","35","","16.1","","97.53","","","","","","NA"
"2018-09-26 13:00","2018","09","26","13:00","16.8","","9.3","","61","","28","","30","","16.1","","97.55","","","","","","NA"
"2018-09-26 14:00","2018","09","26","14:00","16.7","","8.4","","58","","28","","32","","16.1","","97.59","","","","","","NA"
"2018-09-26 15:00","2018","09","26","15:00","17.0","","8.1","","56","","27","","28","","16.1","","97.68","","","","","","NA"
"2018-09-26 16:00","2018","09","26","16:00","15.8","","7.1","","56","","30","","30","","16.1","","97.70","","","","","","NA"
"2018-09-26 17:00","2018","09","26","17:00","16.4","","7.7","","56","","30","","24","","16.1","","97.77","","","","","","NA"
"2018-09-26 18:00","2018","09","26","18:00","14.1","","8.1","","67","","30","","17","","16.1","","97.81","","","","","","NA"
"2018-09-26 19:00","2018","09","26","19:00","11.8","","8.1","","78","","31","","11","","16.1","","97.92","","","","","","NA"
"2018-09-26 20:00","2018","09","26","20:00","9.5","","7.8","","89","","31","","4","","16.1","","97.96","","","","","","NA"
"2018-09-26 21:00","2018","09","26","21:00","8.5","","7.8","","95","","31","","4","","16.1","","98.01","","","","","","NA"
"2018-09-26 22:00","2018","09","26","22:00","7.1","","6.7","","97","","","M","4","","16.1","","98.10","","","","","","NA"
"2018-09-26 23:00","2018","09","26","23:00","7.4","","7.3","","99","","","","0","","16.1","","98.18","","","","","","NA"
"2018-09-27 00:00","2018","09","27","00:00","8.4","","7.7","","95","","","","0","","16.1","","98.18","","","","","","NA"
"2018-09-27 01:00","2018","09","27","01:00","7.2","","7.1","","99","","","M","4","","1.2","","98.21","","","","","","Fog"
"2018-09-27 02:00","2018","09","27","02:00","6.5","","6.4","","99","","","","0","","1.6","","98.23","","","","","","Fog"
"2018-09-27 03:00","2018","09","27","03:00","5.9","","5.8","","99","","","","0","","0.8","","98.26","","","","","","Rain,Fog"
"2018-09-27 04:00","2018","09","27","04:00","4.5","","4.4","","99","","","","0","","8.1","","98.25","","","","","","Fog"
"2018-09-27 05:00","2018","09","27","05:00","3.4","","3.4","","100","","7","","5","","0.6","","98.27","","","","","","Fog"
"2018-09-27 06:00","2018","09","27","06:00","3.4","","3.3","","99","","","","0","","0.2","","98.29","","","","","","Fog"
"2018-09-27 07:00","2018","09","27","07:00","4.8","","4.8","","100","","","","0","","9.7","","98.31","","","","","","Fog"
"2018-09-27 08:00","2018","09","27","08:00","8.5","","8.5","","100","","","","0","","16.1","","98.33","","","","","","NA"
"2018-09-27 09:00","2018","09","27","09:00","11.4","","9.7","","89","","","M","4","","16.1","","98.35","","","","","","NA"
"2018-09-27 10:00","2018","09","27","10:00","14.0","","8.2","","68","","15","","11","","16.1","","98.32","","","","","","NA"
"2018-09-27 11:00","2018","09","27","11:00","14.7","","6.9","","59","","15","","13","","16.1","","98.28","","","","","","NA"
"2018-09-27 12:00","2018","09","27","12:00","15.4","","6.1","","54","","14","","13","","16.1","","98.19","","","","","","NA"
"2018-09-27 13:00","2018","09","27","13:00","16.2","","6.2","","51","","12","","9","","16.1","","98.07","","","","","","NA"
"2018-09-27 14:00","2018","09","27","14:00","16.3","","5.9","","50","","17","","13","","16.1","","98.01","","","","","","NA"
"2018-09-27 15:00","2018","09","27","15:00","16.1","","5.8","","50","","16","","15","","16.1","","98.01","","","","","","NA"
"2018-09-27 16:00","2018","09","27","16:00","15.4","","7.7","","60","","15","","15","","16.1","","97.92","","","","","","NA"
"2018-09-27 17:00","2018","09","27","17:00","14.6","","9.7","","72","","13","","15","","16.1","","97.87","","","","","","NA"
"2018-09-27 18:00","2018","09","27","18:00","14.0","","9.7","","75","","15","","9","","16.1","","97.85","","","","","","NA"
"2018-09-27 19:00","2018","09","27","19:00","11.1","","9.9","","92","","","","0","","16.1","","97.84","","","","","","NA"
"2018-09-27 20:00","2018","09","27","20:00","11.0","","9.9","","93","","7","","4","","16.1","","97.82","","","","","","NA"
"2018-09-27 21:00","2018","09","27","21:00","9.6","","9.1","","97","","8","","5","","16.1","","97.79","","","","","","NA"
"2018-09-27 22:00","2018","09","27","22:00","9.6","","9.3","","98","","","","0","","16.1","","97.77","","","","","","NA"
"2018-09-27 23:00","2018","09","27","23:00","8.8","","8.7","","99","","","","0","","11.3","","97.79","","","","","","NA"
"2018-09-28 00:00","2018","09","28","00:00","7.8","","7.7","","99","","9","","8","","11.3","","97.74","","","","","","NA"
"2018-09-28 01:00","2018","09","28","01:00","6.9","","6.8","","99","","30","","4","","0.8","","97.76","","","","","","Rain,Fog"
"2018-09-28 02:00","2018","09","28","02:00","7.1","","7.0","","99","","","","0","","4.8","","97.77","","","","","","Fog"
"2018-09-28 03:00","2018","09","28","03:00","5.5","","5.4","","99","","","","0","","0.2","","97.79","","","","","","Fog"
"2018-09-28 04:00","2018","09","28","04:00","4.9","","4.8","","99","","","","0","","0.2","","97.75","","","","","","Rain,Fog"
"2018-09-28 05:00","2018","09","28","05:00","4.7","","4.7","","100","","","","0","","0.4","","97.77","","","","","","Fog"
"2018-09-28 06:00","2018","09","28","06:00","4.6","","4.6","","100","","12","","4","","1.6","","97.79","","","","","","Rain,Fog"
"2018-09-28 07:00","2018","09","28","07:00","6.7","","6.7","","100","","16","","4","","16.1","","97.82","","","","","","NA"
"2018-09-28 08:00","2018","09","28","08:00","11.6","","10.4","","92","","18","","8","","16.1","","97.84","","","","","","NA"
"2018-09-28 09:00","2018","09","28","09:00","14.3","","8.9","","70","","21","","24","","16.1","","97.80","","","","","","NA"
"2018-09-28 10:00","2018","09","28","10:00","16.6","","7.6","","55","","22","","34","","16.1","","97.80","","","","","","NA"
"2018-09-28 11:00","2018","09","28","11:00","18.4","","9.1","","54","","23","","24","","16.1","","97.83","","","","","","NA"
"2018-09-28 12:00","2018","09","28","12:00","20.5","","8.4","","45","","24","","30","","16.1","","97.77","","","","","","NA"
"2018-09-28 13:00","2018","09","28","13:00","19.6","","9.4","","51","","26","","24","","16.1","","97.76","","","","","","NA"
"2018-09-28 14:00","2018","09","28","14:00","19.5","","11.7","","60","","30","","28","","16.1","","97.77","","","","","","NA"
"2018-09-28 15:00","2018","09","28","15:00","18.4","","11.1","","62","","28","","28","","16.1","","97.84","","","","","","NA"
"2018-09-28 16:00","2018","09","28","16:00","15.4","","11.0","","75","","30","","21","","16.1","","97.88","","","","","","NA"
"2018-09-28 17:00","2018","09","28","17:00","13.3","","10.3","","82","","30","","15","","16.1","","97.95","","","","","","NA"
"2018-09-28 18:00","2018","09","28","18:00","11.5","","9.6","","88","","31","","17","","16.1","","98.00","","","","","","NA"
"2018-09-28 19:00","2018","09","28","19:00","10.9","","9.2","","89","","29","","8","","16.1","","98.09","","","","","","Rain"
"2018-09-28 20:00","2018","09","28","20:00","10.6","","9.0","","90","","28","","15","","16.1","","98.14","","","","","","Rain"
"2018-09-28 21:00","2018","09","28","21:00","10.2","","9.0","","92","","26","","11","","16.1","","98.17","","","","","","Rain"
"2018-09-28 22:00","2018","09","28","22:00","10.1","","9.3","","95","","25","","9","","12.9","","98.20","","","","","","Rain"
"2018-09-28 23:00","2018","09","28","23:00","10.2","","8.2","","88","","31","","21","","16.1","","98.23","","","","","","Rain"
"2018-09-29 00:00","2018","09","29","00:00","9.5","","8.0","","90","","25","","9","","16.1","","98.23","","","","","","Rain"
"2018-09-29 01:00","2018","09","29","01:00","9.2","","7.8","","91","","23","","11","","16.1","","98.28","","","","","","NA"
"2018-09-29 02:00","2018","09","29","02:00","8.2","","7.3","","94","","22","","9","","16.1","","98.34","","","","","","NA"
"2018-09-29 03:00","2018","09","29","03:00","7.2","","6.8","","97","","","","0","","16.1","","98.36","","","","","","NA"
"2018-09-29 04:00","2018","09","29","04:00","7.7","","7.3","","97","","23","","11","","16.1","","98.42","","","","","","NA"
"2018-09-29 05:00","2018","09","29","05:00","7.1","","6.5","","96","","24","","11","","16.1","","98.45","","","","","","NA"
"2018-09-29 06:00","2018","09","29","06:00","6.7","","6.1","","96","","23","","11","","16.1","","98.50","","","","","","NA"
"2018-09-29 07:00","2018","09","29","07:00","7.1","","6.4","","95","","23","","13","","16.1","","98.55","","","","","","NA"
"2018-09-29 08:00","2018","09","29","08:00","8.8","","7.2","","90","","24","","13","","16.1","","98.60","","","","","","NA"
"2018-09-29 09:00","2018","09","29","09:00","10.1","","6.3","","77","","29","","18","","16.1","","98.62","","","","","","NA"
"2018-09-29 10:00","2018","09","29","10:00","11.6","","5.0","","64","","27","","21","","16.1","","98.66","","","","","","NA"
"2018-09-29 11:00","2018","09","29","11:00","11.2","","3.7","","60","","30","","21","","16.1","","98.66","","","","","","NA"
"2018-09-29 12:00","2018","09","29","12:00","13.5","","3.0","","49","","27","","13","","16.1","","98.68","","","","","","NA"
"2018-09-29 13:00","2018","09","29","13:00","15.2","","4.1","","47","","27","","24","","16.1","","98.65","","","","","","NA"
"2018-09-29 14:00","2018","09","29","14:00","13.7","","2.2","","46","","29","","26","","16.1","","98.64","","","","","","NA"
"2018-09-29 15:00","2018","09","29","15:00","14.2","","1.9","","43","","28","","24","","16.1","","98.63","","","","","","NA"
"2018-09-29 16:00","2018","09","29","16:00","13.4","","3.0","","49","","27","","22","","16.1","","98.67","","","","","","NA"
"2018-09-29 17:00","2018","09","29","17:00","12.3","","2.8","","52","","29","","21","","16.1","","98.68","","","","","","NA"
"2018-09-29 18:00","2018","09","29","18:00","10.5","","3.2","","60","","27","","13","","16.1","","98.67","","","","","","NA"
"2018-09-29 19:00","2018","09","29","19:00","9.9","","4.3","","68","","26","","9","","16.1","","98.72","","","","","","NA"
"2018-09-29 20:00","2018","09","29","20:00","9.8","","4.6","","70","","31","","9","","16.1","","98.74","","","","","","NA"
"2018-09-29 21:00","2018","09","29","21:00","8.8","","5.0","","77","","31","","5","","16.1","","98.77","","","","","","NA"
"2018-09-29 22:00","2018","09","29","22:00","8.1","","5.6","","84","","33","","4","","16.1","","98.78","","","","","","NA"
"2018-09-29 23:00","2018","09","29","23:00","7.3","","5.9","","91","","","","0","","16.1","","98.77","","","","","","NA"
"2018-09-30 00:00","2018","09","30","00:00","7.4","","6.1","","92","","11","","4","","16.1","","98.77","","","","","","NA"
"2018-09-30 01:00","2018","09","30","01:00","7.7","","6.7","","93","","","M","4","","16.1","","98.74","","","","","","NA"
"2018-09-30 02:00","2018","09","30","02:00","8.0","","7.3","","95","","34","","4","","16.1","","98.79","","","","","","NA"
"2018-09-30 03:00","2018","09","30","03:00","8.2","","7.2","","93","","13","","4","","16.1","","98.82","","","","","","Rain"
"2018-09-30 04:00","2018","09","30","04:00","8.4","","7.1","","91","","17","","8","","16.1","","98.83","","","","","","Rain"
"2018-09-30 05:00","2018","09","30","05:00","8.3","","7.0","","92","","19","","8","","16.1","","98.84","","","","","","Rain"
"2018-09-30 06:00","2018","09","30","06:00","8.2","","7.1","","93","","20","","8","","16.1","","98.85","","","","","","NA"
"2018-09-30 07:00","2018","09","30","07:00","8.2","","6.8","","91","","19","","9","","16.1","","98.83","","","","","","NA"
"2018-09-30 08:00","2018","09","30","08:00","8.6","","7.2","","91","","21","","8","","16.1","","98.85","","","","","","NA"
"2018-09-30 09:00","2018","09","30","09:00","9.1","","7.2","","88","","22","","8","","16.1","","98.82","","","","","","NA"
"2018-09-30 10:00","2018","09","30","10:00","9.3","","7.3","","87","","","","0","","16.1","","98.82","","","","","","NA"
"2018-09-30 11:00","2018","09","30","11:00","9.3","","7.6","","89","","","M","4","","8.1","","98.80","","","","","","Fog"
"2018-09-30 12:00","2018","09","30","12:00","9.7","","8.0","","89","","15","","5","","16.1","","98.76","","","","","","NA"
"2018-09-30 13:00","2018","09","30","13:00","10.0","","7.8","","86","","11","","5","","16.1","","98.69","","","","","","NA"
"2018-09-30 14:00","2018","09","30","14:00","10.4","","7.9","","84","","8","","8","","16.1","","98.62","","","","","","NA"
"2018-09-30 15:00","2018","09","30","15:00","10.7","","8.3","","85","","8","","8","","16.1","","98.55","","","","","","NA"
"2018-09-30 16:00","2018","09","30","16:00","11.1","","8.5","","84","","9","","8","","16.1","","98.53","","","","","","NA"
"2018-09-30 17:00","2018","09","30","17:00","10.9","","8.5","","85","","9","","8","","16.1","","98.54","","","","","","NA"
"2018-09-30 18:00","2018","09","30","18:00","10.7","","8.5","","86","","6","","5","","16.1","","98.51","","","","","","NA"
"2018-09-30 19:00","2018","09","30","19:00","10.7","","8.3","","85","","3","","8","","16.1","","98.54","","","","","","NA"
"2018-09-30 20:00","2018","09","30","20:00","9.4","","8.8","","96","","6","","9","","4.0","","98.53","","","","","","Rain,Fog"
"2018-09-30 21:00","2018","09","30","21:00","9.3","","9.0","","98","","3","","8","","2.4","","98.58","","","","","","Moderate Rain,Fog"
"2018-09-30 22:00","2018","09","30","22:00","9.1","","8.7","","97","","5","","13","","2.4","","98.60","","","","","","Moderate Rain,Fog"
"2018-09-30 23:00","2018","09","30","23:00","8.9","","8.5","","97","","5","","9","","2.8","","98.62","","","","","","Moderate Rain,Fog"
