"Station Name","LONDON CS"
"Province","ONTARIO"
"Current Station Operator","Environment and Climate Change Canada - Meteorological Service of Canada"
"Latitude","43.03"
"Longitude","-81.15"
"Elevation","278.00"
"Climate Identifier","6144478"
"WMO Identifier","71622"
"TC Identifier","WSN"
"All times are specified in Local Standard Time (LST). Add 1 hour to adjust for Daylight Saving Time where and when it is observed."

"Legend"
"E","Estimated"
"M","Missing"
"NA","Not Available"

"Date/Time","Year","Month","Day","Time","Temp (°C)","Temp Flag","Dew Point Temp (°C)","Dew Point Temp Flag","Rel Hum (%)","Rel Hum Flag","Wind Dir (10s deg)","Wind Dir Flag","Wind Spd (km/h)","Wind Spd Flag","Visibility (km)","Visibility Flag","Stn Press (kPa)","Stn Press Flag","Hmdx","Hmdx Flag","Wind Chill","Wind Chill Flag","Weather"
"2018-08-01 00:00","2018","08","01","00:00","20.5","","18.8","","90","","","M","","M","","","98.01","","27","","","","NA"
"2018-08-01 01:00","2018","08","01","01:00","21.0","","19.3","","90","","","M","","M","","","97.98","","28","","","","NA"
"2018-08-01 02:00","2018","08","01","02:00","21.2","","19.7","","91","","","M","","M","","","97.90","","29","","","","NA"
"2018-08-01 03:00","2018","08","01","03:00","21.5","","20.1","","92","","","M","","M","","","97.88","","29","","","","NA"
"2018-08-01 04:00","2018","08","01","04:00","21.4","","20.0","","92","","","M","","M","","","97.85","","29","","","","NA"
"2018-08-01 05:00","2018","08","01","05:00","21.3","","20.0","","93","","","M","","M","","","97.86","","29","","","","NA"
"2018-08-01 06:00","2018","08","01","06:00","21.9","","20.3","","91","","","M","","M","","","97.88","","30","","","","NA"
"2018-08-01 07:00","2018","08","01","07:00","22.4","","19.7","","85","","","M","","M","","","97.89","","30","","","","NA"
"2018-08-01 08:00","2018","08","01","08:00","22.1","","19.9","","87","","","M","","M","","","97.88","","30","","","","NA"
"2018-08-01 09:00","2018","08","01","09:00","22.6","","19.3","","82","","","M","","M","","","97.91","","30","","","","NA"
"2018-08-01 10:00","2018","08","01","10:00","22.0","","18.7","","81","","","M","","M","","","97.99","","29","","","","NA"
"2018-08-01 11:00","2018","08","01","11:00","22.3","","18.9","","81","","","M","","M","","","98.04","","29","","","","NA"
"2018-08-01 12:00","2018","08","01","12:00","23.2","","18.9","","77","","","M","","M","","","98.06","","30","","","","NA"
"2018-08-01 13:00","2018","08","01","13:00","22.9","","19.3","","80","","","M","","M","","","98.04","","30","","","","NA"
"2018-08-01 14:00","2018","08","01","14:00","23.7","","19.2","","76","","","M","","M","","","98.03","","31","","","","NA"
"2018-08-01 15:00","2018","08","01","15:00","22.1","","19.7","","86","","","M","","M","","","98.11","","29","","","","NA"
"2018-08-01 16:00","2018","08","01","16:00","22.7","","18.3","","77","","","M","","M","","","98.12","","29","","","","NA"
"2018-08-01 17:00","2018","08","01","17:00","22.3","","18.3","","78","","","M","","M","","","98.12","","29","","","","NA"
"2018-08-01 18:00","2018","08","01","18:00","21.8","","18.2","","80","","","M","","M","","","98.14","","28","","","","NA"
"2018-08-01 19:00","2018","08","01","19:00","21.1","","17.4","","80","","","M","","M","","","98.20","","27","","","","NA"
"2018-08-01 20:00","2018","08","01","20:00","20.7","","17.8","","83","","","M","","M","","","98.21","","27","","","","NA"
"2018-08-01 21:00","2018","08","01","21:00","20.1","","18.3","","89","","","M","","M","","","98.28","","26","","","","NA"
"2018-08-01 22:00","2018","08","01","22:00","19.9","","18.3","","90","","","M","","M","","","98.29","","","","","","NA"
"2018-08-01 23:00","2018","08","01","23:00","19.4","","17.9","","92","","","M","","M","","","98.28","","","","","","NA"
"2018-08-02 00:00","2018","08","02","00:00","19.3","","17.8","","91","","","M","","M","","","98.31","","","","","","NA"
"2018-08-02 01:00","2018","08","02","01:00","19.0","","17.6","","91","","","M","","M","","","98.29","","","","","","NA"
"2018-08-02 02:00","2018","08","02","02:00","18.8","","17.0","","90","","","M","","M","","","98.31","","","","","","NA"
"2018-08-02 03:00","2018","08","02","03:00","18.2","","16.3","","89","","","M","","M","","","98.34","","","","","","NA"
"2018-08-02 04:00","2018","08","02","04:00","17.3","","16.1","","93","","","M","","M","","","98.37","","","","","","NA"
"2018-08-02 05:00","2018","08","02","05:00","16.8","","15.4","","91","","","M","","M","","","98.37","","","","","","NA"
"2018-08-02 06:00","2018","08","02","06:00","17.1","","16.2","","95","","","M","","M","","","98.43","","","","","","NA"
"2018-08-02 07:00","2018","08","02","07:00","18.8","","17.1","","90","","","M","","M","","","98.48","","","","","","NA"
"2018-08-02 08:00","2018","08","02","08:00","21.2","","16.8","","76","","","M","","M","","","98.52","","26","","","","NA"
"2018-08-02 09:00","2018","08","02","09:00","21.9","","17.3","","75","","","M","","M","","","98.50","","27","","","","NA"
"2018-08-02 10:00","2018","08","02","10:00","23.4","","18.0","","72","","","M","","M","","","98.52","","29","","","","NA"
"2018-08-02 11:00","2018","08","02","11:00","24.8","","18.4","","68","","","M","","M","","","98.50","","31","","","","NA"
"2018-08-02 12:00","2018","08","02","12:00","25.2","","17.9","","64","","","M","","M","","","98.51","","31","","","","NA"
"2018-08-02 13:00","2018","08","02","13:00","25.5","","19.2","","68","","","M","","M","","","98.48","","32","","","","NA"
"2018-08-02 14:00","2018","08","02","14:00","24.9","","18.3","","67","","","M","","M","","","98.51","","31","","","","NA"
"2018-08-02 15:00","2018","08","02","15:00","24.9","","17.8","","65","","","M","","M","","","98.50","","31","","","","NA"
"2018-08-02 16:00","2018","08","02","16:00","24.5","","17.8","","66","","","M","","M","","","98.46","","30","","","","NA"
"2018-08-02 17:00","2018","08","02","17:00","24.1","","17.5","","66","","","M","","M","","","98.45","","30","","","","NA"
"2018-08-02 18:00","2018","08","02","18:00","23.7","","16.8","","65","","","M","","M","","","98.41","","29","","","","NA"
"2018-08-02 19:00","2018","08","02","19:00","23.4","","16.3","","64","","","M","","M","","","98.47","","28","","","","NA"
"2018-08-02 20:00","2018","08","02","20:00","21.4","","16.9","","76","","","M","","M","","","98.53","","27","","","","NA"
"2018-08-02 21:00","2018","08","02","21:00","20.1","","17.6","","86","","","M","","M","","","98.52","","26","","","","NA"
"2018-08-02 22:00","2018","08","02","22:00","19.1","","17.9","","93","","","M","","M","","","98.54","","","","","","NA"
"2018-08-02 23:00","2018","08","02","23:00","18.5","","17.8","","96","","","M","","M","","","98.55","","","","","","NA"
"2018-08-03 00:00","2018","08","03","00:00","17.6","","16.4","","93","","","M","","M","","","98.54","","","","","","NA"
"2018-08-03 01:00","2018","08","03","01:00","18.0","","17.4","","97","","","M","","M","","","98.51","","","","","","NA"
"2018-08-03 02:00","2018","08","03","02:00","17.6","","16.7","","95","","","M","","M","","","98.49","","","","","","NA"
"2018-08-03 03:00","2018","08","03","03:00","17.6","","16.8","","95","","","M","","M","","","98.50","","","","","","NA"
"2018-08-03 04:00","2018","08","03","04:00","16.7","","16.0","","96","","","M","","M","","","98.49","","","","","","NA"
"2018-08-03 05:00","2018","08","03","05:00","16.8","","16.4","","98","","","M","","M","","","98.51","","","","","","NA"
"2018-08-03 06:00","2018","08","03","06:00","17.6","","17.4","","99","","","M","","M","","","98.59","","","","","","NA"
"2018-08-03 07:00","2018","08","03","07:00","18.6","","18.3","","99","","","M","","M","","","98.59","","","","","","NA"
"2018-08-03 08:00","2018","08","03","08:00","21.4","","20.7","","95","","","M","","M","","","98.61","","30","","","","NA"
"2018-08-03 09:00","2018","08","03","09:00","24.3","","19.7","","76","","","M","","M","","","98.64","","32","","","","NA"
"2018-08-03 10:00","2018","08","03","10:00","25.0","","19.4","","71","","","M","","M","","","98.63","","32","","","","NA"
"2018-08-03 11:00","2018","08","03","11:00","26.6","","19.4","","64","","","M","","M","","","98.64","","34","","","","NA"
"2018-08-03 12:00","2018","08","03","12:00","26.3","","20.4","","70","","","M","","M","","","98.62","","34","","","","NA"
"2018-08-03 13:00","2018","08","03","13:00","27.3","","19.0","","61","","","M","","M","","","98.58","","34","","","","NA"
"2018-08-03 14:00","2018","08","03","14:00","27.5","","19.9","","63","","","M","","M","","","98.55","","35","","","","NA"
"2018-08-03 15:00","2018","08","03","15:00","26.9","","18.1","","59","","","M","","M","","","98.50","","33","","","","NA"
"2018-08-03 16:00","2018","08","03","16:00","26.9","","18.8","","61","","","M","","M","","","98.51","","34","","","","NA"
"2018-08-03 17:00","2018","08","03","17:00","26.3","","18.6","","63","","","M","","M","","","98.49","","33","","","","NA"
"2018-08-03 18:00","2018","08","03","18:00","25.8","","17.6","","61","","","M","","M","","","98.50","","32","","","","NA"
"2018-08-03 19:00","2018","08","03","19:00","24.3","","17.9","","67","","","M","","M","","","98.52","","30","","","","NA"
"2018-08-03 20:00","2018","08","03","20:00","22.0","","17.6","","76","","","M","","M","","","98.54","","28","","","","NA"
"2018-08-03 21:00","2018","08","03","21:00","21.4","","17.9","","81","","","M","","M","","","98.57","","27","","","","NA"
"2018-08-03 22:00","2018","08","03","22:00","20.1","","17.4","","85","","","M","","M","","","98.57","","26","","","","NA"
"2018-08-03 23:00","2018","08","03","23:00","19.4","","17.6","","90","","","M","","M","","","98.59","","","","","","NA"
"2018-08-04 00:00","2018","08","04","00:00","19.7","","18.1","","91","","","M","","M","","","98.59","","","","","","NA"
"2018-08-04 01:00","2018","08","04","01:00","19.0","","17.6","","92","","","M","","M","","","98.60","","","","","","NA"
"2018-08-04 02:00","2018","08","04","02:00","18.6","","17.5","","93","","","M","","M","","","98.55","","","","","","NA"
"2018-08-04 03:00","2018","08","04","03:00","18.6","","17.3","","93","","","M","","M","","","98.54","","","","","","NA"
"2018-08-04 04:00","2018","08","04","04:00","16.8","","16.3","","97","","","M","","M","","","98.55","","","","","","NA"
"2018-08-04 05:00","2018","08","04","05:00","17.1","","16.5","","97","","","M","","M","","","98.59","","","","","","NA"
"2018-08-04 06:00","2018","08","04","06:00","16.7","","16.4","","98","","","M","","M","","","98.65","","","","","","NA"
"2018-08-04 07:00","2018","08","04","07:00","18.5","","18.2","","98","","","M","","M","","","98.72","","","","","","NA"
"2018-08-04 08:00","2018","08","04","08:00","22.5","","20.4","","88","","","M","","M","","","98.75","","30","","","","NA"
"2018-08-04 09:00","2018","08","04","09:00","25.0","","20.4","","76","","","M","","M","","","98.75","","33","","","","NA"
"2018-08-04 10:00","2018","08","04","10:00","26.4","","17.2","","57","","","M","","M","","","98.76","","32","","","","NA"
"2018-08-04 11:00","2018","08","04","11:00","27.0","","17.2","","55","","","M","","M","","","98.76","","32","","","","NA"
"2018-08-04 12:00","2018","08","04","12:00","27.1","","16.3","","52","","","M","","M","","","98.75","","32","","","","NA"
"2018-08-04 13:00","2018","08","04","13:00","28.5","","15.9","","46","","","M","","M","","","98.72","","33","","","","NA"
"2018-08-04 14:00","2018","08","04","14:00","28.8","","16.8","","48","","","M","","M","","","98.72","","34","","","","NA"
"2018-08-04 15:00","2018","08","04","15:00","29.1","","16.8","","47","","","M","","M","","","98.70","","34","","","","NA"
"2018-08-04 16:00","2018","08","04","16:00","28.5","","18.1","","53","","","M","","M","","","98.70","","35","","","","NA"
"2018-08-04 17:00","2018","08","04","17:00","27.2","","18.6","","60","","","M","","M","","","98.68","","34","","","","NA"
"2018-08-04 18:00","2018","08","04","18:00","26.6","","18.0","","59","","","M","","M","","","98.71","","33","","","","NA"
"2018-08-04 19:00","2018","08","04","19:00","25.4","","17.3","","61","","","M","","M","","","98.68","","31","","","","NA"
"2018-08-04 20:00","2018","08","04","20:00","22.9","","17.4","","71","","","M","","M","","","98.71","","28","","","","NA"
"2018-08-04 21:00","2018","08","04","21:00","21.3","","17.1","","77","","","M","","M","","","98.76","","27","","","","NA"
"2018-08-04 22:00","2018","08","04","22:00","19.9","","17.3","","85","","","M","","M","","","98.77","","","","","","NA"
"2018-08-04 23:00","2018","08","04","23:00","19.9","","17.7","","87","","","M","","M","","","98.77","","","","","","NA"
"2018-08-05 00:00","2018","08","05","00:00","19.2","","18.0","","93","","","M","","M","","","98.79","","","","","","NA"
"2018-08-05 01:00","2018","08","05","01:00","17.8","","16.5","","92","","","M","","M","","","98.77","","","","","","NA"
"2018-08-05 02:00","2018","08","05","02:00","18.2","","17.5","","96","","","M","","M","","","98.76","","","","","","NA"
"2018-08-05 03:00","2018","08","05","03:00","17.7","","16.9","","96","","","M","","M","","","98.75","","","","","","NA"
"2018-08-05 04:00","2018","08","05","04:00","17.5","","16.8","","96","","","M","","M","","","98.75","","","","","","NA"
"2018-08-05 05:00","2018","08","05","05:00","17.1","","16.4","","96","","","M","","M","","","98.78","","","","","","NA"
"2018-08-05 06:00","2018","08","05","06:00","17.5","","16.9","","96","","","M","","M","","","98.80","","","","","","NA"
"2018-08-05 07:00","2018","08","05","07:00","20.5","","20.0","","97","","","M","","M","","","98.83","","28","","","","NA"
"2018-08-05 08:00","2018","08","05","08:00","24.8","","22.1","","85","","","M","","M","","","98.86","","34","","","","NA"
"2018-08-05 09:00","2018","08","05","09:00","27.3","","21.6","","71","","","M","","M","","","98.84","","36","","","","NA"
"2018-08-05 10:00","2018","08","05","10:00","28.0","","21.3","","67","","","M","","M","","","98.82","","37","","","","NA"
"2018-08-05 11:00","2018","08","05","11:00","29.5","","21.2","","61","","","M","","M","","","98.82","","38","","","","NA"
"2018-08-05 12:00","2018","08","05","12:00","30.1","","21.2","","59","","","M","","M","","","98.81","","39","","","","NA"
"2018-08-05 13:00","2018","08","05","13:00","30.2","","20.7","","57","","","M","","M","","","98.76","","38","","","","NA"
"2018-08-05 14:00","2018","08","05","14:00","30.4","","21.1","","58","","","M","","M","","","98.69","","39","","","","NA"
"2018-08-05 15:00","2018","08","05","15:00","29.8","","22.7","","66","","","M","","M","","","98.65","","40","","","","NA"
"2018-08-05 16:00","2018","08","05","16:00","29.4","","22.5","","67","","","M","","M","","","98.63","","39","","","","NA"
"2018-08-05 17:00","2018","08","05","17:00","28.9","","22.8","","70","","","M","","M","","","98.60","","39","","","","NA"
"2018-08-05 18:00","2018","08","05","18:00","28.8","","21.7","","66","","","M","","M","","","98.55","","38","","","","NA"
"2018-08-05 19:00","2018","08","05","19:00","27.5","","20.7","","67","","","M","","M","","","98.56","","36","","","","NA"
"2018-08-05 20:00","2018","08","05","20:00","26.4","","20.4","","70","","","M","","M","","","98.57","","34","","","","NA"
"2018-08-05 21:00","2018","08","05","21:00","25.9","","20.1","","70","","","M","","M","","","98.64","","34","","","","NA"
"2018-08-05 22:00","2018","08","05","22:00","25.4","","20.3","","73","","","M","","M","","","98.63","","33","","","","NA"
"2018-08-05 23:00","2018","08","05","23:00","24.6","","20.5","","78","","","M","","M","","","98.65","","33","","","","NA"
"2018-08-06 00:00","2018","08","06","00:00","24.9","","19.8","","73","","","M","","M","","","98.65","","32","","","","NA"
"2018-08-06 01:00","2018","08","06","01:00","24.9","","19.1","","70","","","M","","M","","","98.58","","32","","","","NA"
"2018-08-06 02:00","2018","08","06","02:00","24.6","","19.2","","72","","","M","","M","","","98.52","","32","","","","NA"
"2018-08-06 03:00","2018","08","06","03:00","24.5","","19.6","","74","","","M","","M","","","98.50","","32","","","","NA"
"2018-08-06 04:00","2018","08","06","04:00","24.6","","19.7","","74","","","M","","M","","","98.49","","32","","","","NA"
"2018-08-06 05:00","2018","08","06","05:00","24.4","","20.0","","76","","","M","","M","","","98.52","","32","","","","NA"
"2018-08-06 06:00","2018","08","06","06:00","23.9","","20.3","","80","","","M","","M","","","98.55","","32","","","","NA"
"2018-08-06 07:00","2018","08","06","07:00","24.7","","21.0","","80","","","M","","M","","","98.58","","33","","","","NA"
"2018-08-06 08:00","2018","08","06","08:00","25.9","","21.5","","77","","","M","","M","","","98.59","","35","","","","NA"
"2018-08-06 09:00","2018","08","06","09:00","27.1","","21.4","","71","","","M","","M","","","98.54","","36","","","","NA"
"2018-08-06 10:00","2018","08","06","10:00","28.6","","22.5","","69","","","M","","M","","","98.56","","38","","","","NA"
"2018-08-06 11:00","2018","08","06","11:00","29.6","","22.7","","67","","","M","","M","","","98.56","","40","","","","NA"
"2018-08-06 12:00","2018","08","06","12:00","29.3","","22.3","","66","","","M","","M","","","98.49","","39","","","","NA"
"2018-08-06 13:00","2018","08","06","13:00","22.0","","19.6","","86","","","M","","M","","","98.54","","29","","","","NA"
"2018-08-06 14:00","2018","08","06","14:00","23.5","","20.7","","84","","","M","","M","","","98.55","","32","","","","NA"
"2018-08-06 15:00","2018","08","06","15:00","23.3","","16.9","","67","","","M","","M","","","98.49","","29","","","","NA"
"2018-08-06 16:00","2018","08","06","16:00","24.6","","19.1","","72","","","M","","M","","","98.40","","31","","","","NA"
"2018-08-06 17:00","2018","08","06","17:00","23.8","","20.4","","81","","","M","","M","","","98.41","","32","","","","NA"
"2018-08-06 18:00","2018","08","06","18:00","22.9","","20.4","","86","","","M","","M","","","98.31","","31","","","","NA"
"2018-08-06 19:00","2018","08","06","19:00","22.6","","20.2","","87","","","M","","M","","","98.26","","30","","","","NA"
"2018-08-06 20:00","2018","08","06","20:00","22.5","","20.3","","87","","","M","","M","","","98.30","","30","","","","NA"
"2018-08-06 21:00","2018","08","06","21:00","22.0","","21.0","","94","","","M","","M","","","98.32","","30","","","","NA"
"2018-08-06 22:00","2018","08","06","22:00","22.0","","21.0","","94","","","M","","M","","","98.33","","30","","","","NA"
"2018-08-06 23:00","2018","08","06","23:00","22.3","","20.9","","92","","","M","","M","","","98.28","","31","","","","NA"
"2018-08-07 00:00","2018","08","07","00:00","22.0","","20.8","","93","","","M","","M","","","98.25","","30","","","","NA"
"2018-08-07 01:00","2018","08","07","01:00","21.7","","20.5","","93","","","M","","M","","","98.20","","30","","","","NA"
"2018-08-07 02:00","2018","08","07","02:00","21.4","","20.6","","95","","","M","","M","","","98.18","","29","","","","NA"
"2018-08-07 03:00","2018","08","07","03:00","21.5","","20.8","","96","","","M","","M","","","98.19","","30","","","","NA"
"2018-08-07 04:00","2018","08","07","04:00","21.5","","20.8","","96","","","M","","M","","","98.19","","30","","","","NA"
"2018-08-07 05:00","2018","08","07","05:00","21.4","","20.6","","95","","","M","","M","","","98.22","","29","","","","NA"
"2018-08-07 06:00","2018","08","07","06:00","21.3","","20.5","","96","","","M","","M","","","98.26","","29","","","","NA"
"2018-08-07 07:00","2018","08","07","07:00","21.7","","20.6","","94","","","M","","M","","","98.25","","30","","","","NA"
"2018-08-07 08:00","2018","08","07","08:00","22.4","","20.2","","87","","","M","","M","","","98.24","","30","","","","NA"
"2018-08-07 09:00","2018","08","07","09:00","23.1","","19.6","","81","","","M","","M","","","98.26","","30","","","","NA"
"2018-08-07 10:00","2018","08","07","10:00","23.8","","19.8","","79","","","M","","M","","","98.33","","31","","","","NA"
"2018-08-07 11:00","2018","08","07","11:00","24.5","","19.8","","75","","","M","","M","","","98.33","","32","","","","NA"
"2018-08-07 12:00","2018","08","07","12:00","25.3","","20.6","","75","","","M","","M","","","98.29","","33","","","","NA"
"2018-08-07 13:00","2018","08","07","13:00","26.0","","19.3","","67","","","M","","M","","","98.25","","33","","","","NA"
"2018-08-07 14:00","2018","08","07","14:00","25.8","","20.2","","71","","","M","","M","","","98.20","","34","","","","NA"
"2018-08-07 15:00","2018","08","07","15:00","27.4","","18.7","","59","","","M","","M","","","98.15","","34","","","","NA"
"2018-08-07 16:00","2018","08","07","16:00","26.7","","19.2","","64","","","M","","M","","","98.10","","34","","","","NA"
"2018-08-07 17:00","2018","08","07","17:00","26.4","","18.9","","63","","","M","","M","","","98.09","","33","","","","NA"
"2018-08-07 18:00","2018","08","07","18:00","26.3","","18.8","","63","","","M","","M","","","98.09","","33","","","","NA"
"2018-08-07 19:00","2018","08","07","19:00","25.5","","18.7","","66","","","M","","M","","","98.12","","32","","","","NA"
"2018-08-07 20:00","2018","08","07","20:00","22.1","","19.4","","85","","","M","","M","","","98.16","","29","","","","NA"
"2018-08-07 21:00","2018","08","07","21:00","22.2","","20.9","","92","","","M","","M","","","98.19","","31","","","","NA"
"2018-08-07 22:00","2018","08","07","22:00","21.3","","20.6","","96","","","M","","M","","","98.12","","29","","","","NA"
"2018-08-07 23:00","2018","08","07","23:00","20.5","","19.4","","94","","","M","","M","","","98.09","","28","","","","NA"
"2018-08-08 00:00","2018","08","08","00:00","20.2","","19.3","","94","","","M","","M","","","98.07","","27","","","","NA"
"2018-08-08 01:00","2018","08","08","01:00","19.8","","19.3","","97","","","M","","M","","","98.06","","","","","","NA"
"2018-08-08 02:00","2018","08","08","02:00","20.4","","19.9","","97","","","M","","M","","","98.02","","28","","","","NA"
"2018-08-08 03:00","2018","08","08","03:00","20.3","","19.8","","97","","","M","","M","","","97.94","","28","","","","NA"
"2018-08-08 04:00","2018","08","08","04:00","20.6","","20.3","","98","","","M","","M","","","97.91","","28","","","","NA"
"2018-08-08 05:00","2018","08","08","05:00","20.6","","20.3","","98","","","M","","M","","","97.93","","28","","","","NA"
"2018-08-08 06:00","2018","08","08","06:00","20.6","","20.3","","98","","","M","","M","","","97.96","","28","","","","NA"
"2018-08-08 07:00","2018","08","08","07:00","20.8","","20.4","","97","","","M","","M","","","97.93","","29","","","","NA"
"2018-08-08 08:00","2018","08","08","08:00","21.5","","20.7","","95","","","M","","M","","","97.93","","30","","","","NA"
"2018-08-08 09:00","2018","08","08","09:00","22.4","","20.4","","89","","","M","","M","","","97.91","","30","","","","NA"
"2018-08-08 10:00","2018","08","08","10:00","23.1","","21.2","","89","","","M","","M","","","97.85","","32","","","","NA"
"2018-08-08 11:00","2018","08","08","11:00","24.6","","22.3","","87","","","M","","M","","","97.78","","34","","","","NA"
"2018-08-08 12:00","2018","08","08","12:00","19.6","","17.3","","87","","","M","","M","","","97.85","","","","","","NA"
"2018-08-08 13:00","2018","08","08","13:00","20.6","","18.2","","86","","","M","","M","","","97.85","","27","","","","NA"
"2018-08-08 14:00","2018","08","08","14:00","24.9","","19.7","","73","","","M","","M","","","97.82","","32","","","","NA"
"2018-08-08 15:00","2018","08","08","15:00","24.6","","20.4","","78","","","M","","M","","","97.80","","33","","","","NA"
"2018-08-08 16:00","2018","08","08","16:00","25.8","","19.6","","69","","","M","","M","","","97.83","","33","","","","NA"
"2018-08-08 17:00","2018","08","08","17:00","25.1","","18.9","","68","","","M","","M","","","97.84","","32","","","","NA"
"2018-08-08 18:00","2018","08","08","18:00","23.1","","18.2","","74","","","M","","M","","","97.86","","29","","","","NA"
"2018-08-08 19:00","2018","08","08","19:00","22.2","","18.1","","77","","","M","","M","","","97.88","","28","","","","NA"
"2018-08-08 20:00","2018","08","08","20:00","21.2","","17.9","","82","","","M","","M","","","97.89","","27","","","","NA"
"2018-08-08 21:00","2018","08","08","21:00","20.1","","17.8","","87","","","M","","M","","","97.95","","26","","","","NA"
"2018-08-08 22:00","2018","08","08","22:00","19.1","","17.4","","90","","","M","","M","","","97.95","","","","","","NA"
"2018-08-08 23:00","2018","08","08","23:00","18.3","","17.3","","94","","","M","","M","","","97.97","","","","","","NA"
"2018-08-09 00:00","2018","08","09","00:00","17.6","","16.8","","95","","","M","","M","","","97.97","","","","","","NA"
"2018-08-09 01:00","2018","08","09","01:00","17.4","","16.8","","97","","","M","","M","","","97.99","","","","","","NA"
"2018-08-09 02:00","2018","08","09","02:00","16.4","","16.1","","98","","","M","","M","","","98.00","","","","","","NA"
"2018-08-09 03:00","2018","08","09","03:00","15.4","","15.0","","98","","","M","","M","","","97.93","","","","","","NA"
"2018-08-09 04:00","2018","08","09","04:00","15.3","","14.8","","97","","","M","","M","","","97.92","","","","","","NA"
"2018-08-09 05:00","2018","08","09","05:00","15.1","","14.4","","96","","","M","","M","","","97.97","","","","","","NA"
"2018-08-09 06:00","2018","08","09","06:00","16.1","","15.7","","98","","","M","","M","","","98.00","","","","","","NA"
"2018-08-09 07:00","2018","08","09","07:00","19.4","","18.6","","95","","","M","","M","","","98.03","","","","","","NA"
"2018-08-09 08:00","2018","08","09","08:00","21.2","","18.9","","87","","","M","","M","","","98.06","","28","","","","NA"
"2018-08-09 09:00","2018","08","09","09:00","23.4","","19.6","","79","","","M","","M","","","98.05","","31","","","","NA"
"2018-08-09 10:00","2018","08","09","10:00","24.7","","17.9","","66","","","M","","M","","","98.05","","31","","","","NA"
"2018-08-09 11:00","2018","08","09","11:00","26.1","","19.1","","66","","","M","","M","","","98.04","","33","","","","NA"
"2018-08-09 12:00","2018","08","09","12:00","26.4","","17.7","","59","","","M","","M","","","98.02","","32","","","","NA"
"2018-08-09 13:00","2018","08","09","13:00","26.8","","17.4","","56","","","M","","M","","","97.99","","32","","","","NA"
"2018-08-09 14:00","2018","08","09","14:00","27.2","","18.3","","58","","","M","","M","","","97.95","","33","","","","NA"
"2018-08-09 15:00","2018","08","09","15:00","26.6","","18.4","","61","","","M","","M","","","97.92","","33","","","","NA"
"2018-08-09 16:00","2018","08","09","16:00","25.9","","17.5","","60","","","M","","M","","","97.90","","32","","","","NA"
"2018-08-09 17:00","2018","08","09","17:00","20.4","","18.9","","91","","","M","","M","","","98.00","","27","","","","NA"
"2018-08-09 18:00","2018","08","09","18:00","21.4","","19.9","","92","","","M","","M","","","97.96","","29","","","","NA"
"2018-08-09 19:00","2018","08","09","19:00","21.8","","20.3","","91","","","M","","M","","","97.97","","30","","","","NA"
"2018-08-09 20:00","2018","08","09","20:00","21.3","","20.0","","92","","","M","","M","","","97.98","","29","","","","NA"
"2018-08-09 21:00","2018","08","09","21:00","20.7","","19.8","","95","","","M","","M","","","98.03","","28","","","","NA"
"2018-08-09 22:00","2018","08","09","22:00","20.1","","19.3","","95","","","M","","M","","","98.07","","27","","","","NA"
"2018-08-09 23:00","2018","08","09","23:00","19.6","","18.6","","94","","","M","","M","","","98.07","","","","","","NA"
"2018-08-10 00:00","2018","08","10","00:00","19.7","","19.0","","96","","","M","","M","","","98.09","","","","","","NA"
"2018-08-10 01:00","2018","08","10","01:00","19.0","","18.1","","94","","","M","","M","","","98.08","","","","","","NA"
"2018-08-10 02:00","2018","08","10","02:00","18.6","","17.7","","94","","","M","","M","","","98.09","","","","","","NA"
"2018-08-10 03:00","2018","08","10","03:00","18.1","","17.2","","95","","","M","","M","","","98.15","","","","","","NA"
"2018-08-10 04:00","2018","08","10","04:00","17.5","","16.8","","95","","","M","","M","","","98.18","","","","","","NA"
"2018-08-10 05:00","2018","08","10","05:00","17.5","","16.4","","94","","","M","","M","","","98.18","","","","","","NA"
"2018-08-10 06:00","2018","08","10","06:00","17.3","","15.8","","91","","","M","","M","","","98.22","","","","","","NA"
"2018-08-10 07:00","2018","08","10","07:00","18.2","","16.0","","87","","","M","","M","","","98.25","","","","","","NA"
"2018-08-10 08:00","2018","08","10","08:00","19.5","","15.6","","78","","","M","","M","","","98.28","","","","","","NA"
"2018-08-10 09:00","2018","08","10","09:00","20.9","","15.8","","73","","","M","","M","","","98.31","","25","","","","NA"
"2018-08-10 10:00","2018","08","10","10:00","21.9","","14.6","","63","","","M","","M","","","98.33","","26","","","","NA"
"2018-08-10 11:00","2018","08","10","11:00","23.1","","13.9","","56","","","M","","M","","","98.34","","26","","","","NA"
"2018-08-10 12:00","2018","08","10","12:00","23.5","","13.4","","53","","","M","","M","","","98.32","","27","","","","NA"
"2018-08-10 13:00","2018","08","10","13:00","24.5","","15.2","","56","","","M","","M","","","98.29","","29","","","","NA"
"2018-08-10 14:00","2018","08","10","14:00","25.1","","14.1","","50","","","M","","M","","","98.25","","29","","","","NA"
"2018-08-10 15:00","2018","08","10","15:00","25.0","","13.4","","49","","","M","","M","","","98.21","","28","","","","NA"
"2018-08-10 16:00","2018","08","10","16:00","25.1","","13.0","","47","","","M","","M","","","98.18","","28","","","","NA"
"2018-08-10 17:00","2018","08","10","17:00","25.0","","13.0","","47","","","M","","M","","","98.14","","28","","","","NA"
"2018-08-10 18:00","2018","08","10","18:00","24.7","","13.0","","48","","","M","","M","","","98.14","","27","","","","NA"
"2018-08-10 19:00","2018","08","10","19:00","23.1","","15.3","","62","","","M","","M","","","98.16","","27","","","","NA"
"2018-08-10 20:00","2018","08","10","20:00","20.4","","14.5","","69","","","M","","M","","","98.21","","","","","","NA"
"2018-08-10 21:00","2018","08","10","21:00","19.5","","14.6","","73","","","M","","M","","","98.21","","","","","","NA"
"2018-08-10 22:00","2018","08","10","22:00","18.5","","13.9","","75","","","M","","M","","","98.24","","","","","","NA"
"2018-08-10 23:00","2018","08","10","23:00","17.0","","13.6","","80","","","M","","M","","","98.25","","","","","","NA"
"2018-08-11 00:00","2018","08","11","00:00","16.9","","14.2","","84","","","M","","M","","","98.27","","","","","","NA"
"2018-08-11 01:00","2018","08","11","01:00","16.2","","14.1","","88","","","M","","M","","","98.26","","","","","","NA"
"2018-08-11 02:00","2018","08","11","02:00","15.4","","13.6","","89","","","M","","M","","","98.24","","","","","","NA"
"2018-08-11 03:00","2018","08","11","03:00","15.2","","13.3","","88","","","M","","M","","","98.20","","","","","","NA"
"2018-08-11 04:00","2018","08","11","04:00","13.9","","12.6","","92","","","M","","M","","","98.19","","","","","","NA"
"2018-08-11 05:00","2018","08","11","05:00","14.4","","13.1","","92","","","M","","M","","","98.20","","","","","","NA"
"2018-08-11 06:00","2018","08","11","06:00","13.6","","12.6","","94","","","M","","M","","","98.23","","","","","","NA"
"2018-08-11 07:00","2018","08","11","07:00","17.0","","14.4","","85","","","M","","M","","","98.26","","","","","","NA"
"2018-08-11 08:00","2018","08","11","08:00","20.1","","13.4","","65","","","M","","M","","","98.31","","","","","","NA"
"2018-08-11 09:00","2018","08","11","09:00","22.6","","12.1","","52","","","M","","M","","","98.33","","25","","","","NA"
"2018-08-11 10:00","2018","08","11","10:00","23.5","","14.4","","57","","","M","","M","","","98.37","","27","","","","NA"
"2018-08-11 11:00","2018","08","11","11:00","24.7","","14.4","","53","","","M","","M","","","98.39","","28","","","","NA"
"2018-08-11 12:00","2018","08","11","12:00","25.4","","15.0","","53","","","M","","M","","","98.37","","29","","","","NA"
"2018-08-11 13:00","2018","08","11","13:00","26.1","","14.5","","49","","","M","","M","","","98.37","","30","","","","NA"
"2018-08-11 14:00","2018","08","11","14:00","27.1","","15.2","","48","","","M","","M","","","98.35","","31","","","","NA"
"2018-08-11 15:00","2018","08","11","15:00","26.2","","13.9","","47","","","M","","M","","","98.32","","30","","","","NA"
"2018-08-11 16:00","2018","08","11","16:00","26.7","","15.3","","50","","","M","","M","","","98.29","","31","","","","NA"
"2018-08-11 17:00","2018","08","11","17:00","26.2","","14.7","","49","","","M","","M","","","98.27","","30","","","","NA"
"2018-08-11 18:00","2018","08","11","18:00","26.0","","15.1","","51","","","M","","M","","","98.28","","30","","","","NA"
"2018-08-11 19:00","2018","08","11","19:00","24.4","","16.2","","60","","","M","","M","","","98.33","","29","","","","NA"
"2018-08-11 20:00","2018","08","11","20:00","22.9","","17.2","","71","","","M","","M","","","98.36","","28","","","","NA"
"2018-08-11 21:00","2018","08","11","21:00","20.7","","16.8","","79","","","M","","M","","","98.41","","26","","","","NA"
"2018-08-11 22:00","2018","08","11","22:00","20.7","","17.3","","81","","","M","","M","","","98.44","","26","","","","NA"
"2018-08-11 23:00","2018","08","11","23:00","21.0","","17.2","","79","","","M","","M","","","98.49","","26","","","","NA"
"2018-08-12 00:00","2018","08","12","00:00","20.9","","16.3","","75","","","M","","M","","","98.50","","26","","","","NA"
"2018-08-12 01:00","2018","08","12","01:00","19.8","","15.9","","78","","","M","","M","","","98.50","","","","","","NA"
"2018-08-12 02:00","2018","08","12","02:00","19.0","","15.7","","81","","","M","","M","","","98.50","","","","","","NA"
"2018-08-12 03:00","2018","08","12","03:00","18.3","","15.6","","84","","","M","","M","","","98.53","","","","","","NA"
"2018-08-12 04:00","2018","08","12","04:00","17.2","","15.7","","91","","","M","","M","","","98.53","","","","","","NA"
"2018-08-12 05:00","2018","08","12","05:00","16.5","","14.8","","90","","","M","","M","","","98.54","","","","","","NA"
"2018-08-12 06:00","2018","08","12","06:00","17.2","","15.8","","92","","","M","","M","","","98.64","","","","","","NA"
"2018-08-12 07:00","2018","08","12","07:00","18.0","","16.0","","88","","","M","","M","","","98.67","","","","","","NA"
"2018-08-12 08:00","2018","08","12","08:00","19.8","","15.7","","77","","","M","","M","","","98.70","","","","","","NA"
"2018-08-12 09:00","2018","08","12","09:00","22.4","","16.8","","71","","","M","","M","","","98.73","","28","","","","NA"
"2018-08-12 10:00","2018","08","12","10:00","23.3","","17.4","","69","","","M","","M","","","98.78","","29","","","","NA"
"2018-08-12 11:00","2018","08","12","11:00","24.6","","17.6","","65","","","M","","M","","","98.78","","30","","","","NA"
"2018-08-12 12:00","2018","08","12","12:00","25.8","","18.5","","64","","","M","","M","","","98.77","","32","","","","NA"
"2018-08-12 13:00","2018","08","12","13:00","26.8","","17.2","","56","","","M","","M","","","98.74","","32","","","","NA"
"2018-08-12 14:00","2018","08","12","14:00","25.3","","15.5","","55","","","M","","M","","","98.71","","30","","","","NA"
"2018-08-12 15:00","2018","08","12","15:00","26.9","","16.0","","51","","","M","","M","","","98.69","","32","","","","NA"
"2018-08-12 16:00","2018","08","12","16:00","25.1","","17.7","","64","","","M","","M","","","98.65","","31","","","","NA"
"2018-08-12 17:00","2018","08","12","17:00","26.2","","16.6","","56","","","M","","M","","","98.63","","31","","","","NA"
"2018-08-12 18:00","2018","08","12","18:00","25.9","","17.2","","59","","","M","","M","","","98.62","","31","","","","NA"
"2018-08-12 19:00","2018","08","12","19:00","24.7","","17.9","","66","","","M","","M","","","98.64","","31","","","","NA"
"2018-08-12 20:00","2018","08","12","20:00","22.9","","18.7","","78","","","M","","M","","","98.70","","29","","","","NA"
"2018-08-12 21:00","2018","08","12","21:00","21.6","","18.5","","83","","","M","","M","","","98.73","","28","","","","NA"
"2018-08-12 22:00","2018","08","12","22:00","21.1","","18.3","","84","","","M","","M","","","98.75","","27","","","","NA"
"2018-08-12 23:00","2018","08","12","23:00","20.1","","18.2","","89","","","M","","M","","","98.77","","26","","","","NA"
"2018-08-13 00:00","2018","08","13","00:00","18.9","","16.9","","88","","","M","","M","","","98.77","","","","","","NA"
"2018-08-13 01:00","2018","08","13","01:00","18.8","","16.2","","85","","","M","","M","","","98.73","","","","","","NA"
"2018-08-13 02:00","2018","08","13","02:00","18.0","","15.6","","86","","","M","","M","","","98.69","","","","","","NA"
"2018-08-13 03:00","2018","08","13","03:00","16.9","","14.5","","85","","","M","","M","","","98.67","","","","","","NA"
"2018-08-13 04:00","2018","08","13","04:00","17.2","","14.0","","82","","","M","","M","","","98.64","","","","","","NA"
"2018-08-13 05:00","2018","08","13","05:00","16.0","","13.7","","86","","","M","","M","","","98.67","","","","","","NA"
"2018-08-13 06:00","2018","08","13","06:00","16.6","","13.9","","84","","","M","","M","","","98.71","","","","","","NA"
"2018-08-13 07:00","2018","08","13","07:00","18.6","","14.2","","76","","","M","","M","","","98.72","","","","","","NA"
"2018-08-13 08:00","2018","08","13","08:00","21.2","","16.5","","74","","","M","","M","","","98.70","","26","","","","NA"
"2018-08-13 09:00","2018","08","13","09:00","24.1","","16.8","","64","","","M","","M","","","98.71","","29","","","","NA"
"2018-08-13 10:00","2018","08","13","10:00","26.1","","16.1","","54","","","M","","M","","","98.72","","31","","","","NA"
"2018-08-13 11:00","2018","08","13","11:00","26.9","","15.2","","49","","","M","","M","","","98.68","","31","","","","NA"
"2018-08-13 12:00","2018","08","13","12:00","27.4","","15.4","","48","","","M","","M","","","98.61","","32","","","","NA"
"2018-08-13 13:00","2018","08","13","13:00","27.8","","15.4","","47","","","M","","M","","","98.55","","32","","","","NA"
"2018-08-13 14:00","2018","08","13","14:00","27.6","","14.5","","45","","","M","","M","","","98.49","","31","","","","NA"
"2018-08-13 15:00","2018","08","13","15:00","27.4","","15.2","","48","","","M","","M","","","98.43","","31","","","","NA"
"2018-08-13 16:00","2018","08","13","16:00","27.3","","14.9","","47","","","M","","M","","","98.39","","31","","","","NA"
"2018-08-13 17:00","2018","08","13","17:00","25.9","","17.8","","61","","","M","","M","","","98.38","","32","","","","NA"
"2018-08-13 18:00","2018","08","13","18:00","25.1","","17.3","","62","","","M","","M","","","98.38","","31","","","","NA"
"2018-08-13 19:00","2018","08","13","19:00","24.9","","18.4","","67","","","M","","M","","","98.39","","31","","","","NA"
"2018-08-13 20:00","2018","08","13","20:00","23.0","","18.7","","77","","","M","","M","","","98.37","","30","","","","NA"
"2018-08-13 21:00","2018","08","13","21:00","21.4","","18.2","","82","","","M","","M","","","98.36","","28","","","","NA"
"2018-08-13 22:00","2018","08","13","22:00","20.7","","18.2","","86","","","M","","M","","","98.35","","27","","","","NA"
"2018-08-13 23:00","2018","08","13","23:00","20.5","","18.3","","87","","","M","","M","","","98.33","","27","","","","NA"
"2018-08-14 00:00","2018","08","14","00:00","19.3","","17.8","","91","","","M","","M","","","98.32","","","","","","NA"
"2018-08-14 01:00","2018","08","14","01:00","19.3","","17.9","","91","","","M","","M","","","98.32","","","","","","NA"
"2018-08-14 02:00","2018","08","14","02:00","19.5","","17.5","","88","","","M","","M","","","98.27","","","","","","NA"
"2018-08-14 03:00","2018","08","14","03:00","19.1","","17.5","","90","","","M","","M","","","98.23","","","","","","NA"
"2018-08-14 04:00","2018","08","14","04:00","18.9","","17.2","","90","","","M","","M","","","98.21","","","","","","NA"
"2018-08-14 05:00","2018","08","14","05:00","18.6","","17.0","","90","","","M","","M","","","98.23","","","","","","NA"
"2018-08-14 06:00","2018","08","14","06:00","18.1","","16.4","","90","","","M","","M","","","98.24","","","","","","NA"
"2018-08-14 07:00","2018","08","14","07:00","19.6","","16.7","","83","","","M","","M","","","98.23","","","","","","NA"
"2018-08-14 08:00","2018","08","14","08:00","22.0","","16.6","","72","","","M","","M","","","98.23","","27","","","","NA"
"2018-08-14 09:00","2018","08","14","09:00","24.7","","16.2","","59","","","M","","M","","","98.23","","29","","","","NA"
"2018-08-14 10:00","2018","08","14","10:00","26.3","","18.3","","61","","","M","","M","","","98.21","","33","","","","NA"
"2018-08-14 11:00","2018","08","14","11:00","26.9","","16.1","","52","","","M","","M","","","98.20","","32","","","","NA"
"2018-08-14 12:00","2018","08","14","12:00","27.6","","16.3","","50","","","M","","M","","","98.19","","32","","","","NA"
"2018-08-14 13:00","2018","08","14","13:00","28.6","","17.2","","50","","","M","","M","","","98.16","","34","","","","NA"
"2018-08-14 14:00","2018","08","14","14:00","28.2","","16.9","","50","","","M","","M","","","98.13","","33","","","","NA"
"2018-08-14 15:00","2018","08","14","15:00","28.7","","17.5","","51","","","M","","M","","","98.09","","34","","","","NA"
"2018-08-14 16:00","2018","08","14","16:00","28.7","","17.9","","52","","","M","","M","","","98.06","","35","","","","NA"
"2018-08-14 17:00","2018","08","14","17:00","28.2","","16.8","","50","","","M","","M","","","98.07","","33","","","","NA"
"2018-08-14 18:00","2018","08","14","18:00","27.3","","17.9","","56","","","M","","M","","","98.07","","33","","","","NA"
"2018-08-14 19:00","2018","08","14","19:00","25.8","","18.5","","64","","","M","","M","","","98.08","","32","","","","NA"
"2018-08-14 20:00","2018","08","14","20:00","22.4","","18.1","","77","","","M","","M","","","98.07","","28","","","","NA"
"2018-08-14 21:00","2018","08","14","21:00","22.4","","17.9","","75","","","M","","M","","","98.09","","28","","","","NA"
"2018-08-14 22:00","2018","08","14","22:00","21.3","","17.6","","79","","","M","","M","","","98.11","","27","","","","NA"
"2018-08-14 23:00","2018","08","14","23:00","20.6","","17.3","","82","","","M","","M","","","98.10","","26","","","","NA"
"2018-08-15 00:00","2018","08","15","00:00","20.6","","17.9","","84","","","M","","M","","","98.11","","27","","","","NA"
"2018-08-15 01:00","2018","08","15","01:00","22.3","","17.4","","74","","","M","","M","","","98.09","","28","","","","NA"
"2018-08-15 02:00","2018","08","15","02:00","22.0","","17.3","","75","","","M","","M","","","98.08","","27","","","","NA"
"2018-08-15 03:00","2018","08","15","03:00","21.5","","17.8","","79","","","M","","M","","","98.09","","27","","","","NA"
"2018-08-15 04:00","2018","08","15","04:00","21.2","","17.7","","81","","","M","","M","","","98.12","","27","","","","NA"
"2018-08-15 05:00","2018","08","15","05:00","20.1","","17.7","","86","","","M","","M","","","98.17","","26","","","","NA"
"2018-08-15 06:00","2018","08","15","06:00","20.4","","18.4","","88","","","M","","M","","","98.21","","27","","","","NA"
"2018-08-15 07:00","2018","08","15","07:00","21.5","","18.9","","85","","","M","","M","","","98.26","","28","","","","NA"
"2018-08-15 08:00","2018","08","15","08:00","22.8","","19.4","","82","","","M","","M","","","98.29","","30","","","","NA"
"2018-08-15 09:00","2018","08","15","09:00","24.8","","19.9","","74","","","M","","M","","","98.31","","32","","","","NA"
"2018-08-15 10:00","2018","08","15","10:00","26.5","","19.2","","64","","","M","","M","","","98.33","","33","","","","NA"
"2018-08-15 11:00","2018","08","15","11:00","27.6","","18.9","","59","","","M","","M","","","98.33","","34","","","","NA"
"2018-08-15 12:00","2018","08","15","12:00","28.2","","19.2","","58","","","M","","M","","","98.33","","35","","","","NA"
"2018-08-15 13:00","2018","08","15","13:00","28.3","","18.5","","55","","","M","","M","","","98.36","","35","","","","NA"
"2018-08-15 14:00","2018","08","15","14:00","27.5","","18.4","","57","","","M","","M","","","98.36","","34","","","","NA"
"2018-08-15 15:00","2018","08","15","15:00","28.4","","19.9","","60","","","M","","M","","","98.35","","36","","","","NA"
"2018-08-15 16:00","2018","08","15","16:00","28.4","","19.6","","59","","","M","","M","","","98.31","","36","","","","NA"
"2018-08-15 17:00","2018","08","15","17:00","27.4","","18.8","","59","","","M","","M","","","98.30","","34","","","","NA"
"2018-08-15 18:00","2018","08","15","18:00","26.9","","19.5","","64","","","M","","M","","","98.28","","34","","","","NA"
"2018-08-15 19:00","2018","08","15","19:00","25.8","","20.4","","72","","","M","","M","","","98.33","","34","","","","NA"
"2018-08-15 20:00","2018","08","15","20:00","24.5","","20.9","","81","","","M","","M","","","98.35","","33","","","","NA"
"2018-08-15 21:00","2018","08","15","21:00","22.4","","20.7","","90","","","M","","M","","","98.38","","31","","","","NA"
"2018-08-15 22:00","2018","08","15","22:00","21.0","","20.2","","95","","","M","","M","","","98.38","","29","","","","NA"
"2018-08-15 23:00","2018","08","15","23:00","20.3","","19.8","","97","","","M","","M","","","98.40","","28","","","","NA"
"2018-08-16 00:00","2018","08","16","00:00","20.1","","19.4","","96","","","M","","M","","","98.43","","27","","","","NA"
"2018-08-16 01:00","2018","08","16","01:00","20.5","","19.9","","96","","","M","","M","","","98.43","","28","","","","NA"
"2018-08-16 02:00","2018","08","16","02:00","19.7","","19.1","","96","","","M","","M","","","98.40","","","","","","NA"
"2018-08-16 03:00","2018","08","16","03:00","19.2","","18.7","","97","","","M","","M","","","98.39","","","","","","NA"
"2018-08-16 04:00","2018","08","16","04:00","18.9","","18.2","","96","","","M","","M","","","98.40","","","","","","NA"
"2018-08-16 05:00","2018","08","16","05:00","18.3","","17.8","","97","","","M","","M","","","98.42","","","","","","NA"
"2018-08-16 06:00","2018","08","16","06:00","18.2","","17.8","","98","","","M","","M","","","98.45","","","","","","NA"
"2018-08-16 07:00","2018","08","16","07:00","20.4","","19.9","","97","","","M","","M","","","98.49","","28","","","","NA"
"2018-08-16 08:00","2018","08","16","08:00","23.1","","20.9","","87","","","M","","M","","","98.52","","31","","","","NA"
"2018-08-16 09:00","2018","08","16","09:00","24.2","","21.0","","82","","","M","","M","","","98.52","","33","","","","NA"
"2018-08-16 10:00","2018","08","16","10:00","24.3","","20.7","","80","","","M","","M","","","98.52","","32","","","","NA"
"2018-08-16 11:00","2018","08","16","11:00","22.4","","21.4","","94","","","M","","M","","","98.55","","31","","","","NA"
"2018-08-16 12:00","2018","08","16","12:00","23.1","","21.8","","92","","","M","","M","","","98.50","","32","","","","NA"
"2018-08-16 13:00","2018","08","16","13:00","24.0","","20.8","","82","","","M","","M","","","98.48","","32","","","","NA"
"2018-08-16 14:00","2018","08","16","14:00","22.9","","20.6","","87","","","M","","M","","","98.48","","31","","","","NA"
"2018-08-16 15:00","2018","08","16","15:00","21.8","","21.0","","96","","","M","","M","","","98.42","","30","","","","NA"
"2018-08-16 16:00","2018","08","16","16:00","22.3","","21.1","","93","","","M","","M","","","98.36","","31","","","","NA"
"2018-08-16 17:00","2018","08","16","17:00","22.0","","21.0","","94","","","M","","M","","","98.35","","30","","","","NA"
"2018-08-16 18:00","2018","08","16","18:00","22.5","","21.7","","95","","","M","","M","","","98.29","","32","","","","NA"
"2018-08-16 19:00","2018","08","16","19:00","22.3","","21.3","","94","","","M","","M","","","98.29","","31","","","","NA"
"2018-08-16 20:00","2018","08","16","20:00","22.1","","21.4","","96","","","M","","M","","","98.29","","31","","","","NA"
"2018-08-16 21:00","2018","08","16","21:00","22.1","","21.5","","96","","","M","","M","","","98.32","","31","","","","NA"
"2018-08-16 22:00","2018","08","16","22:00","22.3","","21.4","","95","","","M","","M","","","98.28","","31","","","","NA"
"2018-08-16 23:00","2018","08","16","23:00","22.1","","21.5","","97","","","M","","M","","","98.26","","31","","","","NA"
"2018-08-17 00:00","2018","08","17","00:00","22.2","","21.7","","97","","","M","","M","","","98.23","","31","","","","NA"
"2018-08-17 01:00","2018","08","17","01:00","22.1","","21.5","","97","","","M","","M","","","98.20","","31","","","","NA"
"2018-08-17 02:00","2018","08","17","02:00","22.0","","21.5","","97","","","M","","M","","","98.14","","31","","","","NA"
"2018-08-17 03:00","2018","08","17","03:00","22.2","","21.6","","96","","","M","","M","","","98.12","","31","","","","NA"
"2018-08-17 04:00","2018","08","17","04:00","22.2","","21.6","","96","","","M","","M","","","98.09","","31","","","","NA"
"2018-08-17 05:00","2018","08","17","05:00","22.0","","21.4","","97","","","M","","M","","","98.08","","31","","","","NA"
"2018-08-17 06:00","2018","08","17","06:00","22.1","","21.5","","97","","","M","","M","","","98.08","","31","","","","NA"
"2018-08-17 07:00","2018","08","17","07:00","22.4","","21.3","","93","","","M","","M","","","98.08","","31","","","","NA"
"2018-08-17 08:00","2018","08","17","08:00","23.0","","21.6","","92","","","M","","M","","","98.07","","32","","","","NA"
"2018-08-17 09:00","2018","08","17","09:00","23.8","","21.7","","88","","","M","","M","","","98.07","","33","","","","NA"
"2018-08-17 10:00","2018","08","17","10:00","24.7","","21.6","","83","","","M","","M","","","98.09","","34","","","","NA"
"2018-08-17 11:00","2018","08","17","11:00","25.6","","21.2","","76","","","M","","M","","","98.03","","34","","","","NA"
"2018-08-17 12:00","2018","08","17","12:00","25.6","","21.0","","76","","","M","","M","","","98.01","","34","","","","NA"
"2018-08-17 13:00","2018","08","17","13:00","26.8","","20.4","","68","","","M","","M","","","98.01","","35","","","","NA"
"2018-08-17 14:00","2018","08","17","14:00","25.3","","21.3","","78","","","M","","M","","","98.01","","34","","","","NA"
"2018-08-17 15:00","2018","08","17","15:00","24.8","","20.7","","78","","","M","","M","","","98.00","","33","","","","NA"
"2018-08-17 16:00","2018","08","17","16:00","24.5","","21.7","","85","","","M","","M","","","98.00","","34","","","","NA"
"2018-08-17 17:00","2018","08","17","17:00","24.3","","21.4","","84","","","M","","M","","","98.01","","33","","","","NA"
"2018-08-17 18:00","2018","08","17","18:00","23.6","","21.4","","88","","","M","","M","","","97.99","","32","","","","NA"
"2018-08-17 19:00","2018","08","17","19:00","23.1","","21.2","","89","","","M","","M","","","98.01","","32","","","","NA"
"2018-08-17 20:00","2018","08","17","20:00","22.8","","21.1","","90","","","M","","M","","","98.07","","31","","","","NA"
"2018-08-17 21:00","2018","08","17","21:00","22.2","","20.9","","92","","","M","","M","","","98.07","","31","","","","NA"
"2018-08-17 22:00","2018","08","17","22:00","21.8","","21.0","","95","","","M","","M","","","98.05","","30","","","","NA"
"2018-08-17 23:00","2018","08","17","23:00","21.6","","20.9","","96","","","M","","M","","","98.03","","30","","","","NA"
"2018-08-18 00:00","2018","08","18","00:00","21.5","","20.9","","96","","","M","","M","","","98.03","","30","","","","NA"
"2018-08-18 01:00","2018","08","18","01:00","20.9","","20.2","","96","","","M","","M","","","98.05","","29","","","","NA"
"2018-08-18 02:00","2018","08","18","02:00","20.2","","19.6","","96","","","M","","M","","","98.05","","27","","","","NA"
"2018-08-18 03:00","2018","08","18","03:00","19.9","","19.2","","96","","","M","","M","","","98.04","","","","","","NA"
"2018-08-18 04:00","2018","08","18","04:00","19.4","","18.7","","96","","","M","","M","","","98.09","","","","","","NA"
"2018-08-18 05:00","2018","08","18","05:00","18.8","","18.0","","96","","","M","","M","","","98.14","","","","","","NA"
"2018-08-18 06:00","2018","08","18","06:00","19.0","","18.2","","95","","","M","","M","","","98.19","","","","","","NA"
"2018-08-18 07:00","2018","08","18","07:00","19.7","","18.5","","93","","","M","","M","","","98.24","","","","","","NA"
"2018-08-18 08:00","2018","08","18","08:00","20.9","","18.6","","86","","","M","","M","","","98.26","","27","","","","NA"
"2018-08-18 09:00","2018","08","18","09:00","22.7","","18.4","","77","","","M","","M","","","98.26","","29","","","","NA"
"2018-08-18 10:00","2018","08","18","10:00","23.9","","17.5","","67","","","M","","M","","","98.27","","30","","","","NA"
"2018-08-18 11:00","2018","08","18","11:00","24.3","","15.5","","58","","","M","","M","","","98.26","","29","","","","NA"
"2018-08-18 12:00","2018","08","18","12:00","24.7","","15.2","","56","","","M","","M","","","98.27","","29","","","","NA"
"2018-08-18 13:00","2018","08","18","13:00","25.6","","16.1","","56","","","M","","M","","","98.25","","30","","","","NA"
"2018-08-18 14:00","2018","08","18","14:00","26.0","","16.7","","56","","","M","","M","","","98.26","","31","","","","NA"
"2018-08-18 15:00","2018","08","18","15:00","25.7","","15.5","","53","","","M","","M","","","98.24","","30","","","","NA"
"2018-08-18 16:00","2018","08","18","16:00","25.7","","16.5","","57","","","M","","M","","","98.23","","31","","","","NA"
"2018-08-18 17:00","2018","08","18","17:00","24.8","","16.4","","59","","","M","","M","","","98.22","","30","","","","NA"
"2018-08-18 18:00","2018","08","18","18:00","24.1","","17.4","","66","","","M","","M","","","98.20","","30","","","","NA"
"2018-08-18 19:00","2018","08","18","19:00","22.2","","16.8","","71","","","M","","M","","","98.22","","27","","","","NA"
"2018-08-18 20:00","2018","08","18","20:00","20.4","","16.7","","79","","","M","","M","","","98.29","","25","","","","NA"
"2018-08-18 21:00","2018","08","18","21:00","19.0","","16.6","","86","","","M","","M","","","98.33","","","","","","NA"
"2018-08-18 22:00","2018","08","18","22:00","18.6","","16.4","","87","","","M","","M","","","98.34","","","","","","NA"
"2018-08-18 23:00","2018","08","18","23:00","18.2","","16.3","","89","","","M","","M","","","98.33","","","","","","NA"
"2018-08-19 00:00","2018","08","19","00:00","17.6","","16.2","","91","","","M","","M","","","98.34","","","","","","NA"
"2018-08-19 01:00","2018","08","19","01:00","17.5","","16.1","","92","","","M","","M","","","98.33","","","","","","NA"
"2018-08-19 02:00","2018","08","19","02:00","16.1","","15.2","","95","","","M","","M","","","98.31","","","","","","NA"
"2018-08-19 03:00","2018","08","19","03:00","16.1","","15.1","","94","","","M","","M","","","98.33","","","","","","NA"
"2018-08-19 04:00","2018","08","19","04:00","16.1","","15.3","","95","","","M","","M","","","98.36","","","","","","NA"
"2018-08-19 05:00","2018","08","19","05:00","15.9","","15.1","","95","","","M","","M","","","98.40","","","","","","NA"
"2018-08-19 06:00","2018","08","19","06:00","15.8","","15.2","","96","","","M","","M","","","98.44","","","","","","NA"
"2018-08-19 07:00","2018","08","19","07:00","16.7","","15.7","","94","","","M","","M","","","98.46","","","","","","NA"
"2018-08-19 08:00","2018","08","19","08:00","18.9","","17.3","","90","","","M","","M","","","98.50","","","","","","NA"
"2018-08-19 09:00","2018","08","19","09:00","20.7","","17.8","","83","","","M","","M","","","98.49","","27","","","","NA"
"2018-08-19 10:00","2018","08","19","10:00","21.8","","16.9","","73","","","M","","M","","","98.51","","27","","","","NA"
"2018-08-19 11:00","2018","08","19","11:00","22.7","","16.4","","67","","","M","","M","","","98.51","","28","","","","NA"
"2018-08-19 12:00","2018","08","19","12:00","23.8","","16.9","","65","","","M","","M","","","98.50","","29","","","","NA"
"2018-08-19 13:00","2018","08","19","13:00","24.1","","15.1","","57","","","M","","M","","","98.51","","28","","","","NA"
"2018-08-19 14:00","2018","08","19","14:00","25.0","","15.2","","54","","","M","","M","","","98.48","","29","","","","NA"
"2018-08-19 15:00","2018","08","19","15:00","24.6","","14.4","","53","","","M","","M","","","98.46","","28","","","","NA"
"2018-08-19 16:00","2018","08","19","16:00","24.7","","14.4","","53","","","M","","M","","","98.44","","28","","","","NA"
"2018-08-19 17:00","2018","08","19","17:00","24.7","","14.4","","53","","","M","","M","","","98.43","","28","","","","NA"
"2018-08-19 18:00","2018","08","19","18:00","23.5","","15.8","","62","","","M","","M","","","98.42","","28","","","","NA"
"2018-08-19 19:00","2018","08","19","19:00","21.9","","16.7","","73","","","M","","M","","","98.47","","27","","","","NA"
"2018-08-19 20:00","2018","08","19","20:00","19.7","","17.3","","86","","","M","","M","","","98.52","","","","","","NA"
"2018-08-19 21:00","2018","08","19","21:00","18.9","","17.1","","89","","","M","","M","","","98.54","","","","","","NA"
"2018-08-19 22:00","2018","08","19","22:00","18.4","","16.6","","89","","","M","","M","","","98.53","","","","","","NA"
"2018-08-19 23:00","2018","08","19","23:00","18.0","","16.4","","91","","","M","","M","","","98.57","","","","","","NA"
"2018-08-20 00:00","2018","08","20","00:00","16.8","","15.8","","94","","","M","","M","","","98.56","","","","","","NA"
"2018-08-20 01:00","2018","08","20","01:00","16.6","","15.5","","93","","","M","","M","","","98.55","","","","","","NA"
"2018-08-20 02:00","2018","08","20","02:00","16.2","","14.8","","92","","","M","","M","","","98.56","","","","","","NA"
"2018-08-20 03:00","2018","08","20","03:00","15.9","","15.0","","94","","","M","","M","","","98.55","","","","","","NA"
"2018-08-20 04:00","2018","08","20","04:00","15.9","","15.2","","95","","","M","","M","","","98.53","","","","","","NA"
"2018-08-20 05:00","2018","08","20","05:00","15.1","","14.4","","96","","","M","","M","","","98.53","","","","","","NA"
"2018-08-20 06:00","2018","08","20","06:00","16.0","","15.3","","96","","","M","","M","","","98.56","","","","","","NA"
"2018-08-20 07:00","2018","08","20","07:00","16.8","","16.0","","96","","","M","","M","","","98.57","","","","","","NA"
"2018-08-20 08:00","2018","08","20","08:00","18.9","","17.4","","92","","","M","","M","","","98.59","","","","","","NA"
"2018-08-20 09:00","2018","08","20","09:00","20.6","","18.4","","87","","","M","","M","","","98.64","","27","","","","NA"
"2018-08-20 10:00","2018","08","20","10:00","21.7","","19.3","","86","","","M","","M","","","98.58","","29","","","","NA"
"2018-08-20 11:00","2018","08","20","11:00","22.9","","18.6","","77","","","M","","M","","","98.54","","29","","","","NA"
"2018-08-20 12:00","2018","08","20","12:00","23.9","","18.3","","71","","","M","","M","","","98.47","","30","","","","NA"
"2018-08-20 13:00","2018","08","20","13:00","24.5","","17.9","","67","","","M","","M","","","98.43","","30","","","","NA"
"2018-08-20 14:00","2018","08","20","14:00","25.0","","18.7","","68","","","M","","M","","","98.41","","32","","","","NA"
"2018-08-20 15:00","2018","08","20","15:00","25.3","","18.0","","64","","","M","","M","","","98.38","","31","","","","NA"
"2018-08-20 16:00","2018","08","20","16:00","24.3","","17.7","","67","","","M","","M","","","98.33","","30","","","","NA"
"2018-08-20 17:00","2018","08","20","17:00","24.0","","18.1","","69","","","M","","M","","","98.31","","30","","","","NA"
"2018-08-20 18:00","2018","08","20","18:00","23.7","","18.2","","71","","","M","","M","","","98.23","","30","","","","NA"
"2018-08-20 19:00","2018","08","20","19:00","22.2","","18.0","","77","","","M","","M","","","98.31","","28","","","","NA"
"2018-08-20 20:00","2018","08","20","20:00","21.3","","17.9","","81","","","M","","M","","","98.29","","27","","","","NA"
"2018-08-20 21:00","2018","08","20","21:00","20.9","","19.0","","89","","","M","","M","","","98.29","","28","","","","NA"
"2018-08-20 22:00","2018","08","20","22:00","20.7","","19.0","","90","","","M","","M","","","98.24","","27","","","","NA"
"2018-08-20 23:00","2018","08","20","23:00","20.4","","19.0","","92","","","M","","M","","","98.19","","27","","","","NA"
"2018-08-21 00:00","2018","08","21","00:00","20.6","","19.2","","92","","","M","","M","","","98.15","","28","","","","NA"
"2018-08-21 01:00","2018","08","21","01:00","20.5","","19.1","","92","","","M","","M","","","98.09","","27","","","","NA"
"2018-08-21 02:00","2018","08","21","02:00","20.5","","19.1","","92","","","M","","M","","","98.02","","27","","","","NA"
"2018-08-21 03:00","2018","08","21","03:00","20.5","","19.1","","92","","","M","","M","","","97.94","","27","","","","NA"
"2018-08-21 04:00","2018","08","21","04:00","20.2","","19.5","","96","","","M","","M","","","97.93","","27","","","","NA"
"2018-08-21 05:00","2018","08","21","05:00","20.3","","19.7","","96","","","M","","M","","","97.87","","28","","","","NA"
"2018-08-21 06:00","2018","08","21","06:00","20.5","","20.0","","97","","","M","","M","","","97.81","","28","","","","NA"
"2018-08-21 07:00","2018","08","21","07:00","20.8","","20.4","","97","","","M","","M","","","97.76","","29","","","","NA"
"2018-08-21 08:00","2018","08","21","08:00","21.4","","20.9","","97","","","M","","M","","","97.69","","30","","","","NA"
"2018-08-21 09:00","2018","08","21","09:00","22.3","","21.2","","94","","","M","","M","","","97.64","","31","","","","NA"
"2018-08-21 10:00","2018","08","21","10:00","22.4","","21.2","","93","","","M","","M","","","97.54","","31","","","","NA"
"2018-08-21 11:00","2018","08","21","11:00","23.0","","21.1","","90","","","M","","M","","","97.49","","32","","","","NA"
"2018-08-21 12:00","2018","08","21","12:00","24.1","","21.2","","84","","","M","","M","","","97.42","","33","","","","NA"
"2018-08-21 13:00","2018","08","21","13:00","23.4","","21.8","","91","","","M","","M","","","97.33","","33","","","","NA"
"2018-08-21 14:00","2018","08","21","14:00","24.6","","21.9","","85","","","M","","M","","","97.27","","34","","","","NA"
"2018-08-21 15:00","2018","08","21","15:00","23.2","","21.0","","87","","","M","","M","","","97.30","","32","","","","NA"
"2018-08-21 16:00","2018","08","21","16:00","23.9","","20.5","","82","","","M","","M","","","97.24","","32","","","","NA"
"2018-08-21 17:00","2018","08","21","17:00","24.3","","20.5","","79","","","M","","M","","","97.25","","32","","","","NA"
"2018-08-21 18:00","2018","08","21","18:00","23.3","","20.2","","83","","","M","","M","","","97.24","","31","","","","NA"
"2018-08-21 19:00","2018","08","21","19:00","22.5","","19.9","","85","","","M","","M","","","97.26","","30","","","","NA"
"2018-08-21 20:00","2018","08","21","20:00","20.3","","18.5","","90","","","M","","M","","","97.35","","27","","","","NA"
"2018-08-21 21:00","2018","08","21","21:00","19.7","","17.9","","89","","","M","","M","","","97.46","","","","","","NA"
"2018-08-21 22:00","2018","08","21","22:00","18.7","","16.8","","89","","","M","","M","","","97.54","","","","","","NA"
"2018-08-21 23:00","2018","08","21","23:00","18.3","","16.9","","92","","","M","","M","","","97.58","","","","","","NA"
"2018-08-22 00:00","2018","08","22","00:00","18.2","","17.0","","93","","","M","","M","","","97.61","","","","","","NA"
"2018-08-22 01:00","2018","08","22","01:00","18.6","","17.4","","92","","","M","","M","","","97.60","","","","","","NA"
"2018-08-22 02:00","2018","08","22","02:00","18.7","","17.6","","94","","","M","","M","","","97.58","","","","","","NA"
"2018-08-22 03:00","2018","08","22","03:00","18.3","","17.6","","95","","","M","","M","","","97.61","","","","","","NA"
"2018-08-22 04:00","2018","08","22","04:00","18.2","","17.0","","92","","","M","","M","","","97.65","","","","","","NA"
"2018-08-22 05:00","2018","08","22","05:00","18.3","","17.1","","93","","","M","","M","","","97.70","","","","","","NA"
"2018-08-22 06:00","2018","08","22","06:00","17.9","","16.8","","94","","","M","","M","","","97.74","","","","","","NA"
"2018-08-22 07:00","2018","08","22","07:00","17.6","","16.5","","93","","","M","","M","","","97.79","","","","","","NA"
"2018-08-22 08:00","2018","08","22","08:00","17.6","","16.6","","94","","","M","","M","","","97.85","","","","","","NA"
"2018-08-22 09:00","2018","08","22","09:00","17.6","","16.2","","92","","","M","","M","","","97.88","","","","","","NA"
"2018-08-22 10:00","2018","08","22","10:00","17.7","","17.0","","96","","","M","","M","","","97.95","","","","","","NA"
"2018-08-22 11:00","2018","08","22","11:00","17.8","","16.5","","92","","","M","","M","","","98.00","","","","","","NA"
"2018-08-22 12:00","2018","08","22","12:00","19.0","","15.7","","81","","","M","","M","","","98.02","","","","","","NA"
"2018-08-22 13:00","2018","08","22","13:00","19.8","","13.9","","69","","","M","","M","","","98.07","","","","","","NA"
"2018-08-22 14:00","2018","08","22","14:00","19.6","","12.0","","62","","","M","","M","","","98.09","","","","","","NA"
"2018-08-22 15:00","2018","08","22","15:00","20.4","","11.9","","58","","","M","","M","","","98.09","","","","","","NA"
"2018-08-22 16:00","2018","08","22","16:00","20.0","","10.4","","54","","","M","","M","","","98.17","","","","","","NA"
"2018-08-22 17:00","2018","08","22","17:00","19.8","","9.7","","52","","","M","","M","","","98.23","","","","","","NA"
"2018-08-22 18:00","2018","08","22","18:00","19.0","","10.3","","57","","","M","","M","","","98.27","","","","","","NA"
"2018-08-22 19:00","2018","08","22","19:00","17.2","","11.0","","67","","","M","","M","","","98.31","","","","","","NA"
"2018-08-22 20:00","2018","08","22","20:00","15.6","","11.2","","75","","","M","","M","","","98.38","","","","","","NA"
"2018-08-22 21:00","2018","08","22","21:00","14.1","","11.2","","83","","","M","","M","","","98.42","","","","","","NA"
"2018-08-22 22:00","2018","08","22","22:00","13.7","","11.7","","88","","","M","","M","","","98.42","","","","","","NA"
"2018-08-22 23:00","2018","08","22","23:00","13.5","","11.8","","89","","","M","","M","","","98.40","","","","","","NA"
"2018-08-23 00:00","2018","08","23","00:00","12.4","","11.7","","95","","","M","","M","","","98.40","","","","","","NA"
"2018-08-23 01:00","2018","08","23","01:00","12.7","","11.8","","94","","","M","","M","","","98.40","","","","","","NA"
"2018-08-23 02:00","2018","08","23","02:00","12.7","","11.2","","91","","","M","","M","","","98.40","","","","","","NA"
"2018-08-23 03:00","2018","08","23","03:00","12.7","","11.2","","90","","","M","","M","","","98.42","","","","","","NA"
"2018-08-23 04:00","2018","08","23","04:00","13.1","","11.5","","90","","","M","","M","","","98.45","","","","","","NA"
"2018-08-23 05:00","2018","08","23","05:00","12.8","","11.5","","92","","","M","","M","","","98.46","","","","","","NA"
"2018-08-23 06:00","2018","08","23","06:00","12.8","","11.2","","90","","","M","","M","","","98.53","","","","","","NA"
"2018-08-23 07:00","2018","08","23","07:00","15.0","","12.7","","86","","","M","","M","","","98.57","","","","","","NA"
"2018-08-23 08:00","2018","08","23","08:00","17.7","","13.8","","78","","","M","","M","","","98.63","","","","","","NA"
"2018-08-23 09:00","2018","08","23","09:00","19.9","","13.6","","67","","","M","","M","","","98.65","","","","","","NA"
"2018-08-23 10:00","2018","08","23","10:00","21.4","","12.8","","58","","","M","","M","","","98.68","","","","","","NA"
"2018-08-23 11:00","2018","08","23","11:00","23.0","","13.5","","55","","","M","","M","","","98.66","","26","","","","NA"
"2018-08-23 12:00","2018","08","23","12:00","23.9","","12.9","","50","","","M","","M","","","98.63","","27","","","","NA"
"2018-08-23 13:00","2018","08","23","13:00","24.8","","12.0","","45","","","M","","M","","","98.59","","27","","","","NA"
"2018-08-23 14:00","2018","08","23","14:00","25.0","","11.8","","44","","","M","","M","","","98.60","","27","","","","NA"
"2018-08-23 15:00","2018","08","23","15:00","25.4","","11.2","","41","","","M","","M","","","98.56","","27","","","","NA"
"2018-08-23 16:00","2018","08","23","16:00","25.2","","11.7","","43","","","M","","M","","","98.57","","27","","","","NA"
"2018-08-23 17:00","2018","08","23","17:00","24.5","","12.4","","47","","","M","","M","","","98.57","","27","","","","NA"
"2018-08-23 18:00","2018","08","23","18:00","23.4","","12.6","","51","","","M","","M","","","98.57","","26","","","","NA"
"2018-08-23 19:00","2018","08","23","19:00","21.7","","15.2","","66","","","M","","M","","","98.59","","26","","","","NA"
"2018-08-23 20:00","2018","08","23","20:00","20.7","","14.9","","69","","","M","","M","","","98.64","","25","","","","NA"
"2018-08-23 21:00","2018","08","23","21:00","19.6","","14.5","","72","","","M","","M","","","98.70","","","","","","NA"
"2018-08-23 22:00","2018","08","23","22:00","18.7","","14.2","","75","","","M","","M","","","98.69","","","","","","NA"
"2018-08-23 23:00","2018","08","23","23:00","17.8","","14.1","","79","","","M","","M","","","98.70","","","","","","NA"
"2018-08-24 00:00","2018","08","24","00:00","17.8","","13.9","","78","","","M","","M","","","98.70","","","","","","NA"
"2018-08-24 01:00","2018","08","24","01:00","17.7","","14.0","","79","","","M","","M","","","98.70","","","","","","NA"
"2018-08-24 02:00","2018","08","24","02:00","16.7","","13.4","","81","","","M","","M","","","98.71","","","","","","NA"
"2018-08-24 03:00","2018","08","24","03:00","15.4","","13.1","","87","","","M","","M","","","98.74","","","","","","NA"
"2018-08-24 04:00","2018","08","24","04:00","13.9","","12.5","","91","","","M","","M","","","98.75","","","","","","NA"
"2018-08-24 05:00","2018","08","24","05:00","13.3","","12.2","","93","","","M","","M","","","98.77","","","","","","NA"
"2018-08-24 06:00","2018","08","24","06:00","13.2","","12.5","","95","","","M","","M","","","98.77","","","","","","NA"
"2018-08-24 07:00","2018","08","24","07:00","15.8","","14.3","","91","","","M","","M","","","98.85","","","","","","NA"
"2018-08-24 08:00","2018","08","24","08:00","19.1","","15.7","","81","","","M","","M","","","98.90","","","","","","NA"
"2018-08-24 09:00","2018","08","24","09:00","22.0","","14.6","","63","","","M","","M","","","98.89","","26","","","","NA"
"2018-08-24 10:00","2018","08","24","10:00","22.6","","15.2","","63","","","M","","M","","","98.94","","27","","","","NA"
"2018-08-24 11:00","2018","08","24","11:00","23.6","","14.3","","56","","","M","","M","","","98.93","","27","","","","NA"
"2018-08-24 12:00","2018","08","24","12:00","24.3","","13.6","","51","","","M","","M","","","98.89","","27","","","","NA"
"2018-08-24 13:00","2018","08","24","13:00","23.6","","13.3","","53","","","M","","M","","","98.86","","27","","","","NA"
"2018-08-24 14:00","2018","08","24","14:00","24.3","","12.4","","47","","","M","","M","","","98.83","","27","","","","NA"
"2018-08-24 15:00","2018","08","24","15:00","23.3","","12.4","","50","","","M","","M","","","98.75","","26","","","","NA"
"2018-08-24 16:00","2018","08","24","16:00","23.7","","13.9","","54","","","M","","M","","","98.73","","27","","","","NA"
"2018-08-24 17:00","2018","08","24","17:00","22.9","","14.4","","59","","","M","","M","","","98.69","","27","","","","NA"
"2018-08-24 18:00","2018","08","24","18:00","21.9","","15.3","","66","","","M","","M","","","98.67","","26","","","","NA"
"2018-08-24 19:00","2018","08","24","19:00","20.6","","14.9","","70","","","M","","M","","","98.63","","25","","","","NA"
"2018-08-24 20:00","2018","08","24","20:00","19.9","","14.9","","73","","","M","","M","","","98.68","","","","","","NA"
"2018-08-24 21:00","2018","08","24","21:00","19.5","","15.4","","77","","","M","","M","","","98.68","","","","","","NA"
"2018-08-24 22:00","2018","08","24","22:00","19.2","","15.8","","81","","","M","","M","","","98.65","","","","","","NA"
"2018-08-24 23:00","2018","08","24","23:00","18.7","","15.9","","83","","","M","","M","","","98.63","","","","","","NA"
"2018-08-25 00:00","2018","08","25","00:00","19.0","","16.2","","84","","","M","","M","","","98.62","","","","","","NA"
"2018-08-25 01:00","2018","08","25","01:00","20.2","","16.5","","80","","","M","","M","","","98.61","","25","","","","NA"
"2018-08-25 02:00","2018","08","25","02:00","20.3","","16.7","","80","","","M","","M","","","98.61","","25","","","","NA"
"2018-08-25 03:00","2018","08","25","03:00","20.5","","16.6","","79","","","M","","M","","","98.61","","26","","","","NA"
"2018-08-25 04:00","2018","08","25","04:00","20.3","","16.9","","81","","","M","","M","","","98.60","","26","","","","NA"
"2018-08-25 05:00","2018","08","25","05:00","21.0","","17.4","","80","","","M","","M","","","98.60","","27","","","","NA"
"2018-08-25 06:00","2018","08","25","06:00","20.9","","17.4","","80","","","M","","M","","","98.58","","26","","","","NA"
"2018-08-25 07:00","2018","08","25","07:00","21.8","","18.3","","81","","","M","","M","","","98.56","","28","","","","NA"
"2018-08-25 08:00","2018","08","25","08:00","22.5","","18.7","","79","","","M","","M","","","98.52","","29","","","","NA"
"2018-08-25 09:00","2018","08","25","09:00","23.4","","18.8","","75","","","M","","M","","","98.53","","30","","","","NA"
"2018-08-25 10:00","2018","08","25","10:00","22.3","","17.5","","74","","","M","","M","","","98.54","","28","","","","NA"
"2018-08-25 11:00","2018","08","25","11:00","20.3","","18.4","","89","","","M","","M","","","98.63","","27","","","","NA"
"2018-08-25 12:00","2018","08","25","12:00","19.9","","18.6","","93","","","M","","M","","","98.59","","","","","","NA"
"2018-08-25 13:00","2018","08","25","13:00","20.9","","19.1","","90","","","M","","M","","","98.53","","28","","","","NA"
"2018-08-25 14:00","2018","08","25","14:00","21.8","","19.4","","86","","","M","","M","","","98.46","","29","","","","NA"
"2018-08-25 15:00","2018","08","25","15:00","22.8","","19.2","","80","","","M","","M","","","98.44","","30","","","","NA"
"2018-08-25 16:00","2018","08","25","16:00","22.8","","18.5","","77","","","M","","M","","","98.44","","29","","","","NA"
"2018-08-25 17:00","2018","08","25","17:00","22.8","","18.7","","78","","","M","","M","","","98.41","","29","","","","NA"
"2018-08-25 18:00","2018","08","25","18:00","22.3","","18.7","","80","","","M","","M","","","98.38","","29","","","","NA"
"2018-08-25 19:00","2018","08","25","19:00","21.3","","19.1","","87","","","M","","M","","","98.40","","28","","","","NA"
"2018-08-25 20:00","2018","08","25","20:00","20.8","","19.8","","94","","","M","","M","","","98.42","","28","","","","NA"
"2018-08-25 21:00","2018","08","25","21:00","20.7","","19.9","","95","","","M","","M","","","98.44","","28","","","","NA"
"2018-08-25 22:00","2018","08","25","22:00","21.1","","20.1","","95","","","M","","M","","","98.43","","29","","","","NA"
"2018-08-25 23:00","2018","08","25","23:00","21.4","","20.4","","94","","","M","","M","","","98.41","","29","","","","NA"
"2018-08-26 00:00","2018","08","26","00:00","21.4","","20.5","","94","","","M","","M","","","98.42","","29","","","","NA"
"2018-08-26 01:00","2018","08","26","01:00","21.5","","20.5","","94","","","M","","M","","","98.40","","29","","","","NA"
"2018-08-26 02:00","2018","08","26","02:00","21.4","","20.4","","94","","","M","","M","","","98.38","","29","","","","NA"
"2018-08-26 03:00","2018","08","26","03:00","21.4","","20.4","","94","","","M","","M","","","98.40","","29","","","","NA"
"2018-08-26 04:00","2018","08","26","04:00","21.3","","20.3","","94","","","M","","M","","","98.40","","29","","","","NA"
"2018-08-26 05:00","2018","08","26","05:00","21.2","","20.3","","94","","","M","","M","","","98.43","","29","","","","NA"
"2018-08-26 06:00","2018","08","26","06:00","20.7","","19.8","","95","","","M","","M","","","98.45","","28","","","","NA"
"2018-08-26 07:00","2018","08","26","07:00","21.3","","20.2","","93","","","M","","M","","","98.50","","29","","","","NA"
"2018-08-26 08:00","2018","08","26","08:00","21.9","","20.0","","89","","","M","","M","","","98.54","","29","","","","NA"
"2018-08-26 09:00","2018","08","26","09:00","22.7","","20.1","","85","","","M","","M","","","98.55","","30","","","","NA"
"2018-08-26 10:00","2018","08","26","10:00","23.8","","20.7","","83","","","M","","M","","","98.54","","32","","","","NA"
"2018-08-26 11:00","2018","08","26","11:00","25.1","","20.5","","76","","","M","","M","","","98.52","","33","","","","NA"
"2018-08-26 12:00","2018","08","26","12:00","26.4","","21.4","","74","","","M","","M","","","98.54","","35","","","","NA"
"2018-08-26 13:00","2018","08","26","13:00","26.7","","20.9","","71","","","M","","M","","","98.53","","35","","","","NA"
"2018-08-26 14:00","2018","08","26","14:00","26.8","","21.1","","71","","","M","","M","","","98.53","","35","","","","NA"
"2018-08-26 15:00","2018","08","26","15:00","27.1","","21.1","","70","","","M","","M","","","98.49","","36","","","","NA"
"2018-08-26 16:00","2018","08","26","16:00","26.9","","21.1","","71","","","M","","M","","","98.49","","35","","","","NA"
"2018-08-26 17:00","2018","08","26","17:00","26.3","","21.1","","73","","","M","","M","","","98.47","","35","","","","NA"
"2018-08-26 18:00","2018","08","26","18:00","26.0","","21.3","","75","","","M","","M","","","98.48","","35","","","","NA"
"2018-08-26 19:00","2018","08","26","19:00","24.5","","22.2","","87","","","M","","M","","","98.42","","34","","","","NA"
"2018-08-26 20:00","2018","08","26","20:00","22.8","","21.7","","93","","","M","","M","","","98.52","","32","","","","NA"
"2018-08-26 21:00","2018","08","26","21:00","22.1","","21.4","","96","","","M","","M","","","98.51","","31","","","","NA"
"2018-08-26 22:00","2018","08","26","22:00","21.8","","21.3","","97","","","M","","M","","","98.53","","30","","","","NA"
"2018-08-26 23:00","2018","08","26","23:00","21.3","","20.7","","97","","","M","","M","","","98.52","","29","","","","NA"
"2018-08-27 00:00","2018","08","27","00:00","21.1","","20.7","","97","","","M","","M","","","98.50","","29","","","","NA"
"2018-08-27 01:00","2018","08","27","01:00","20.6","","20.2","","97","","","M","","M","","","98.48","","28","","","","NA"
"2018-08-27 02:00","2018","08","27","02:00","20.6","","20.3","","98","","","M","","M","","","98.42","","28","","","","NA"
"2018-08-27 03:00","2018","08","27","03:00","20.8","","20.5","","98","","","M","","M","","","98.43","","29","","","","NA"
"2018-08-27 04:00","2018","08","27","04:00","20.0","","19.6","","97","","","M","","M","","","98.59","","27","","","","NA"
"2018-08-27 05:00","2018","08","27","05:00","20.1","","19.4","","96","","","M","","M","","","98.42","","27","","","","NA"
"2018-08-27 06:00","2018","08","27","06:00","20.0","","19.3","","96","","","M","","M","","","98.43","","27","","","","NA"
"2018-08-27 07:00","2018","08","27","07:00","20.2","","19.6","","96","","","M","","M","","","98.47","","27","","","","NA"
"2018-08-27 08:00","2018","08","27","08:00","21.4","","20.0","","92","","","M","","M","","","98.48","","29","","","","NA"
"2018-08-27 09:00","2018","08","27","09:00","22.0","","20.4","","91","","","M","","M","","","98.48","","30","","","","NA"
"2018-08-27 10:00","2018","08","27","10:00","23.3","","21.7","","91","","","M","","M","","","98.50","","32","","","","NA"
"2018-08-27 11:00","2018","08","27","11:00","25.1","","23.0","","89","","","M","","M","","","98.40","","35","","","","NA"
"2018-08-27 12:00","2018","08","27","12:00","25.7","","23.0","","85","","","M","","M","","","98.35","","36","","","","NA"
"2018-08-27 13:00","2018","08","27","13:00","26.5","","23.3","","82","","","M","","M","","","98.32","","37","","","","NA"
"2018-08-27 14:00","2018","08","27","14:00","27.1","","24.0","","83","","","M","","M","","","98.32","","38","","","","NA"
"2018-08-27 15:00","2018","08","27","15:00","28.2","","23.8","","77","","","M","","M","","","98.26","","39","","","","NA"
"2018-08-27 16:00","2018","08","27","16:00","29.3","","23.8","","72","","","M","","M","","","98.22","","40","","","","NA"
"2018-08-27 17:00","2018","08","27","17:00","28.5","","23.1","","72","","","M","","M","","","98.26","","39","","","","NA"
"2018-08-27 18:00","2018","08","27","18:00","28.3","","22.8","","72","","","M","","M","","","98.22","","38","","","","NA"
"2018-08-27 19:00","2018","08","27","19:00","26.9","","22.8","","78","","","M","","M","","","98.20","","37","","","","NA"
"2018-08-27 20:00","2018","08","27","20:00","26.0","","22.6","","82","","","M","","M","","","98.21","","36","","","","NA"
"2018-08-27 21:00","2018","08","27","21:00","26.1","","22.3","","80","","","M","","M","","","98.23","","36","","","","NA"
"2018-08-27 22:00","2018","08","27","22:00","25.6","","22.0","","80","","","M","","M","","","98.23","","35","","","","NA"
"2018-08-27 23:00","2018","08","27","23:00","25.4","","21.8","","81","","","M","","M","","","98.22","","35","","","","NA"
"2018-08-28 00:00","2018","08","28","00:00","25.4","","21.8","","80","","","M","","M","","","98.21","","35","","","","NA"
"2018-08-28 01:00","2018","08","28","01:00","25.1","","21.4","","80","","","M","","M","","","98.23","","34","","","","NA"
"2018-08-28 02:00","2018","08","28","02:00","25.0","","21.3","","80","","","M","","M","","","98.23","","34","","","","NA"
"2018-08-28 03:00","2018","08","28","03:00","24.4","","21.3","","83","","","M","","M","","","98.18","","33","","","","NA"
"2018-08-28 04:00","2018","08","28","04:00","24.2","","21.4","","84","","","M","","M","","","98.19","","33","","","","NA"
"2018-08-28 05:00","2018","08","28","05:00","23.9","","21.1","","85","","","M","","M","","","98.21","","32","","","","NA"
"2018-08-28 06:00","2018","08","28","06:00","23.6","","21.0","","86","","","M","","M","","","98.22","","32","","","","NA"
"2018-08-28 07:00","2018","08","28","07:00","24.0","","21.0","","83","","","M","","M","","","98.23","","32","","","","NA"
"2018-08-28 08:00","2018","08","28","08:00","24.5","","21.1","","81","","","M","","M","","","98.29","","33","","","","NA"
"2018-08-28 09:00","2018","08","28","09:00","25.7","","21.6","","78","","","M","","M","","","98.28","","35","","","","NA"
"2018-08-28 10:00","2018","08","28","10:00","26.7","","21.8","","75","","","M","","M","","","98.22","","36","","","","NA"
"2018-08-28 11:00","2018","08","28","11:00","27.7","","21.3","","68","","","M","","M","","","98.09","","36","","","","NA"
"2018-08-28 12:00","2018","08","28","12:00","28.7","","22.3","","68","","","M","","M","","","98.16","","38","","","","NA"
"2018-08-28 13:00","2018","08","28","13:00","29.5","","21.4","","62","","","M","","M","","","98.24","","38","","","","NA"
"2018-08-28 14:00","2018","08","28","14:00","30.4","","23.0","","65","","","M","","M","","","98.24","","41","","","","NA"
"2018-08-28 15:00","2018","08","28","15:00","29.7","","22.5","","66","","","M","","M","","","98.23","","39","","","","NA"
"2018-08-28 16:00","2018","08","28","16:00","29.9","","22.5","","65","","","M","","M","","","98.20","","40","","","","NA"
"2018-08-28 17:00","2018","08","28","17:00","29.3","","22.8","","68","","","M","","M","","","98.15","","39","","","","NA"
"2018-08-28 18:00","2018","08","28","18:00","28.5","","22.7","","71","","","M","","M","","","98.20","","38","","","","NA"
"2018-08-28 19:00","2018","08","28","19:00","27.1","","22.6","","77","","","M","","M","","","98.27","","37","","","","NA"
"2018-08-28 20:00","2018","08","28","20:00","25.5","","23.2","","87","","","M","","M","","","98.27","","36","","","","NA"
"2018-08-28 21:00","2018","08","28","21:00","25.6","","22.6","","83","","","M","","M","","","98.19","","35","","","","NA"
"2018-08-28 22:00","2018","08","28","22:00","25.7","","22.1","","81","","","M","","M","","","98.18","","35","","","","NA"
"2018-08-28 23:00","2018","08","28","23:00","25.7","","22.1","","81","","","M","","M","","","98.17","","35","","","","NA"
"2018-08-29 00:00","2018","08","29","00:00","25.7","","21.8","","79","","","M","","M","","","98.17","","35","","","","NA"
"2018-08-29 01:00","2018","08","29","01:00","25.5","","21.7","","79","","","M","","M","","","98.19","","35","","","","NA"
"2018-08-29 02:00","2018","08","29","02:00","23.2","","19.5","","80","","","M","","M","","","98.21","","30","","","","NA"
"2018-08-29 03:00","2018","08","29","03:00","21.7","","19.3","","86","","","M","","M","","","98.11","","29","","","","NA"
"2018-08-29 04:00","2018","08","29","04:00","21.2","","19.5","","90","","","M","","M","","","98.00","","28","","","","NA"
"2018-08-29 05:00","2018","08","29","05:00","21.4","","20.0","","92","","","M","","M","","","98.00","","29","","","","NA"
"2018-08-29 06:00","2018","08","29","06:00","23.3","","21.7","","91","","","M","","M","","","97.95","","32","","","","NA"
"2018-08-29 07:00","2018","08","29","07:00","23.8","","21.9","","89","","","M","","M","","","97.98","","33","","","","NA"
"2018-08-29 08:00","2018","08","29","08:00","24.2","","21.8","","87","","","M","","M","","","98.07","","33","","","","NA"
"2018-08-29 09:00","2018","08","29","09:00","24.9","","21.5","","82","","","M","","M","","","98.10","","34","","","","NA"
"2018-08-29 10:00","2018","08","29","10:00","23.0","","19.1","","79","","","M","","M","","","98.19","","30","","","","NA"
"2018-08-29 11:00","2018","08","29","11:00","25.3","","18.9","","68","","","M","","M","","","98.16","","32","","","","NA"
"2018-08-29 12:00","2018","08","29","12:00","25.9","","19.1","","66","","","M","","M","","","98.12","","33","","","","NA"
"2018-08-29 13:00","2018","08","29","13:00","24.1","","19.1","","74","","","M","","M","","","98.20","","31","","","","NA"
"2018-08-29 14:00","2018","08","29","14:00","24.0","","18.9","","73","","","M","","M","","","98.16","","31","","","","NA"
"2018-08-29 15:00","2018","08","29","15:00","25.5","","19.5","","69","","","M","","M","","","98.09","","33","","","","NA"
"2018-08-29 16:00","2018","08","29","16:00","26.7","","19.7","","66","","","M","","M","","","98.13","","34","","","","NA"
"2018-08-29 17:00","2018","08","29","17:00","25.5","","19.5","","69","","","M","","M","","","98.14","","33","","","","NA"
"2018-08-29 18:00","2018","08","29","18:00","24.0","","19.7","","77","","","M","","M","","","98.20","","31","","","","NA"
"2018-08-29 19:00","2018","08","29","19:00","22.5","","19.5","","83","","","M","","M","","","98.25","","30","","","","NA"
"2018-08-29 20:00","2018","08","29","20:00","21.6","","19.2","","86","","","M","","M","","","98.37","","29","","","","NA"
"2018-08-29 21:00","2018","08","29","21:00","20.6","","18.0","","85","","","M","","M","","","98.44","","27","","","","NA"
"2018-08-29 22:00","2018","08","29","22:00","18.8","","16.3","","85","","","M","","M","","","98.51","","","","","","NA"
"2018-08-29 23:00","2018","08","29","23:00","17.7","","14.8","","84","","","M","","M","","","98.57","","","","","","NA"
"2018-08-30 00:00","2018","08","30","00:00","17.1","","14.6","","85","","","M","","M","","","98.63","","","","","","NA"
"2018-08-30 01:00","2018","08","30","01:00","16.9","","14.2","","85","","","M","","M","","","98.66","","","","","","NA"
"2018-08-30 02:00","2018","08","30","02:00","16.4","","14.2","","87","","","M","","M","","","98.69","","","","","","NA"
"2018-08-30 03:00","2018","08","30","03:00","15.5","","13.8","","89","","","M","","M","","","98.69","","","","","","NA"
"2018-08-30 04:00","2018","08","30","04:00","15.2","","13.8","","91","","","M","","M","","","98.72","","","","","","NA"
"2018-08-30 05:00","2018","08","30","05:00","15.0","","13.8","","93","","","M","","M","","","98.79","","","","","","NA"
"2018-08-30 06:00","2018","08","30","06:00","14.5","","13.3","","93","","","M","","M","","","98.88","","","","","","NA"
"2018-08-30 07:00","2018","08","30","07:00","15.7","","14.2","","91","","","M","","M","","","98.94","","","","","","NA"
"2018-08-30 08:00","2018","08","30","08:00","16.8","","14.3","","86","","","M","","M","","","98.98","","","","","","NA"
"2018-08-30 09:00","2018","08","30","09:00","18.1","","13.0","","72","","","M","","M","","","99.01","","","","","","NA"
"2018-08-30 10:00","2018","08","30","10:00","18.7","","12.5","","68","","","M","","M","","","99.03","","","","","","NA"
"2018-08-30 11:00","2018","08","30","11:00","18.7","","11.5","","63","","","M","","M","","","99.04","","","","","","NA"
"2018-08-30 12:00","2018","08","30","12:00","19.1","","11.3","","61","","","M","","M","","","99.03","","","","","","NA"
"2018-08-30 13:00","2018","08","30","13:00","19.9","","12.7","","63","","","M","","M","","","99.02","","","","","","NA"
"2018-08-30 14:00","2018","08","30","14:00","20.0","","12.0","","60","","","M","","M","","","98.98","","","","","","NA"
"2018-08-30 15:00","2018","08","30","15:00","20.0","","11.0","","56","","","M","","M","","","98.94","","","","","","NA"
"2018-08-30 16:00","2018","08","30","16:00","20.1","","12.1","","60","","","M","","M","","","98.94","","","","","","NA"
"2018-08-30 17:00","2018","08","30","17:00","20.1","","11.3","","57","","","M","","M","","","98.94","","","","","","NA"
"2018-08-30 18:00","2018","08","30","18:00","20.0","","11.5","","58","","","M","","M","","","98.95","","","","","","NA"
"2018-08-30 19:00","2018","08","30","19:00","18.8","","12.6","","67","","","M","","M","","","98.93","","","","","","NA"
"2018-08-30 20:00","2018","08","30","20:00","16.0","","13.0","","83","","","M","","M","","","98.99","","","","","","NA"
"2018-08-30 21:00","2018","08","30","21:00","16.8","","13.7","","82","","","M","","M","","","99.02","","","","","","NA"
"2018-08-30 22:00","2018","08","30","22:00","16.3","","13.3","","83","","","M","","M","","","99.01","","","","","","NA"
"2018-08-30 23:00","2018","08","30","23:00","15.3","","12.6","","84","","","M","","M","","","99.00","","","","","","NA"
"2018-08-31 00:00","2018","08","31","00:00","14.4","","12.4","","88","","","M","","M","","","99.02","","","","","","NA"
"2018-08-31 01:00","2018","08","31","01:00","13.1","","11.8","","92","","","M","","M","","","99.02","","","","","","NA"
"2018-08-31 02:00","2018","08","31","02:00","13.9","","12.5","","91","","","M","","M","","","99.02","","","","","","NA"
"2018-08-31 03:00","2018","08","31","03:00","13.1","","12.1","","94","","","M","","M","","","98.97","","","","","","NA"
"2018-08-31 04:00","2018","08","31","04:00","12.5","","11.6","","94","","","M","","M","","","98.95","","","","","","NA"
"2018-08-31 05:00","2018","08","31","05:00","12.3","","11.4","","94","","","M","","M","","","99.01","","","","","","NA"
"2018-08-31 06:00","2018","08","31","06:00","12.0","","11.1","","95","","","M","","M","","","99.04","","","","","","NA"
"2018-08-31 07:00","2018","08","31","07:00","13.7","","12.3","","91","","","M","","M","","","99.05","","","","","","NA"
"2018-08-31 08:00","2018","08","31","08:00","16.5","","13.9","","85","","","M","","M","","","99.04","","","","","","NA"
"2018-08-31 09:00","2018","08","31","09:00","19.2","","15.4","","79","","","M","","M","","","99.03","","","","","","NA"
"2018-08-31 10:00","2018","08","31","10:00","20.9","","13.8","","64","","","M","","M","","","99.03","","","","","","NA"
"2018-08-31 11:00","2018","08","31","11:00","21.2","","12.6","","58","","","M","","M","","","99.03","","","","","","NA"
"2018-08-31 12:00","2018","08","31","12:00","22.1","","13.2","","57","","","M","","M","","","99.09","","25","","","","NA"
"2018-08-31 13:00","2018","08","31","13:00","22.4","","13.0","","55","","","M","","M","","","99.03","","25","","","","NA"
"2018-08-31 14:00","2018","08","31","14:00","22.9","","13.6","","56","","","M","","M","","","98.99","","26","","","","NA"
"2018-08-31 15:00","2018","08","31","15:00","23.4","","13.3","","53","","","M","","M","","","98.94","","26","","","","NA"
"2018-08-31 16:00","2018","08","31","16:00","23.3","","13.2","","53","","","M","","M","","","98.92","","26","","","","NA"
"2018-08-31 17:00","2018","08","31","17:00","23.7","","14.6","","57","","","M","","M","","","98.89","","27","","","","NA"
"2018-08-31 18:00","2018","08","31","18:00","22.5","","13.9","","58","","","M","","M","","","98.86","","26","","","","NA"
"2018-08-31 19:00","2018","08","31","19:00","20.1","","14.6","","71","","","M","","M","","","98.84","","","","","","NA"
"2018-08-31 20:00","2018","08","31","20:00","18.5","","15.4","","82","","","M","","M","","","98.89","","","","","","NA"
"2018-08-31 21:00","2018","08","31","21:00","17.8","","15.3","","85","","","M","","M","","","98.93","","","","","","NA"
"2018-08-31 22:00","2018","08","31","22:00","16.5","","14.7","","89","","","M","","M","","","98.90","","","","","","NA"
"2018-08-31 23:00","2018","08","31","23:00","15.8","","14.7","","93","","","M","","M","","","98.87","","","","","","NA"
