"Station Name","BARRIE-ORO"
"Province","ONTARIO"
"Latitude","44.48"
"Longitude","-79.55"
"Elevation","289.00"
"Climate Identifier","6117700"
"WMO Identifier","71314"
"TC Identifier","XBI"
"All times are specified in Local Standard Time (LST). Add 1 hour to adjust for Daylight Saving Time where and when it is observed."

"Legend"
"E","Estimated"
"M","Missing"
"NA","Not Available"

"Date/Time","Year","Month","Day","Time","Temp (°C)","Temp Flag","Dew Point Temp (°C)","Dew Point Temp Flag","Rel Hum (%)","Rel Hum Flag","Wind Dir (10s deg)","Wind Dir Flag","Wind Spd (km/h)","Wind Spd Flag","Visibility (km)","Visibility Flag","Stn Press (kPa)","Stn Press Flag","Hmdx","Hmdx Flag","Wind Chill","Wind Chill Flag","Weather"
"2017-01-01 00:00","2017","01","01","00:00","-1.4","","-2.9","","90","","26","","20","","","","97.03","","","","-7","","NA"
"2017-01-01 01:00","2017","01","01","01:00","-1.2","","-3.6","","84","","29","","28","","","","97.23","","","","-8","","NA"
"2017-01-01 02:00","2017","01","01","02:00","-1.4","","-4.7","","78","","30","","20","","","","97.38","","","","-7","","NA"
"2017-01-01 03:00","2017","01","01","03:00","-1.6","","-4.8","","79","","31","","16","","","","97.56","","","","-7","","NA"
"2017-01-01 04:00","2017","01","01","04:00","-2.6","","-5.5","","80","","31","","11","","","","97.74","","","","-7","","NA"
"2017-01-01 05:00","2017","01","01","05:00","-2.5","","-5.0","","83","","30","","11","","","","97.82","","","","-7","","NA"
"2017-01-01 06:00","2017","01","01","06:00","-2.8","","-3.9","","92","","26","","8","","","","97.95","","","","-6","","NA"
"2017-01-01 07:00","2017","01","01","07:00","-2.8","","-3.9","","92","","24","","2","","","","98.05","","","","-4","","NA"
"2017-01-01 08:00","2017","01","01","08:00","-3.0","","-3.9","","93","","25","","2","","","","98.15","","","","-4","","NA"
"2017-01-01 09:00","2017","01","01","09:00","-1.9","","-3.7","","88","","19","","9","","","","98.25","","","","-5","","NA"
"2017-01-01 10:00","2017","01","01","10:00","-1.3","","-4.6","","78","","24","","14","","","","98.38","","","","-6","","NA"
"2017-01-01 11:00","2017","01","01","11:00","-0.7","","-5.4","","70","","25","","16","","","","98.47","","","","-5","","NA"
"2017-01-01 12:00","2017","01","01","12:00","-0.5","","-5.9","","67","","25","","14","","","","98.47","","","","-5","","NA"
"2017-01-01 13:00","2017","01","01","13:00","-0.7","","-5.8","","68","","21","","10","","","","98.45","","","","-4","","NA"
"2017-01-01 14:00","2017","01","01","14:00","-0.3","","-5.9","","66","","20","","14","","","","98.49","","","","-5","","NA"
"2017-01-01 15:00","2017","01","01","15:00","-0.1","","-5.9","","65","","22","","11","","","","98.59","","","","-4","","NA"
"2017-01-01 16:00","2017","01","01","16:00","-0.6","","-5.8","","68","","21","","8","","","","98.67","","","","-3","","NA"
"2017-01-01 17:00","2017","01","01","17:00","-1.7","","-6.0","","72","","20","","9","","","","98.74","","","","-5","","NA"
"2017-01-01 18:00","2017","01","01","18:00","-4.0","","-7.3","","78","","19","","7","","","","98.75","","","","-7","","NA"
"2017-01-01 19:00","2017","01","01","19:00","-2.9","","-7.5","","71","","22","","7","","","","98.88","","","","-6","","NA"
"2017-01-01 20:00","2017","01","01","20:00","-4.7","","-8.3","","76","","25","","4","","","","98.94","","","","-6","","NA"
"2017-01-01 21:00","2017","01","01","21:00","-9.9","","-10.9","","92","","","","0","","","","99.01","","","","","","NA"
"2017-01-01 22:00","2017","01","01","22:00","-11.3","","-12.5","","91","","28","","3","","","","99.08","","","","-13","","NA"
"2017-01-01 23:00","2017","01","01","23:00","-11.0","","-12.1","","92","","0","","1","","","","99.11","","","","-12","","NA"
"2017-01-02 00:00","2017","01","02","00:00","-11.1","","-12.4","","90","","","","0","","","","99.10","","","","","","NA"
"2017-01-02 01:00","2017","01","02","01:00","-11.2","","-12.3","","91","","28","","2","","","","99.15","","","","-12","","NA"
"2017-01-02 02:00","2017","01","02","02:00","-11.4","","-12.6","","90","","34","","4","","","","99.19","","","","-14","","NA"
"2017-01-02 03:00","2017","01","02","03:00","-10.9","","-12.3","","90","","36","","4","","","","99.25","","","","-13","","NA"
"2017-01-02 04:00","2017","01","02","04:00","-10.9","","-12.3","","89","","2","","4","","","","99.20","","","","-13","","NA"
"2017-01-02 05:00","2017","01","02","05:00","-8.7","","-10.0","","90","","6","","7","","","","99.16","","","","-13","","NA"
"2017-01-02 06:00","2017","01","02","06:00","-7.8","","-9.0","","91","","2","","3","","","","99.17","","","","-9","","NA"
"2017-01-02 07:00","2017","01","02","07:00","-8.6","","-9.8","","91","","5","","5","","","","99.27","","","","-11","","NA"
"2017-01-02 08:00","2017","01","02","08:00","-10.3","","-11.5","","91","","6","","6","","","","99.29","","","","-14","","NA"
"2017-01-02 09:00","2017","01","02","09:00","-5.9","","-6.7","","94","","7","","11","","","","99.28","","","","-11","","NA"
"2017-01-02 10:00","2017","01","02","10:00","-4.6","","-6.1","","89","","8","","11","","","","99.30","","","","-9","","NA"
"2017-01-02 11:00","2017","01","02","11:00","-2.4","","-4.9","","83","","8","","14","","","","99.24","","","","-7","","NA"
"2017-01-02 12:00","2017","01","02","12:00","-0.7","","-3.9","","79","","9","","19","","","","99.09","","","","-6","","NA"
"2017-01-02 13:00","2017","01","02","13:00","0.7","","-3.5","","74","","9","","17","","","","99.06","","","","","","NA"
"2017-01-02 14:00","2017","01","02","14:00","1.2","","-3.7","","70","","9","","18","","","","99.04","","","","","","NA"
"2017-01-02 15:00","2017","01","02","15:00","1.3","","-3.5","","70","","10","","20","","","","98.96","","","","","","NA"
"2017-01-02 16:00","2017","01","02","16:00","1.4","","-2.8","","74","","10","","20","","","","98.90","","","","","","NA"
"2017-01-02 17:00","2017","01","02","17:00","1.2","","-2.5","","77","","9","","18","","","","98.85","","","","","","NA"
"2017-01-02 18:00","2017","01","02","18:00","1.2","","-2.3","","77","","10","","18","","","","98.82","","","","","","NA"
"2017-01-02 19:00","2017","01","02","19:00","1.1","","-2.0","","80","","13","","11","","","","98.79","","","","","","NA"
"2017-01-02 20:00","2017","01","02","20:00","0.9","","-1.8","","82","","11","","17","","","","98.62","","","","","","NA"
"2017-01-02 21:00","2017","01","02","21:00","0.9","","-1.4","","85","","11","","14","","","","98.60","","","","","","NA"
"2017-01-02 22:00","2017","01","02","22:00","0.8","","-0.9","","88","","10","","19","","","","98.56","","","","","","NA"
"2017-01-02 23:00","2017","01","02","23:00","0.5","","-0.4","","94","","10","","21","","","","98.41","","","","","","NA"
"2017-01-03 00:00","2017","01","03","00:00","0.4","","-0.2","","95","","10","","16","","","","98.39","","","","","","NA"
"2017-01-03 01:00","2017","01","03","01:00","0.5","","-0.1","","96","","10","","17","","","","98.29","","","","","","NA"
"2017-01-03 02:00","2017","01","03","02:00","0.6","","0.0","","96","","11","","15","","","","98.28","","","","","","NA"
"2017-01-03 03:00","2017","01","03","03:00","0.7","","0.1","","96","","11","","12","","","","98.25","","","","","","NA"
"2017-01-03 04:00","2017","01","03","04:00","0.6","","0.0","","96","","10","","17","","","","98.02","","","","","","NA"
"2017-01-03 05:00","2017","01","03","05:00","0.5","","-0.1","","96","","11","","16","","","","97.91","","","","","","NA"
"2017-01-03 06:00","2017","01","03","06:00","0.7","","0.0","","96","","11","","15","","","","97.81","","","","","","NA"
"2017-01-03 07:00","2017","01","03","07:00","0.8","","0.2","","96","","10","","12","","","","97.74","","","","","","NA"
"2017-01-03 08:00","2017","01","03","08:00","0.7","","0.1","","96","","10","","13","","","","97.67","","","","","","NA"
"2017-01-03 09:00","2017","01","03","09:00","0.7","","0.1","","96","","9","","14","","","","97.61","","","","","","NA"
"2017-01-03 10:00","2017","01","03","10:00","0.8","","0.2","","96","","10","","11","","","","97.55","","","","","","NA"
"2017-01-03 11:00","2017","01","03","11:00","0.9","","0.3","","96","","9","","10","","","","97.47","","","","","","NA"
"2017-01-03 12:00","2017","01","03","12:00","0.9","","0.3","","96","","7","","11","","","","97.35","","","","","","NA"
"2017-01-03 13:00","2017","01","03","13:00","0.9","","0.3","","96","","8","","16","","","","97.18","","","","","","NA"
"2017-01-03 14:00","2017","01","03","14:00","0.8","","0.2","","95","","8","","17","","","","97.10","","","","","","NA"
"2017-01-03 15:00","2017","01","03","15:00","0.9","","0.2","","95","","7","","16","","","","97.00","","","","","","NA"
"2017-01-03 16:00","2017","01","03","16:00","0.9","","0.1","","95","","8","","16","","","","96.88","","","","","","NA"
"2017-01-03 17:00","2017","01","03","17:00","0.7","","0.0","","95","","8","","14","","","","96.83","","","","","","NA"
"2017-01-03 18:00","2017","01","03","18:00","0.6","","0.0","","95","","6","","11","","","","96.78","","","","","","NA"
"2017-01-03 19:00","2017","01","03","19:00","0.7","","0.0","","95","","3","","6","","","","96.74","","","","","","NA"
"2017-01-03 20:00","2017","01","03","20:00","0.5","","-0.1","","96","","3","","6","","","","96.65","","","","","","NA"
"2017-01-03 21:00","2017","01","03","21:00","0.6","","0.0","","96","","6","","7","","","","96.51","","","","","","NA"
"2017-01-03 22:00","2017","01","03","22:00","0.6","","0.0","","96","","7","","6","","","","96.41","","","","","","NA"
"2017-01-03 23:00","2017","01","03","23:00","0.5","","0.0","","96","","6","","2","","","","96.35","","","","","","NA"
"2017-01-04 00:00","2017","01","04","00:00","0.4","","-0.1","","96","","23","","3","","","","96.28","","","","","","NA"
"2017-01-04 01:00","2017","01","04","01:00","0.4","","-0.1","","97","","25","","3","","","","96.17","","","","","","NA"
"2017-01-04 02:00","2017","01","04","02:00","0.4","","-0.1","","97","","25","","7","","","","96.15","","","","","","NA"
"2017-01-04 03:00","2017","01","04","03:00","0.5","","0.0","","97","","27","","8","","","","96.11","","","","","","NA"
"2017-01-04 04:00","2017","01","04","04:00","1.4","","0.8","","96","","29","","34","","","","96.11","","","","","","NA"
"2017-01-04 05:00","2017","01","04","05:00","1.0","","-0.1","","92","","28","","22","","","","96.08","","","","","","NA"
"2017-01-04 06:00","2017","01","04","06:00","0.5","","-0.5","","93","","29","","22","","","","96.09","","","","","","NA"
"2017-01-04 07:00","2017","01","04","07:00","0.5","","-0.7","","92","","28","","23","","","","96.07","","","","","","NA"
"2017-01-04 08:00","2017","01","04","08:00","0.2","","-0.8","","93","","26","","17","","","","96.09","","","","","","NA"
"2017-01-04 09:00","2017","01","04","09:00","0.1","","-0.8","","94","","25","","14","","","","96.06","","","","","","NA"
"2017-01-04 10:00","2017","01","04","10:00","-1.0","","-1.7","","95","","28","","37","","","","96.14","","","","-8","","NA"
"2017-01-04 11:00","2017","01","04","11:00","-1.8","","-3.1","","91","","28","","37","","","","96.20","","","","-10","","NA"
"2017-01-04 12:00","2017","01","04","12:00","-3.6","","-5.5","","86","","29","","39","","","","96.22","","","","-12","","NA"
"2017-01-04 13:00","2017","01","04","13:00","-5.1","","-7.3","","85","","28","","32","","","","96.29","","","","-13","","NA"
"2017-01-04 14:00","2017","01","04","14:00","-5.6","","-10.0","","71","","27","","35","","","","96.34","","","","-14","","NA"
"2017-01-04 15:00","2017","01","04","15:00","-6.0","","-9.4","","77","","26","","27","","","","96.38","","","","-14","","NA"
"2017-01-04 16:00","2017","01","04","16:00","-6.1","","-9.6","","76","","25","","26","","","","96.40","","","","-14","","NA"
"2017-01-04 17:00","2017","01","04","17:00","-7.3","","-10.8","","76","","26","","30","","","","96.47","","","","-16","","NA"
"2017-01-04 18:00","2017","01","04","18:00","-8.2","","-11.9","","75","","26","","27","","","","96.56","","","","-17","","NA"
"2017-01-04 19:00","2017","01","04","19:00","-8.8","","-12.8","","73","","26","","26","","","","96.61","","","","-17","","NA"
"2017-01-04 20:00","2017","01","04","20:00","-9.2","","-12.7","","76","","25","","22","","","","96.64","","","","-17","","NA"
"2017-01-04 21:00","2017","01","04","21:00","-9.1","","-12.4","","77","","25","","21","","","","96.63","","","","-17","","NA"
"2017-01-04 22:00","2017","01","04","22:00","-9.1","","-12.7","","75","","26","","26","","","","96.65","","","","-18","","NA"
"2017-01-04 23:00","2017","01","04","23:00","-8.9","","-12.6","","74","","25","","28","","","","96.65","","","","-18","","NA"
"2017-01-05 00:00","2017","01","05","00:00","-8.5","","-11.1","","82","","25","","23","","","","96.65","","","","-17","","NA"
"2017-01-05 01:00","2017","01","05","01:00","-7.9","","-9.3","","90","","27","","22","","","","96.70","","","","-16","","NA"
"2017-01-05 02:00","2017","01","05","02:00","-7.6","","-9.3","","88","","29","","23","","","","96.78","","","","-15","","NA"
"2017-01-05 03:00","2017","01","05","03:00","-7.7","","-9.0","","90","","28","","19","","","","96.93","","","","-15","","NA"
"2017-01-05 04:00","2017","01","05","04:00","-7.5","","-8.6","","92","","28","","8","","","","96.96","","","","-12","","NA"
"2017-01-05 05:00","2017","01","05","05:00","-7.6","","-9.0","","90","","27","","20","","","","97.01","","","","-15","","NA"
"2017-01-05 06:00","2017","01","05","06:00","-7.9","","-10.6","","81","","26","","23","","","","97.09","","","","-16","","NA"
"2017-01-05 07:00","2017","01","05","07:00","-8.5","","-11.4","","79","","26","","26","","","","97.14","","","","-17","","NA"
"2017-01-05 08:00","2017","01","05","08:00","-9.0","","-12.0","","79","","26","","22","","","","97.19","","","","-17","","NA"
"2017-01-05 09:00","2017","01","05","09:00","-9.2","","-12.2","","78","","25","","17","","","","97.27","","","","-16","","NA"
"2017-01-05 10:00","2017","01","05","10:00","-8.9","","-12.8","","73","","25","","20","","","","97.33","","","","-16","","NA"
"2017-01-05 11:00","2017","01","05","11:00","-8.4","","-13.0","","70","","25","","23","","","","97.39","","","","-16","","NA"
"2017-01-05 12:00","2017","01","05","12:00","-8.3","","-13.3","","67","","25","","19","","","","97.34","","","","-16","","NA"
"2017-01-05 13:00","2017","01","05","13:00","-7.8","","-13.7","","63","","26","","19","","","","97.31","","","","-15","","NA"
"2017-01-05 14:00","2017","01","05","14:00","-8.3","","-13.9","","64","","27","","26","","","","97.31","","","","-17","","NA"
"2017-01-05 15:00","2017","01","05","15:00","-8.6","","-14.3","","63","","26","","17","","","","97.34","","","","-15","","NA"
"2017-01-05 16:00","2017","01","05","16:00","-9.1","","-15.2","","61","","25","","18","","","","97.40","","","","-16","","NA"
"2017-01-05 17:00","2017","01","05","17:00","-10.1","","-15.7","","63","","25","","13","","","","97.38","","","","-16","","NA"
"2017-01-05 18:00","2017","01","05","18:00","-10.7","","-15.7","","67","","25","","16","","","","97.44","","","","-18","","NA"
"2017-01-05 19:00","2017","01","05","19:00","-11.7","","-15.8","","71","","25","","14","","","","97.50","","","","-19","","NA"
"2017-01-05 20:00","2017","01","05","20:00","-12.5","","-16.0","","75","","25","","12","","","","97.53","","","","-19","","NA"
"2017-01-05 21:00","2017","01","05","21:00","-13.0","","-16.8","","73","","26","","11","","","","97.55","","","","-19","","NA"
"2017-01-05 22:00","2017","01","05","22:00","-13.4","","-16.8","","75","","26","","13","","","","97.56","","","","-20","","NA"
"2017-01-05 23:00","2017","01","05","23:00","-13.2","","-16.4","","77","","26","","15","","","","97.61","","","","-21","","NA"
"2017-01-06 00:00","2017","01","06","00:00","-13.8","","-16.8","","78","","27","","16","","","","97.61","","","","-22","","NA"
"2017-01-06 01:00","2017","01","06","01:00","-13.9","","-16.9","","78","","27","","14","","","","97.63","","","","-21","","NA"
"2017-01-06 02:00","2017","01","06","02:00","-14.1","","-17.3","","77","","26","","11","","","","97.68","","","","-21","","NA"
"2017-01-06 03:00","2017","01","06","03:00","-15.3","","-18.0","","79","","27","","11","","","","97.74","","","","-22","","NA"
"2017-01-06 04:00","2017","01","06","04:00","-15.1","","-17.8","","80","","26","","10","","","","97.75","","","","-21","","NA"
"2017-01-06 05:00","2017","01","06","05:00","-15.9","","-18.8","","78","","26","","9","","","","97.77","","","","-22","","NA"
"2017-01-06 06:00","2017","01","06","06:00","-16.1","","-19.1","","78","","26","","10","","","","97.84","","","","-23","","NA"
"2017-01-06 07:00","2017","01","06","07:00","-17.7","","-20.1","","81","","25","","6","","","","97.89","","","","-22","","NA"
"2017-01-06 08:00","2017","01","06","08:00","-20.4","","-22.5","","83","","27","","6","","","","97.94","","","","-25","","NA"
"2017-01-06 09:00","2017","01","06","09:00","-16.2","","-17.8","","87","","23","","7","","","","98.06","","","","-21","","NA"
"2017-01-06 10:00","2017","01","06","10:00","-12.7","","-16.6","","73","","25","","12","","","","98.09","","","","-19","","NA"
"2017-01-06 11:00","2017","01","06","11:00","-10.7","","-15.6","","67","","26","","12","","","","98.12","","","","-17","","NA"
"2017-01-06 12:00","2017","01","06","12:00","-9.0","","-15.2","","61","","24","","16","","","","98.14","","","","-16","","NA"
"2017-01-06 13:00","2017","01","06","13:00","-8.8","","-15.1","","60","","24","","19","","","","98.17","","","","-16","","NA"
"2017-01-06 14:00","2017","01","06","14:00","-8.6","","-15.1","","59","","27","","15","","","","98.16","","","","-15","","NA"
"2017-01-06 15:00","2017","01","06","15:00","-8.3","","-15.3","","57","","24","","13","","","","98.26","","","","-14","","NA"
"2017-01-06 16:00","2017","01","06","16:00","-9.1","","-14.7","","64","","24","","11","","","","98.35","","","","-15","","NA"
"2017-01-06 17:00","2017","01","06","17:00","-10.9","","-13.1","","84","","25","","6","","","","98.42","","","","-15","","NA"
"2017-01-06 18:00","2017","01","06","18:00","-12.9","","-14.4","","88","","36","","4","","","","98.53","","","","-16","","NA"
"2017-01-06 19:00","2017","01","06","19:00","-15.5","","-16.8","","89","","28","","5","","","","98.62","","","","-19","","NA"
"2017-01-06 20:00","2017","01","06","20:00","-17.7","","-19.9","","83","","28","","8","","","","98.68","","","","-24","","NA"
"2017-01-06 21:00","2017","01","06","21:00","-15.7","","-17.6","","85","","28","","10","","","","98.75","","","","-22","","NA"
"2017-01-06 22:00","2017","01","06","22:00","-14.7","","-16.3","","88","","29","","13","","","","98.78","","","","-22","","NA"
"2017-01-06 23:00","2017","01","06","23:00","-15.6","","-17.8","","83","","26","","4","","","","98.82","","","","-19","","NA"
"2017-01-07 00:00","2017","01","07","00:00","-16.1","","-17.8","","87","","24","","7","","","","98.83","","","","-21","","NA"
"2017-01-07 01:00","2017","01","07","01:00","-17.1","","-19.0","","86","","21","","3","","","","98.86","","","","-19","","NA"
"2017-01-07 02:00","2017","01","07","02:00","-21.2","","-23.9","","79","","30","","4","","","","98.88","","","","-25","","NA"
"2017-01-07 03:00","2017","01","07","03:00","-20.8","","-23.0","","82","","34","","1","","","","98.93","","","","-22","","NA"
"2017-01-07 04:00","2017","01","07","04:00","-20.9","","-23.1","","83","","0","","1","","","","98.95","","","","-22","","NA"
"2017-01-07 05:00","2017","01","07","05:00","-18.6","","-20.4","","86","","26","","1","","","","98.97","","","","-19","","NA"
"2017-01-07 06:00","2017","01","07","06:00","-20.8","","-23.4","","80","","28","","3","","","","98.96","","","","-23","","NA"
"2017-01-07 07:00","2017","01","07","07:00","-22.7","","-25.3","","79","","30","","3","","","","98.97","","","","-25","","NA"
"2017-01-07 08:00","2017","01","07","08:00","-21.8","","-24.1","","82","","","","0","","","","98.95","","","","","","NA"
"2017-01-07 09:00","2017","01","07","09:00","-21.7","","-24.1","","81","","19","","2","","","","99.00","","","","-24","","NA"
"2017-01-07 10:00","2017","01","07","10:00","-14.9","","-16.7","","86","","24","","2","","","","99.00","","","","-16","","NA"
"2017-01-07 11:00","2017","01","07","11:00","-11.4","","-13.3","","86","","16","","9","","","","98.99","","","","-17","","NA"
"2017-01-07 12:00","2017","01","07","12:00","-10.3","","-14.1","","74","","17","","11","","","","98.93","","","","-16","","NA"
"2017-01-07 13:00","2017","01","07","13:00","-9.0","","-13.9","","67","","20","","11","","","","98.85","","","","-14","","NA"
"2017-01-07 14:00","2017","01","07","14:00","-8.2","","-13.9","","64","","23","","9","","","","98.79","","","","-13","","NA"
"2017-01-07 15:00","2017","01","07","15:00","-8.8","","-13.9","","66","","22","","12","","","","98.77","","","","-14","","NA"
"2017-01-07 16:00","2017","01","07","16:00","-9.4","","-15.0","","64","","25","","13","","","","98.79","","","","-15","","NA"
"2017-01-07 17:00","2017","01","07","17:00","-10.9","","-17.2","","60","","24","","14","","","","98.81","","","","-18","","NA"
"2017-01-07 18:00","2017","01","07","18:00","-12.4","","-18.0","","63","","22","","7","","","","98.78","","","","-17","","NA"
"2017-01-07 19:00","2017","01","07","19:00","-12.2","","-16.6","","69","","23","","12","","","","98.75","","","","-19","","NA"
"2017-01-07 20:00","2017","01","07","20:00","-12.9","","-16.4","","75","","23","","10","","","","98.71","","","","-19","","NA"
"2017-01-07 21:00","2017","01","07","21:00","-13.9","","-17.4","","75","","23","","6","","","","98.65","","","","-18","","NA"
"2017-01-07 22:00","2017","01","07","22:00","-13.7","","-17.2","","75","","24","","12","","","","98.58","","","","-20","","NA"
"2017-01-07 23:00","2017","01","07","23:00","-13.7","","-17.0","","76","","24","","13","","","","98.50","","","","-21","","NA"
"2017-01-08 00:00","2017","01","08","00:00","-13.3","","-16.1","","79","","27","","9","","","","98.47","","","","-19","","NA"
"2017-01-08 01:00","2017","01","08","01:00","-12.5","","-14.3","","86","","26","","10","","","","98.43","","","","-18","","NA"
"2017-01-08 02:00","2017","01","08","02:00","-12.9","","-14.8","","86","","27","","11","","","","98.45","","","","-19","","NA"
"2017-01-08 03:00","2017","01","08","03:00","-11.8","","-13.5","","88","","27","","10","","","","98.54","","","","-17","","NA"
"2017-01-08 04:00","2017","01","08","04:00","-11.8","","-14.5","","80","","33","","15","","","","98.57","","","","-19","","NA"
"2017-01-08 05:00","2017","01","08","05:00","-12.3","","-14.7","","82","","33","","15","","","","98.67","","","","-20","","NA"
"2017-01-08 06:00","2017","01","08","06:00","-12.9","","-15.5","","81","","30","","11","","","","98.75","","","","-19","","NA"
"2017-01-08 07:00","2017","01","08","07:00","-13.3","","-15.7","","82","","31","","8","","","","98.87","","","","-18","","NA"
"2017-01-08 08:00","2017","01","08","08:00","-15.5","","-18.1","","81","","34","","19","","","","99.00","","","","-25","","NA"
"2017-01-08 09:00","2017","01","08","09:00","-16.4","","-19.5","","77","","35","","20","","","","99.11","","","","-26","","NA"
"2017-01-08 10:00","2017","01","08","10:00","-16.2","","-19.8","","73","","34","","15","","","","99.24","","","","-24","","NA"
"2017-01-08 11:00","2017","01","08","11:00","-15.7","","-19.7","","71","","33","","17","","","","99.37","","","","-24","","NA"
"2017-01-08 12:00","2017","01","08","12:00","-15.5","","-19.8","","69","","31","","21","","","","99.41","","","","-25","","NA"
"2017-01-08 13:00","2017","01","08","13:00","-15.0","","-20.3","","64","","34","","18","","","","99.44","","","","-24","","NA"
"2017-01-08 14:00","2017","01","08","14:00","-14.3","","-21.1","","56","","33","","20","","","","99.51","","","","-23","","NA"
"2017-01-08 15:00","2017","01","08","15:00","-14.2","","-19.9","","62","","34","","15","","","","99.55","","","","-22","","NA"
"2017-01-08 16:00","2017","01","08","16:00","-14.8","","-19.5","","67","","35","","7","","","","99.59","","","","-20","","NA"
"2017-01-08 17:00","2017","01","08","17:00","-15.0","","-17.5","","81","","31","","4","","","","99.68","","","","-18","","NA"
"2017-01-08 18:00","2017","01","08","18:00","-15.1","","-17.1","","84","","30","","1","","","","99.71","","","","-16","","NA"
"2017-01-08 19:00","2017","01","08","19:00","-15.3","","-17.4","","84","","2","","3","","","","99.74","","","","-17","","NA"
"2017-01-08 20:00","2017","01","08","20:00","-15.4","","-17.6","","83","","4","","1","","","","99.77","","","","-16","","NA"
"2017-01-08 21:00","2017","01","08","21:00","-15.2","","-17.4","","83","","9","","2","","","","99.80","","","","-17","","NA"
"2017-01-08 22:00","2017","01","08","22:00","-14.9","","-17.2","","83","","15","","5","","","","99.75","","","","-18","","NA"
"2017-01-08 23:00","2017","01","08","23:00","-13.9","","-15.8","","85","","19","","7","","","","99.75","","","","-19","","NA"
"2017-01-09 00:00","2017","01","09","00:00","-13.8","","-16.4","","80","","19","","4","","","","99.70","","","","-17","","NA"
"2017-01-09 01:00","2017","01","09","01:00","-13.7","","-16.3","","81","","17","","7","","","","99.65","","","","-18","","NA"
"2017-01-09 02:00","2017","01","09","02:00","-12.9","","-15.2","","83","","18","","8","","","","99.62","","","","-18","","NA"
"2017-01-09 03:00","2017","01","09","03:00","-11.5","","-13.8","","83","","22","","9","","","","99.60","","","","-17","","NA"
"2017-01-09 04:00","2017","01","09","04:00","-10.7","","-14.4","","74","","23","","14","","","","99.61","","","","-17","","NA"
"2017-01-09 05:00","2017","01","09","05:00","-10.9","","-15.1","","71","","21","","11","","","","99.53","","","","-17","","NA"
"2017-01-09 06:00","2017","01","09","06:00","-10.5","","-14.8","","70","","19","","12","","","","99.46","","","","-17","","NA"
"2017-01-09 07:00","2017","01","09","07:00","-10.3","","-14.3","","72","","20","","13","","","","99.40","","","","-17","","NA"
"2017-01-09 08:00","2017","01","09","08:00","-10.1","","-13.6","","76","","19","","15","","","","99.30","","","","-17","","NA"
"2017-01-09 09:00","2017","01","09","09:00","-9.7","","-12.2","","82","","19","","18","","","","99.26","","","","-17","","NA"
"2017-01-09 10:00","2017","01","09","10:00","-8.8","","-11.5","","81","","19","","17","","","","99.25","","","","-16","","NA"
"2017-01-09 11:00","2017","01","09","11:00","-8.2","","-11.2","","79","","19","","18","","","","99.17","","","","-15","","NA"
"2017-01-09 12:00","2017","01","09","12:00","-7.2","","-11.2","","73","","20","","20","","","","99.06","","","","-14","","NA"
"2017-01-09 13:00","2017","01","09","13:00","-6.5","","-11.2","","69","","22","","14","","","","99.03","","","","-12","","NA"
"2017-01-09 14:00","2017","01","09","14:00","-6.0","","-10.9","","68","","22","","17","","","","98.98","","","","-12","","NA"
"2017-01-09 15:00","2017","01","09","15:00","-5.8","","-10.5","","69","","22","","14","","","","99.01","","","","-11","","NA"
"2017-01-09 16:00","2017","01","09","16:00","-6.0","","-10.3","","72","","22","","12","","","","99.03","","","","-11","","NA"
"2017-01-09 17:00","2017","01","09","17:00","-6.8","","-11.1","","71","","22","","9","","","","99.10","","","","-11","","NA"
"2017-01-09 18:00","2017","01","09","18:00","-7.0","","-10.8","","74","","22","","9","","","","99.11","","","","-11","","NA"
"2017-01-09 19:00","2017","01","09","19:00","-7.4","","-10.8","","77","","21","","10","","","","99.13","","","","-12","","NA"
"2017-01-09 20:00","2017","01","09","20:00","-6.9","","-10.3","","77","","20","","10","","","","99.16","","","","-12","","NA"
"2017-01-09 21:00","2017","01","09","21:00","-6.5","","-9.9","","77","","20","","13","","","","99.20","","","","-12","","NA"
"2017-01-09 22:00","2017","01","09","22:00","-6.7","","-9.9","","78","","19","","7","","","","99.18","","","","-10","","NA"
"2017-01-09 23:00","2017","01","09","23:00","-6.9","","-9.9","","79","","17","","5","","","","99.12","","","","-9","","NA"
"2017-01-10 00:00","2017","01","10","00:00","-6.8","","-9.8","","79","","17","","6","","","","99.03","","","","-10","","NA"
"2017-01-10 01:00","2017","01","10","01:00","-6.1","","-9.2","","79","","19","","10","","","","99.00","","","","-11","","NA"
"2017-01-10 02:00","2017","01","10","02:00","-5.7","","-8.8","","79","","17","","9","","","","99.02","","","","-10","","NA"
"2017-01-10 03:00","2017","01","10","03:00","-4.5","","-8.4","","74","","17","","13","","","","98.95","","","","-10","","NA"
"2017-01-10 04:00","2017","01","10","04:00","-5.0","","-6.5","","89","","18","","20","","","","98.89","","","","-12","","NA"
"2017-01-10 05:00","2017","01","10","05:00","-4.7","","-5.8","","92","","17","","17","","","","98.77","","","","-11","","NA"
"2017-01-10 06:00","2017","01","10","06:00","-4.4","","-5.4","","93","","16","","20","","","","98.69","","","","-11","","NA"
"2017-01-10 07:00","2017","01","10","07:00","-4.0","","-4.9","","93","","14","","17","","","","98.58","","","","-10","","NA"
"2017-01-10 08:00","2017","01","10","08:00","-3.9","","-4.8","","93","","14","","17","","","","98.52","","","","-10","","NA"
"2017-01-10 09:00","2017","01","10","09:00","-3.6","","-4.4","","94","","15","","19","","","","98.42","","","","-10","","NA"
"2017-01-10 10:00","2017","01","10","10:00","-3.2","","-4.2","","93","","15","","20","","","","98.32","","","","-9","","NA"
"2017-01-10 11:00","2017","01","10","11:00","-2.7","","-3.7","","93","","14","","22","","","","98.13","","","","-9","","NA"
"2017-01-10 12:00","2017","01","10","12:00","-2.6","","-3.5","","94","","15","","22","","","","97.95","","","","-9","","NA"
"2017-01-10 13:00","2017","01","10","13:00","-2.5","","-3.3","","94","","15","","22","","","","97.78","","","","-9","","NA"
"2017-01-10 14:00","2017","01","10","14:00","-2.4","","-3.2","","94","","15","","20","","","","97.59","","","","-8","","NA"
"2017-01-10 15:00","2017","01","10","15:00","-1.8","","-2.6","","94","","15","","22","","","","97.38","","","","-8","","NA"
"2017-01-10 16:00","2017","01","10","16:00","-0.7","","-1.7","","93","","16","","24","","","","97.22","","","","-7","","NA"
"2017-01-10 17:00","2017","01","10","17:00","-0.4","","-1.1","","95","","15","","26","","","","97.06","","","","-7","","NA"
"2017-01-10 18:00","2017","01","10","18:00","0.2","","-0.5","","95","","15","","24","","","","96.88","","","","","","NA"
"2017-01-10 19:00","2017","01","10","19:00","1.1","","0.2","","94","","16","","29","","","","96.69","","","","","","NA"
"2017-01-10 20:00","2017","01","10","20:00","1.8","","1.0","","95","","17","","25","","","","96.54","","","","","","NA"
"2017-01-10 21:00","2017","01","10","21:00","2.4","","1.7","","95","","17","","25","","","","96.33","","","","","","NA"
"2017-01-10 22:00","2017","01","10","22:00","4.4","","3.2","","92","","18","","26","","","","96.21","","","","","","NA"
"2017-01-10 23:00","2017","01","10","23:00","5.0","","3.5","","90","","20","","28","","","","96.14","","","","","","NA"
"2017-01-11 00:00","2017","01","11","00:00","5.1","","3.8","","91","","20","","25","","","","96.05","","","","","","NA"
"2017-01-11 01:00","2017","01","11","01:00","4.6","","2.4","","86","","26","","29","","","","96.24","","","","","","NA"
"2017-01-11 02:00","2017","01","11","02:00","2.1","","-1.0","","80","","26","","42","","","","96.58","","","","","","NA"
"2017-01-11 03:00","2017","01","11","03:00","1.8","","-2.4","","74","","26","","37","","","","96.92","","","","","","NA"
"2017-01-11 04:00","2017","01","11","04:00","1.9","","-2.6","","72","","26","","33","","","","97.12","","","","","","NA"
"2017-01-11 05:00","2017","01","11","05:00","1.9","","-3.4","","68","","27","","39","","","","97.34","","","","","","NA"
"2017-01-11 06:00","2017","01","11","06:00","1.2","","-4.0","","69","","26","","33","","","","97.54","","","","","","NA"
"2017-01-11 07:00","2017","01","11","07:00","0.4","","-4.4","","70","","26","","27","","","","97.77","","","","","","NA"
"2017-01-11 08:00","2017","01","11","08:00","-0.5","","-5.2","","70","","27","","26","","","","98.01","","","","-7","","NA"
"2017-01-11 09:00","2017","01","11","09:00","-0.9","","-5.5","","71","","27","","14","","","","98.12","","","","-5","","NA"
"2017-01-11 10:00","2017","01","11","10:00","0.0","","-5.9","","65","","23","","8","","","","98.19","","","","-3","","NA"
"2017-01-11 11:00","2017","01","11","11:00","0.5","","-5.3","","65","","18","","12","","","","98.23","","","","","","NA"
"2017-01-11 12:00","2017","01","11","12:00","1.1","","-5.3","","63","","19","","17","","","","98.12","","","","","","NA"
"2017-01-11 13:00","2017","01","11","13:00","1.6","","-4.7","","63","","18","","23","","","","98.00","","","","","","NA"
"2017-01-11 14:00","2017","01","11","14:00","1.1","","-3.5","","71","","18","","22","","","","97.96","","","","","","NA"
"2017-01-11 15:00","2017","01","11","15:00","1.3","","-3.1","","72","","18","","16","","","","97.93","","","","","","NA"
"2017-01-11 16:00","2017","01","11","16:00","1.6","","-2.9","","72","","16","","21","","","","97.77","","","","","","NA"
"2017-01-11 17:00","2017","01","11","17:00","2.3","","-3.4","","66","","18","","10","","","","97.76","","","","","","NA"
"2017-01-11 18:00","2017","01","11","18:00","3.1","","-2.7","","66","","18","","16","","","","97.71","","","","","","NA"
"2017-01-11 19:00","2017","01","11","19:00","4.1","","-2.2","","63","","18","","18","","","","97.63","","","","","","NA"
"2017-01-11 20:00","2017","01","11","20:00","4.3","","-1.5","","66","","18","","14","","","","97.52","","","","","","NA"
"2017-01-11 21:00","2017","01","11","21:00","4.5","","-1.0","","67","","18","","16","","","","97.38","","","","","","NA"
"2017-01-11 22:00","2017","01","11","22:00","4.9","","0.1","","71","","19","","16","","","","97.37","","","","","","NA"
"2017-01-11 23:00","2017","01","11","23:00","3.9","","1.6","","85","","17","","10","","","","97.25","","","","","","NA"
"2017-01-12 00:00","2017","01","12","00:00","3.2","","1.9","","91","","17","","12","","","","97.10","","","","","","NA"
"2017-01-12 01:00","2017","01","12","01:00","4.4","","3.6","","95","","24","","4","","","","97.07","","","","","","NA"
"2017-01-12 02:00","2017","01","12","02:00","3.9","","3.2","","95","","27","","9","","","","97.02","","","","","","NA"
"2017-01-12 03:00","2017","01","12","03:00","3.2","","2.6","","95","","0","","1","","","","96.99","","","","","","NA"
"2017-01-12 04:00","2017","01","12","04:00","2.6","","2.0","","96","","29","","11","","","","97.01","","","","","","NA"
"2017-01-12 05:00","2017","01","12","05:00","3.0","","2.3","","96","","32","","9","","","","97.01","","","","","","NA"
"2017-01-12 06:00","2017","01","12","06:00","1.7","","1.1","","96","","31","","15","","","","97.20","","","","","","NA"
"2017-01-12 07:00","2017","01","12","07:00","1.1","","0.5","","96","","33","","17","","","","97.32","","","","","","NA"
"2017-01-12 08:00","2017","01","12","08:00","0.5","","-0.3","","94","","34","","15","","","","97.40","","","","","","NA"
"2017-01-12 09:00","2017","01","12","09:00","0.6","","-0.4","","93","","32","","11","","","","97.50","","","","","","NA"
"2017-01-12 10:00","2017","01","12","10:00","0.9","","-0.4","","91","","30","","9","","","","97.52","","","","","","NA"
"2017-01-12 11:00","2017","01","12","11:00","0.5","","-0.6","","93","","28","","19","","","","97.64","","","","","","NA"
"2017-01-12 12:00","2017","01","12","12:00","0.4","","-0.9","","91","","29","","14","","","","97.59","","","","","","NA"
"2017-01-12 13:00","2017","01","12","13:00","-0.1","","-1.2","","93","","30","","14","","","","97.52","","","","-4","","NA"
"2017-01-12 14:00","2017","01","12","14:00","-0.4","","-1.9","","90","","31","","13","","","","97.55","","","","-5","","NA"
"2017-01-12 15:00","2017","01","12","15:00","-1.0","","-3.0","","86","","31","","22","","","","97.69","","","","-7","","NA"
"2017-01-12 16:00","2017","01","12","16:00","-1.2","","-3.2","","86","","31","","19","","","","97.83","","","","-7","","NA"
"2017-01-12 17:00","2017","01","12","17:00","-2.1","","-4.8","","81","","31","","17","","","","97.97","","","","-7","","NA"
"2017-01-12 18:00","2017","01","12","18:00","-2.7","","-5.0","","85","","30","","22","","","","98.11","","","","-9","","NA"
"2017-01-12 19:00","2017","01","12","19:00","-2.6","","-4.8","","85","","29","","17","","","","98.27","","","","-8","","NA"
"2017-01-12 20:00","2017","01","12","20:00","-2.5","","-5.0","","83","","28","","19","","","","98.39","","","","-8","","NA"
"2017-01-12 21:00","2017","01","12","21:00","-2.5","","-4.8","","85","","28","","22","","","","98.47","","","","-9","","NA"
"2017-01-12 22:00","2017","01","12","22:00","-2.8","","-5.1","","84","","26","","14","","","","98.55","","","","-8","","NA"
"2017-01-12 23:00","2017","01","12","23:00","-3.5","","-7.4","","74","","27","","17","","","","98.62","","","","-9","","NA"
"2017-01-13 00:00","2017","01","13","00:00","-3.5","","-7.3","","75","","26","","15","","","","98.71","","","","-9","","NA"
"2017-01-13 01:00","2017","01","13","01:00","-2.9","","-7.2","","72","","27","","27","","","","98.77","","","","-10","","NA"
"2017-01-13 02:00","2017","01","13","02:00","-3.9","","-8.0","","73","","29","","39","","","","98.97","","","","-13","","NA"
"2017-01-13 03:00","2017","01","13","03:00","-4.0","","-9.0","","68","","28","","25","","","","99.10","","","","-11","","NA"
"2017-01-13 04:00","2017","01","13","04:00","-4.3","","-10.5","","62","","29","","31","","","","99.27","","","","-12","","NA"
"2017-01-13 05:00","2017","01","13","05:00","-4.6","","-10.4","","64","","30","","27","","","","99.40","","","","-12","","NA"
"2017-01-13 06:00","2017","01","13","06:00","-5.1","","-10.6","","65","","31","","28","","","","99.54","","","","-13","","NA"
"2017-01-13 07:00","2017","01","13","07:00","-5.4","","-11.4","","63","","31","","25","","","","99.69","","","","-13","","NA"
"2017-01-13 08:00","2017","01","13","08:00","-5.6","","-11.7","","62","","30","","21","","","","99.78","","","","-12","","NA"
"2017-01-13 09:00","2017","01","13","09:00","-5.6","","-12.2","","59","","31","","24","","","","99.93","","","","-13","","NA"
"2017-01-13 10:00","2017","01","13","10:00","-6.1","","-10.3","","72","","31","","24","","","","100.07","","","","-14","","NA"
"2017-01-13 11:00","2017","01","13","11:00","-6.0","","-11.1","","67","","31","","27","","","","100.18","","","","-14","","NA"
"2017-01-13 12:00","2017","01","13","12:00","-7.2","","-9.3","","85","","35","","19","","","","100.20","","","","-14","","NA"
"2017-01-13 13:00","2017","01","13","13:00","-7.9","","-11.6","","75","","35","","22","","","","100.23","","","","-16","","NA"
"2017-01-13 14:00","2017","01","13","14:00","-8.2","","-12.8","","69","","34","","22","","","","100.29","","","","-16","","NA"
"2017-01-13 15:00","2017","01","13","15:00","-8.5","","-13.2","","69","","34","","23","","","","100.33","","","","-17","","NA"
"2017-01-13 16:00","2017","01","13","16:00","-9.0","","-14.0","","67","","33","","16","","","","100.44","","","","-16","","NA"
"2017-01-13 17:00","2017","01","13","17:00","-9.4","","-14.2","","68","","34","","10","","","","100.50","","","","-15","","NA"
"2017-01-13 18:00","2017","01","13","18:00","-10.2","","-15.5","","65","","36","","11","","","","100.55","","","","-16","","NA"
"2017-01-13 19:00","2017","01","13","19:00","-10.5","","-16.6","","61","","34","","11","","","","100.61","","","","-16","","NA"
"2017-01-13 20:00","2017","01","13","20:00","-11.5","","-18.7","","56","","35","","12","","","","100.61","","","","-18","","NA"
"2017-01-13 21:00","2017","01","13","21:00","-12.3","","-19.8","","53","","2","","11","","","","100.65","","","","-18","","NA"
"2017-01-13 22:00","2017","01","13","22:00","-13.2","","-20.1","","56","","3","","12","","","","100.61","","","","-20","","NA"
"2017-01-13 23:00","2017","01","13","23:00","-14.6","","-20.4","","61","","5","","6","","","","100.57","","","","-19","","NA"
"2017-01-14 00:00","2017","01","14","00:00","-14.4","","-19.2","","67","","8","","2","","","","100.52","","","","-16","","NA"
"2017-01-14 01:00","2017","01","14","01:00","-16.6","","-20.3","","73","","7","","4","","","","100.46","","","","-20","","NA"
"2017-01-14 02:00","2017","01","14","02:00","-18.1","","-20.9","","79","","4","","2","","","","100.41","","","","-20","","NA"
"2017-01-14 03:00","2017","01","14","03:00","-17.8","","-20.9","","77","","7","","4","","","","100.36","","","","-21","","NA"
"2017-01-14 04:00","2017","01","14","04:00","-18.4","","-21.6","","76","","8","","4","","","","100.25","","","","-22","","NA"
"2017-01-14 05:00","2017","01","14","05:00","-15.6","","-19.5","","72","","11","","5","","","","100.20","","","","-19","","NA"
"2017-01-14 06:00","2017","01","14","06:00","-16.5","","-19.3","","79","","1","","3","","","","100.20","","","","-19","","NA"
"2017-01-14 07:00","2017","01","14","07:00","-14.0","","-17.5","","75","","19","","3","","","","100.11","","","","-16","","NA"
"2017-01-14 08:00","2017","01","14","08:00","-13.2","","-16.3","","78","","29","","1","","","","100.07","","","","-14","","NA"
"2017-01-14 09:00","2017","01","14","09:00","-11.3","","-15.1","","73","","17","","5","","","","100.00","","","","-14","","NA"
"2017-01-14 10:00","2017","01","14","10:00","-10.0","","-14.1","","72","","18","","9","","","","99.87","","","","-15","","NA"
"2017-01-14 11:00","2017","01","14","11:00","-8.3","","-13.1","","69","","19","","10","","","","99.78","","","","-13","","NA"
"2017-01-14 12:00","2017","01","14","12:00","-7.9","","-12.4","","70","","18","","10","","","","99.59","","","","-13","","NA"
"2017-01-14 13:00","2017","01","14","13:00","-6.9","","-11.0","","73","","19","","11","","","","99.46","","","","-12","","NA"
"2017-01-14 14:00","2017","01","14","14:00","-6.1","","-10.0","","74","","23","","10","","","","99.33","","","","-11","","NA"
"2017-01-14 15:00","2017","01","14","15:00","-5.6","","-9.9","","72","","23","","11","","","","99.28","","","","-10","","NA"
"2017-01-14 16:00","2017","01","14","16:00","-5.3","","-9.3","","73","","21","","9","","","","99.20","","","","-9","","NA"
"2017-01-14 17:00","2017","01","14","17:00","-5.9","","-9.1","","78","","21","","5","","","","99.15","","","","-8","","NA"
"2017-01-14 18:00","2017","01","14","18:00","-6.5","","-9.2","","81","","23","","4","","","","99.16","","","","-8","","NA"
"2017-01-14 19:00","2017","01","14","19:00","-10.1","","-11.5","","89","","27","","3","","","","99.14","","","","-12","","NA"
"2017-01-14 20:00","2017","01","14","20:00","-11.8","","-13.6","","87","","0","","1","","","","99.13","","","","-12","","NA"
"2017-01-14 21:00","2017","01","14","21:00","-11.3","","-12.8","","88","","29","","9","","","","99.11","","","","-16","","NA"
"2017-01-14 22:00","2017","01","14","22:00","-6.8","","-9.1","","84","","27","","12","","","","99.11","","","","-12","","NA"
"2017-01-14 23:00","2017","01","14","23:00","-6.0","","-8.5","","82","","28","","13","","","","99.10","","","","-11","","NA"
"2017-01-15 00:00","2017","01","15","00:00","-5.7","","-8.0","","83","","28","","10","","","","99.09","","","","-10","","NA"
"2017-01-15 01:00","2017","01","15","01:00","-4.7","","-7.5","","81","","27","","7","","","","99.07","","","","-8","","NA"
"2017-01-15 02:00","2017","01","15","02:00","-3.1","","-6.2","","79","","30","","14","","","","99.08","","","","-8","","NA"
"2017-01-15 03:00","2017","01","15","03:00","-2.8","","-7.5","","70","","32","","13","","","","99.15","","","","-7","","NA"
"2017-01-15 04:00","2017","01","15","04:00","-2.7","","-7.6","","69","","33","","22","","","","99.14","","","","-9","","NA"
"2017-01-15 05:00","2017","01","15","05:00","-2.9","","-7.5","","71","","33","","13","","","","99.17","","","","-8","","NA"
"2017-01-15 06:00","2017","01","15","06:00","-3.3","","-8.7","","66","","32","","18","","","","99.21","","","","-9","","NA"
"2017-01-15 07:00","2017","01","15","07:00","-4.1","","-8.0","","75","","35","","12","","","","99.28","","","","-9","","NA"
"2017-01-15 08:00","2017","01","15","08:00","-5.9","","-9.1","","78","","1","","10","","","","99.34","","","","-10","","NA"
"2017-01-15 09:00","2017","01","15","09:00","-6.4","","-10.1","","75","","1","","11","","","","99.38","","","","-11","","NA"
"2017-01-15 10:00","2017","01","15","10:00","-5.8","","-10.2","","71","","1","","6","","","","99.43","","","","-9","","NA"
"2017-01-15 11:00","2017","01","15","11:00","-3.1","","-9.8","","60","","26","","3","","","","99.43","","","","-4","","NA"
"2017-01-15 12:00","2017","01","15","12:00","-3.4","","-9.2","","64","","23","","8","","","","99.36","","","","-7","","NA"
"2017-01-15 13:00","2017","01","15","13:00","-2.5","","-9.0","","61","","26","","6","","","","99.29","","","","-5","","NA"
"2017-01-15 14:00","2017","01","15","14:00","-0.9","","-8.8","","55","","27","","2","","","","99.20","","","","-2","","NA"
"2017-01-15 15:00","2017","01","15","15:00","-1.6","","-8.5","","59","","27","","11","","","","99.25","","","","-5","","NA"
"2017-01-15 16:00","2017","01","15","16:00","-2.1","","-7.6","","66","","28","","10","","","","99.23","","","","-6","","NA"
"2017-01-15 17:00","2017","01","15","17:00","-2.3","","-7.7","","67","","27","","5","","","","99.21","","","","-4","","NA"
"2017-01-15 18:00","2017","01","15","18:00","-2.6","","-7.2","","71","","18","","7","","","","99.20","","","","-5","","NA"
"2017-01-15 19:00","2017","01","15","19:00","-3.0","","-7.2","","73","","19","","5","","","","99.21","","","","-5","","NA"
"2017-01-15 20:00","2017","01","15","20:00","-4.6","","-7.6","","80","","20","","4","","","","99.18","","","","-6","","NA"
"2017-01-15 21:00","2017","01","15","21:00","-4.0","","-7.7","","75","","21","","5","","","","99.18","","","","-6","","NA"
"2017-01-15 22:00","2017","01","15","22:00","-8.0","","-10.0","","85","","17","","5","","","","99.18","","","","-11","","NA"
"2017-01-15 23:00","2017","01","15","23:00","-9.3","","-10.5","","91","","18","","4","","","","99.17","","","","-12","","NA"
"2017-01-16 00:00","2017","01","16","00:00","-9.5","","-11.4","","86","","20","","5","","","","99.14","","","","-12","","NA"
"2017-01-16 01:00","2017","01","16","01:00","-9.4","","-11.1","","87","","22","","3","","","","99.12","","","","-11","","NA"
"2017-01-16 02:00","2017","01","16","02:00","-11.3","","-12.6","","90","","0","","1","","","","99.10","","","","-12","","NA"
"2017-01-16 03:00","2017","01","16","03:00","-12.2","","-13.8","","88","","24","","3","","","","99.13","","","","-14","","NA"
"2017-01-16 04:00","2017","01","16","04:00","-11.3","","-12.7","","89","","21","","2","","","","99.09","","","","-13","","NA"
"2017-01-16 05:00","2017","01","16","05:00","-12.5","","-13.9","","89","","20","","5","","","","99.05","","","","-16","","NA"
"2017-01-16 06:00","2017","01","16","06:00","-12.0","","-13.2","","91","","","","0","","","","99.04","","","","","","NA"
"2017-01-16 07:00","2017","01","16","07:00","-14.2","","-16.0","","86","","25","","1","","","","99.07","","","","-15","","NA"
"2017-01-16 08:00","2017","01","16","08:00","-14.4","","-16.3","","85","","23","","1","","","","99.05","","","","-15","","NA"
"2017-01-16 09:00","2017","01","16","09:00","-9.4","","-10.6","","92","","0","","1","","","","99.06","","","","-10","","NA"
"2017-01-16 10:00","2017","01","16","10:00","-6.0","","-7.2","","91","","27","","7","","","","99.08","","","","-9","","NA"
"2017-01-16 11:00","2017","01","16","11:00","-2.5","","-6.3","","75","","26","","10","","","","99.08","","","","-6","","NA"
"2017-01-16 12:00","2017","01","16","12:00","-0.2","","-6.8","","61","","26","","14","","","","98.98","","","","-4","","NA"
"2017-01-16 13:00","2017","01","16","13:00","1.2","","-7.2","","53","","24","","12","","","","98.94","","","","","","NA"
"2017-01-16 14:00","2017","01","16","14:00","1.7","","-6.9","","53","","24","","9","","","","98.89","","","","","","NA"
"2017-01-16 15:00","2017","01","16","15:00","2.2","","-7.9","","47","","24","","8","","","","98.86","","","","","","NA"
"2017-01-16 16:00","2017","01","16","16:00","1.8","","-7.4","","50","","25","","1","","","","98.89","","","","","","NA"
"2017-01-16 17:00","2017","01","16","17:00","-1.2","","-7.8","","61","","23","","2","","","","98.88","","","","-2","","NA"
"2017-01-16 18:00","2017","01","16","18:00","-4.8","","-8.3","","77","","","","0","","","","98.91","","","","","","NA"
"2017-01-16 19:00","2017","01","16","19:00","-5.7","","-8.5","","80","","22","","3","","","","98.88","","","","-7","","NA"
"2017-01-16 20:00","2017","01","16","20:00","-7.1","","-9.8","","81","","25","","3","","","","98.86","","","","-9","","NA"
"2017-01-16 21:00","2017","01","16","21:00","-8.6","","-11.3","","81","","27","","3","","","","98.85","","","","-10","","NA"
"2017-01-16 22:00","2017","01","16","22:00","-7.3","","-10.4","","79","","30","","5","","","","98.81","","","","-10","","NA"
"2017-01-16 23:00","2017","01","16","23:00","-8.3","","-9.9","","88","","28","","4","","","","98.79","","","","-10","","NA"
"2017-01-17 00:00","2017","01","17","00:00","-8.3","","-10.2","","86","","30","","3","","","","98.74","","","","-10","","NA"
"2017-01-17 01:00","2017","01","17","01:00","-7.7","","-10.0","","83","","6","","3","","","","98.68","","","","-9","","NA"
"2017-01-17 02:00","2017","01","17","02:00","-8.5","","-10.6","","85","","","","0","","","","98.67","","","","","","NA"
"2017-01-17 03:00","2017","01","17","03:00","-9.0","","-11.2","","84","","3","","5","","","","98.66","","","","-12","","NA"
"2017-01-17 04:00","2017","01","17","04:00","-7.0","","-9.2","","84","","5","","6","","","","98.62","","","","-10","","NA"
"2017-01-17 05:00","2017","01","17","05:00","-4.5","","-8.2","","75","","7","","10","","","","98.53","","","","-9","","NA"
"2017-01-17 06:00","2017","01","17","06:00","-4.3","","-7.9","","76","","9","","15","","","","98.45","","","","-10","","NA"
"2017-01-17 07:00","2017","01","17","07:00","-3.7","","-7.1","","77","","10","","15","","","","98.39","","","","-9","","NA"
"2017-01-17 08:00","2017","01","17","08:00","-2.8","","-5.6","","82","","11","","18","","","","98.29","","","","-8","","NA"
"2017-01-17 09:00","2017","01","17","09:00","-2.1","","-3.9","","88","","11","","18","","","","98.23","","","","-8","","NA"
"2017-01-17 10:00","2017","01","17","10:00","-1.5","","-2.7","","91","","10","","10","","","","98.18","","","","-5","","NA"
"2017-01-17 11:00","2017","01","17","11:00","-1.2","","-2.5","","91","","9","","5","","","","98.06","","","","-3","","NA"
"2017-01-17 12:00","2017","01","17","12:00","-1.1","","-2.3","","91","","9","","3","","","","97.81","","","","-2","","NA"
"2017-01-17 13:00","2017","01","17","13:00","-0.8","","-2.0","","91","","9","","2","","","","97.83","","","","-1","","NA"
"2017-01-17 14:00","2017","01","17","14:00","-0.7","","-1.9","","92","","9","","2","","","","97.69","","","","-1","","NA"
"2017-01-17 15:00","2017","01","17","15:00","-0.6","","-1.8","","92","","9","","2","","","","97.62","","","","-1","","NA"
"2017-01-17 16:00","2017","01","17","16:00","-0.6","","-2.2","","89","","10","","2","","","","97.59","","","","-1","","NA"
"2017-01-17 17:00","2017","01","17","17:00","-0.8","","-2.4","","89","","9","","2","","","","97.59","","","","-1","","NA"
"2017-01-17 18:00","2017","01","17","18:00","-0.9","","-2.1","","92","","9","","3","","","","97.57","","","","-2","","NA"
"2017-01-17 19:00","2017","01","17","19:00","-0.9","","-1.8","","94","","9","","2","","","","97.58","","","","-2","","NA"
"2017-01-17 20:00","2017","01","17","20:00","-0.9","","-1.8","","94","","8","","2","","","","97.56","","","","-2","","NA"
"2017-01-17 21:00","2017","01","17","21:00","-0.9","","-1.7","","95","","9","","2","","","","97.56","","","","-2","","NA"
"2017-01-17 22:00","2017","01","17","22:00","-0.9","","-1.5","","95","","7","","1","","","","97.54","","","","-1","","NA"
"2017-01-17 23:00","2017","01","17","23:00","-0.6","","-1.3","","95","","","","0","","","","97.51","","","","","","NA"
"2017-01-18 00:00","2017","01","18","00:00","-0.6","","-1.2","","95","","","","0","","","","97.48","","","","","","NA"
"2017-01-18 01:00","2017","01","18","01:00","-0.5","","-1.1","","96","","","","0","","","","97.51","","","","","","NA"
"2017-01-18 02:00","2017","01","18","02:00","-0.3","","-0.9","","96","","","","0","","","","97.55","","","","","","NA"
"2017-01-18 03:00","2017","01","18","03:00","-0.3","","-1.0","","95","","","","0","","","","97.56","","","","","","NA"
"2017-01-18 04:00","2017","01","18","04:00","-0.4","","-1.1","","95","","","","0","","","","97.61","","","","","","NA"
"2017-01-18 05:00","2017","01","18","05:00","-0.4","","-1.0","","96","","","","0","","","","97.66","","","","","","NA"
"2017-01-18 06:00","2017","01","18","06:00","-0.3","","-0.9","","96","","","","0","","","","97.71","","","","","","NA"
"2017-01-18 07:00","2017","01","18","07:00","-0.3","","-0.9","","96","","","","0","","","","97.73","","","","","","NA"
"2017-01-18 08:00","2017","01","18","08:00","-0.3","","-0.9","","96","","","","0","","","","97.79","","","","","","NA"
"2017-01-18 09:00","2017","01","18","09:00","-0.1","","-0.9","","95","","31","","2","","","","97.90","","","","-1","","NA"
"2017-01-18 10:00","2017","01","18","10:00","0.1","","-1.0","","92","","31","","2","","","","97.93","","","","","","NA"
"2017-01-18 11:00","2017","01","18","11:00","0.5","","-0.9","","90","","31","","1","","","","97.95","","","","","","NA"
"2017-01-18 12:00","2017","01","18","12:00","0.6","","-0.5","","92","","30","","11","","","","97.92","","","","","","NA"
"2017-01-18 13:00","2017","01","18","13:00","0.4","","-0.4","","94","","26","","8","","","","97.86","","","","","","NA"
"2017-01-18 14:00","2017","01","18","14:00","0.6","","-0.4","","93","","28","","15","","","","97.95","","","","","","NA"
"2017-01-18 15:00","2017","01","18","15:00","0.6","","-0.2","","94","","29","","14","","","","98.02","","","","","","NA"
"2017-01-18 16:00","2017","01","18","16:00","0.7","","-0.1","","94","","26","","10","","","","98.01","","","","","","NA"
"2017-01-18 17:00","2017","01","18","17:00","0.6","","0.0","","95","","24","","9","","","","97.98","","","","","","NA"
"2017-01-18 18:00","2017","01","18","18:00","0.6","","0.0","","96","","20","","6","","","","97.96","","","","","","NA"
"2017-01-18 19:00","2017","01","18","19:00","0.9","","0.3","","96","","20","","8","","","","97.96","","","","","","NA"
"2017-01-18 20:00","2017","01","18","20:00","1.0","","0.0","","93","","22","","7","","","","97.93","","","","","","NA"
"2017-01-18 21:00","2017","01","18","21:00","1.0","","0.1","","94","","22","","8","","","","97.92","","","","","","NA"
"2017-01-18 22:00","2017","01","18","22:00","0.9","","0.1","","94","","21","","8","","","","97.91","","","","","","NA"
"2017-01-18 23:00","2017","01","18","23:00","1.0","","0.1","","94","","27","","6","","","","97.98","","","","","","NA"
"2017-01-19 00:00","2017","01","19","00:00","1.0","","0.2","","94","","26","","8","","","","98.01","","","","","","NA"
"2017-01-19 01:00","2017","01","19","01:00","0.9","","0.0","","93","","27","","10","","","","97.99","","","","","","NA"
"2017-01-19 02:00","2017","01","19","02:00","1.0","","0.0","","93","","24","","5","","","","98.01","","","","","","NA"
"2017-01-19 03:00","2017","01","19","03:00","1.3","","-0.1","","90","","28","","16","","","","98.03","","","","","","NA"
"2017-01-19 04:00","2017","01","19","04:00","1.2","","-0.1","","91","","29","","20","","","","98.06","","","","","","NA"
"2017-01-19 05:00","2017","01","19","05:00","0.9","","-0.1","","93","","26","","12","","","","98.04","","","","","","NA"
"2017-01-19 06:00","2017","01","19","06:00","0.8","","-0.2","","93","","28","","12","","","","98.11","","","","","","NA"
"2017-01-19 07:00","2017","01","19","07:00","0.8","","-0.1","","94","","27","","9","","","","98.16","","","","","","NA"
"2017-01-19 08:00","2017","01","19","08:00","0.7","","-0.1","","94","","27","","7","","","","98.22","","","","","","NA"
"2017-01-19 09:00","2017","01","19","09:00","0.8","","-0.1","","94","","25","","5","","","","98.27","","","","","","NA"
"2017-01-19 10:00","2017","01","19","10:00","1.1","","0.0","","93","","24","","5","","","","98.27","","","","","","NA"
"2017-01-19 11:00","2017","01","19","11:00","1.2","","0.1","","93","","22","","6","","","","98.29","","","","","","NA"
"2017-01-19 12:00","2017","01","19","12:00","1.1","","0.1","","93","","24","","7","","","","98.24","","","","","","NA"
"2017-01-19 13:00","2017","01","19","13:00","1.2","","0.2","","93","","25","","6","","","","98.15","","","","","","NA"
"2017-01-19 14:00","2017","01","19","14:00","1.1","","0.0","","92","","24","","5","","","","98.07","","","","","","NA"
"2017-01-19 15:00","2017","01","19","15:00","1.1","","0.0","","93","","7","","3","","","","98.02","","","","","","NA"
"2017-01-19 16:00","2017","01","19","16:00","0.9","","0.0","","93","","22","","4","","","","98.09","","","","","","NA"
"2017-01-19 17:00","2017","01","19","17:00","0.8","","-0.3","","92","","21","","4","","","","98.14","","","","","","NA"
"2017-01-19 18:00","2017","01","19","18:00","0.6","","-0.7","","91","","20","","4","","","","98.19","","","","","","NA"
"2017-01-19 19:00","2017","01","19","19:00","0.5","","-0.9","","90","","20","","5","","","","98.18","","","","","","NA"
"2017-01-19 20:00","2017","01","19","20:00","0.4","","-1.1","","90","","","","0","","","","98.14","","","","","","NA"
"2017-01-19 21:00","2017","01","19","21:00","0.3","","-0.9","","91","","10","","5","","","","98.06","","","","","","NA"
"2017-01-19 22:00","2017","01","19","22:00","0.3","","-1.1","","90","","15","","7","","","","98.03","","","","","","NA"
"2017-01-19 23:00","2017","01","19","23:00","0.3","","-1.1","","90","","17","","6","","","","98.02","","","","","","NA"
"2017-01-20 00:00","2017","01","20","00:00","0.4","","-1.0","","90","","15","","8","","","","97.97","","","","","","NA"
"2017-01-20 01:00","2017","01","20","01:00","0.3","","-0.8","","93","","14","","8","","","","97.91","","","","","","NA"
"2017-01-20 02:00","2017","01","20","02:00","0.1","","-0.8","","93","","15","","11","","","","97.88","","","","","","NA"
"2017-01-20 03:00","2017","01","20","03:00","0.1","","-1.0","","92","","14","","10","","","","97.84","","","","","","NA"
"2017-01-20 04:00","2017","01","20","04:00","0.0","","-1.0","","93","","14","","9","","","","97.79","","","","-3","","NA"
"2017-01-20 05:00","2017","01","20","05:00","-0.2","","-1.2","","93","","14","","12","","","","97.69","","","","-4","","NA"
"2017-01-20 06:00","2017","01","20","06:00","-0.2","","-1.2","","93","","15","","11","","","","97.66","","","","-4","","NA"
"2017-01-20 07:00","2017","01","20","07:00","-0.3","","-1.0","","95","","14","","12","","","","97.60","","","","-4","","NA"
"2017-01-20 08:00","2017","01","20","08:00","0.1","","-0.5","","96","","14","","9","","","","97.57","","","","","","NA"
"2017-01-20 09:00","2017","01","20","09:00","0.2","","-0.3","","96","","11","","10","","","","97.52","","","","","","NA"
"2017-01-20 10:00","2017","01","20","10:00","0.8","","-0.2","","93","","13","","11","","","","97.56","","","","","","NA"
"2017-01-20 11:00","2017","01","20","11:00","1.1","","-0.3","","90","","13","","12","","","","97.53","","","","","","NA"
"2017-01-20 12:00","2017","01","20","12:00","1.5","","-0.4","","87","","11","","15","","","","97.40","","","","","","NA"
"2017-01-20 13:00","2017","01","20","13:00","1.6","","-0.5","","86","","11","","14","","","","97.31","","","","","","NA"
"2017-01-20 14:00","2017","01","20","14:00","1.2","","-0.3","","89","","11","","15","","","","97.26","","","","","","NA"
"2017-01-20 15:00","2017","01","20","15:00","1.4","","0.0","","90","","10","","12","","","","97.25","","","","","","NA"
"2017-01-20 16:00","2017","01","20","16:00","1.3","","0.0","","91","","10","","12","","","","97.26","","","","","","NA"
"2017-01-20 17:00","2017","01","20","17:00","1.3","","0.0","","91","","11","","14","","","","97.27","","","","","","NA"
"2017-01-20 18:00","2017","01","20","18:00","1.2","","-0.1","","91","","10","","13","","","","97.29","","","","","","NA"
"2017-01-20 19:00","2017","01","20","19:00","1.3","","0.0","","91","","10","","12","","","","97.31","","","","","","NA"
"2017-01-20 20:00","2017","01","20","20:00","1.0","","0.1","","93","","11","","10","","","","97.34","","","","","","NA"
"2017-01-20 21:00","2017","01","20","21:00","0.9","","0.2","","95","","11","","12","","","","97.29","","","","","","NA"
"2017-01-20 22:00","2017","01","20","22:00","0.8","","0.1","","96","","10","","6","","","","97.29","","","","","","NA"
"2017-01-20 23:00","2017","01","20","23:00","0.7","","0.2","","96","","10","","4","","","","97.29","","","","","","NA"
"2017-01-21 00:00","2017","01","21","00:00","0.7","","0.1","","96","","10","","2","","","","97.30","","","","","","NA"
"2017-01-21 01:00","2017","01","21","01:00","0.6","","0.1","","96","","","","0","","","","97.31","","","","","","NA"
"2017-01-21 02:00","2017","01","21","02:00","0.5","","0.0","","96","","16","","1","","","","97.34","","","","","","NA"
"2017-01-21 03:00","2017","01","21","03:00","0.7","","0.2","","96","","","","0","","","","97.36","","","","","","NA"
"2017-01-21 04:00","2017","01","21","04:00","0.1","","-0.4","","97","","34","","1","","","","97.32","","","","","","NA"
"2017-01-21 05:00","2017","01","21","05:00","0.1","","-0.4","","97","","0","","1","","","","97.33","","","","","","NA"
"2017-01-21 06:00","2017","01","21","06:00","0.2","","-0.2","","97","","7","","2","","","","97.34","","","","","","NA"
"2017-01-21 07:00","2017","01","21","07:00","0.4","","-0.1","","97","","20","","3","","","","97.41","","","","","","NA"
"2017-01-21 08:00","2017","01","21","08:00","0.4","","-0.1","","97","","20","","2","","","","97.41","","","","","","NA"
"2017-01-21 09:00","2017","01","21","09:00","0.9","","0.4","","97","","7","","2","","","","97.38","","","","","","NA"
"2017-01-21 10:00","2017","01","21","10:00","1.9","","1.4","","96","","17","","3","","","","97.38","","","","","","NA"
"2017-01-21 11:00","2017","01","21","11:00","2.0","","1.4","","96","","10","","5","","","","97.34","","","","","","NA"
"2017-01-21 12:00","2017","01","21","12:00","2.1","","1.5","","96","","17","","9","","","","97.37","","","","","","NA"
"2017-01-21 13:00","2017","01","21","13:00","2.1","","1.6","","96","","11","","7","","","","97.22","","","","","","NA"
"2017-01-21 14:00","2017","01","21","14:00","2.2","","1.7","","96","","10","","9","","","","97.18","","","","","","NA"
"2017-01-21 15:00","2017","01","21","15:00","2.3","","1.8","","96","","11","","8","","","","97.19","","","","","","NA"
"2017-01-21 16:00","2017","01","21","16:00","2.3","","1.7","","96","","11","","9","","","","97.21","","","","","","NA"
"2017-01-21 17:00","2017","01","21","17:00","2.1","","1.6","","96","","9","","8","","","","97.21","","","","","","NA"
"2017-01-21 18:00","2017","01","21","18:00","2.0","","1.5","","96","","9","","9","","","","97.17","","","","","","NA"
"2017-01-21 19:00","2017","01","21","19:00","2.1","","1.5","","96","","11","","7","","","","97.19","","","","","","NA"
"2017-01-21 20:00","2017","01","21","20:00","2.1","","1.5","","96","","13","","7","","","","97.23","","","","","","NA"
"2017-01-21 21:00","2017","01","21","21:00","1.6","","1.1","","97","","10","","4","","","","97.21","","","","","","NA"
"2017-01-21 22:00","2017","01","21","22:00","1.7","","1.2","","97","","","","0","","","","97.20","","","","","","NA"
"2017-01-21 23:00","2017","01","21","23:00","1.4","","0.9","","97","","9","","7","","","","97.19","","","","","","NA"
"2017-01-22 00:00","2017","01","22","00:00","1.4","","0.9","","97","","10","","6","","","","97.15","","","","","","NA"
"2017-01-22 01:00","2017","01","22","01:00","1.5","","1.0","","97","","10","","8","","","","97.12","","","","","","NA"
"2017-01-22 02:00","2017","01","22","02:00","1.4","","0.9","","97","","9","","8","","","","97.14","","","","","","NA"
"2017-01-22 03:00","2017","01","22","03:00","1.3","","0.8","","97","","10","","7","","","","97.19","","","","","","NA"
"2017-01-22 04:00","2017","01","22","04:00","1.2","","0.8","","97","","11","","9","","","","97.15","","","","","","NA"
"2017-01-22 05:00","2017","01","22","05:00","1.2","","0.7","","97","","9","","9","","","","97.13","","","","","","NA"
"2017-01-22 06:00","2017","01","22","06:00","1.2","","0.8","","97","","9","","13","","","","97.13","","","","","","NA"
"2017-01-22 07:00","2017","01","22","07:00","1.3","","0.8","","97","","9","","12","","","","97.13","","","","","","NA"
"2017-01-22 08:00","2017","01","22","08:00","1.4","","1.0","","97","","10","","9","","","","97.15","","","","","","NA"
"2017-01-22 09:00","2017","01","22","09:00","1.7","","1.3","","97","","11","","12","","","","97.19","","","","","","NA"
"2017-01-22 10:00","2017","01","22","10:00","2.0","","1.5","","97","","12","","12","","","","97.30","","","","","","NA"
"2017-01-22 11:00","2017","01","22","11:00","2.1","","1.6","","97","","11","","10","","","","97.34","","","","","","NA"
"2017-01-22 12:00","2017","01","22","12:00","2.2","","1.7","","97","","11","","11","","","","97.29","","","","","","NA"
"2017-01-22 13:00","2017","01","22","13:00","2.4","","1.9","","97","","10","","13","","","","97.26","","","","","","NA"
"2017-01-22 14:00","2017","01","22","14:00","2.8","","2.3","","97","","10","","12","","","","97.20","","","","","","NA"
"2017-01-22 15:00","2017","01","22","15:00","3.6","","3.1","","96","","10","","15","","","","97.19","","","","","","NA"
"2017-01-22 16:00","2017","01","22","16:00","3.4","","2.8","","96","","10","","14","","","","97.23","","","","","","NA"
"2017-01-22 17:00","2017","01","22","17:00","3.1","","2.5","","96","","11","","12","","","","97.27","","","","","","NA"
"2017-01-22 18:00","2017","01","22","18:00","3.0","","2.3","","96","","11","","10","","","","97.30","","","","","","NA"
"2017-01-22 19:00","2017","01","22","19:00","2.8","","2.0","","94","","9","","14","","","","97.32","","","","","","NA"
"2017-01-22 20:00","2017","01","22","20:00","2.5","","1.4","","92","","10","","18","","","","97.35","","","","","","NA"
"2017-01-22 21:00","2017","01","22","21:00","1.9","","0.4","","90","","11","","17","","","","97.42","","","","","","NA"
"2017-01-22 22:00","2017","01","22","22:00","1.2","","-0.2","","90","","11","","19","","","","97.42","","","","","","NA"
"2017-01-22 23:00","2017","01","22","23:00","1.0","","-0.9","","87","","9","","20","","","","97.43","","","","","","NA"
"2017-01-23 00:00","2017","01","23","00:00","0.7","","-1.1","","87","","10","","16","","","","97.44","","","","","","NA"
"2017-01-23 01:00","2017","01","23","01:00","0.4","","-1.2","","89","","9","","17","","","","97.41","","","","","","NA"
"2017-01-23 02:00","2017","01","23","02:00","0.4","","-1.2","","89","","9","","22","","","","97.44","","","","","","NA"
"2017-01-23 03:00","2017","01","23","03:00","0.2","","-1.2","","90","","9","","19","","","","97.45","","","","","","NA"
"2017-01-23 04:00","2017","01","23","04:00","0.1","","-1.3","","90","","10","","17","","","","97.47","","","","","","NA"
"2017-01-23 05:00","2017","01","23","05:00","0.0","","-1.2","","91","","8","","18","","","","97.43","","","","-5","","NA"
"2017-01-23 06:00","2017","01","23","06:00","0.0","","-1.1","","92","","10","","17","","","","97.45","","","","-5","","NA"
"2017-01-23 07:00","2017","01","23","07:00","0.1","","-1.0","","92","","9","","18","","","","97.47","","","","","","NA"
"2017-01-23 08:00","2017","01","23","08:00","0.1","","-0.9","","94","","9","","16","","","","97.51","","","","","","NA"
"2017-01-23 09:00","2017","01","23","09:00","0.0","","-0.7","","95","","10","","18","","","","97.54","","","","-5","","NA"
"2017-01-23 10:00","2017","01","23","10:00","0.0","","-0.6","","96","","10","","17","","","","97.61","","","","-5","","NA"
"2017-01-23 11:00","2017","01","23","11:00","0.1","","-0.5","","96","","9","","14","","","","97.58","","","","","","NA"
"2017-01-23 12:00","2017","01","23","12:00","0.4","","-0.4","","95","","10","","19","","","","97.55","","","","","","NA"
"2017-01-23 13:00","2017","01","23","13:00","0.6","","-0.4","","94","","9","","18","","","","97.48","","","","","","NA"
"2017-01-23 14:00","2017","01","23","14:00","0.8","","-0.4","","92","","9","","17","","","","97.45","","","","","","NA"
"2017-01-23 15:00","2017","01","23","15:00","1.2","","-0.4","","89","","10","","14","","","","97.40","","","","","","NA"
"2017-01-23 16:00","2017","01","23","16:00","1.9","","-0.5","","84","","9","","19","","","","97.41","","","","","","NA"
"2017-01-23 17:00","2017","01","23","17:00","1.7","","-0.5","","85","","9","","15","","","","97.41","","","","","","NA"
"2017-01-23 18:00","2017","01","23","18:00","1.7","","-0.5","","85","","10","","14","","","","97.49","","","","","","NA"
"2017-01-23 19:00","2017","01","23","19:00","1.3","","-0.6","","87","","9","","18","","","","97.56","","","","","","NA"
"2017-01-23 20:00","2017","01","23","20:00","0.8","","-0.9","","88","","9","","18","","","","97.57","","","","","","NA"
"2017-01-23 21:00","2017","01","23","21:00","0.5","","-1.3","","87","","8","","16","","","","97.51","","","","","","NA"
"2017-01-23 22:00","2017","01","23","22:00","0.2","","-1.7","","87","","8","","19","","","","97.47","","","","","","NA"
"2017-01-23 23:00","2017","01","23","23:00","-0.1","","-1.8","","88","","9","","19","","","","97.49","","","","-5","","NA"
"2017-01-24 00:00","2017","01","24","00:00","-0.3","","-2.0","","88","","8","","19","","","","97.42","","","","-5","","NA"
"2017-01-24 01:00","2017","01","24","01:00","-0.6","","-2.8","","85","","9","","20","","","","97.38","","","","-6","","NA"
"2017-01-24 02:00","2017","01","24","02:00","-1.0","","-3.4","","84","","8","","14","","","","97.35","","","","-5","","NA"
"2017-01-24 03:00","2017","01","24","03:00","-1.3","","-3.8","","83","","8","","15","","","","97.33","","","","-6","","NA"
"2017-01-24 04:00","2017","01","24","04:00","-1.6","","-4.0","","83","","7","","12","","","","97.27","","","","-6","","NA"
"2017-01-24 05:00","2017","01","24","05:00","-1.7","","-4.2","","83","","5","","10","","","","97.24","","","","-5","","NA"
"2017-01-24 06:00","2017","01","24","06:00","-1.8","","-4.6","","81","","5","","11","","","","97.21","","","","-6","","NA"
"2017-01-24 07:00","2017","01","24","07:00","-2.2","","-5.2","","80","","4","","11","","","","97.24","","","","-6","","NA"
"2017-01-24 08:00","2017","01","24","08:00","-2.3","","-5.2","","80","","4","","7","","","","97.24","","","","-5","","NA"
"2017-01-24 09:00","2017","01","24","09:00","-2.0","","-5.4","","77","","5","","9","","","","97.27","","","","-5","","NA"
"2017-01-24 10:00","2017","01","24","10:00","-1.8","","-5.5","","76","","4","","11","","","","97.24","","","","-6","","NA"
"2017-01-24 11:00","2017","01","24","11:00","-1.6","","-5.1","","77","","3","","9","","","","97.21","","","","-5","","NA"
"2017-01-24 12:00","2017","01","24","12:00","-1.2","","-4.8","","76","","36","","3","","","","97.13","","","","-2","","NA"
"2017-01-24 13:00","2017","01","24","13:00","-0.9","","-3.9","","81","","36","","6","","","","97.04","","","","-3","","NA"
"2017-01-24 14:00","2017","01","24","14:00","-0.9","","-4.0","","79","","35","","6","","","","97.00","","","","-3","","NA"
"2017-01-24 15:00","2017","01","24","15:00","-0.7","","-4.4","","76","","33","","13","","","","96.98","","","","-5","","NA"
"2017-01-24 16:00","2017","01","24","16:00","-0.5","","-4.8","","73","","34","","12","","","","96.99","","","","-4","","NA"
"2017-01-24 17:00","2017","01","24","17:00","-0.7","","-4.6","","75","","34","","8","","","","97.02","","","","-4","","NA"
"2017-01-24 18:00","2017","01","24","18:00","-0.8","","-4.2","","78","","32","","10","","","","97.03","","","","-4","","NA"
"2017-01-24 19:00","2017","01","24","19:00","-0.9","","-3.6","","82","","30","","10","","","","97.03","","","","-4","","NA"
"2017-01-24 20:00","2017","01","24","20:00","-1.0","","-3.2","","85","","31","","9","","","","97.08","","","","-4","","NA"
"2017-01-24 21:00","2017","01","24","21:00","-1.6","","-3.1","","90","","34","","7","","","","97.08","","","","-4","","NA"
"2017-01-24 22:00","2017","01","24","22:00","-1.7","","-3.0","","90","","30","","10","","","","97.06","","","","-5","","NA"
"2017-01-24 23:00","2017","01","24","23:00","-1.6","","-3.0","","90","","31","","14","","","","97.03","","","","-6","","NA"
"2017-01-25 00:00","2017","01","25","00:00","-2.1","","-4.1","","87","","32","","14","","","","96.98","","","","-7","","NA"
"2017-01-25 01:00","2017","01","25","01:00","-2.0","","-3.5","","89","","31","","13","","","","96.99","","","","-6","","NA"
"2017-01-25 02:00","2017","01","25","02:00","-1.4","","-3.1","","88","","32","","14","","","","96.99","","","","-6","","NA"
"2017-01-25 03:00","2017","01","25","03:00","-1.0","","-2.7","","88","","32","","14","","","","97.04","","","","-5","","NA"
"2017-01-25 04:00","2017","01","25","04:00","-0.8","","-2.2","","90","","31","","12","","","","97.02","","","","-5","","NA"
"2017-01-25 05:00","2017","01","25","05:00","-0.6","","-2.0","","90","","30","","18","","","","97.03","","","","-6","","NA"
"2017-01-25 06:00","2017","01","25","06:00","-0.6","","-1.8","","92","","30","","14","","","","97.00","","","","-5","","NA"
"2017-01-25 07:00","2017","01","25","07:00","-0.3","","-1.5","","92","","28","","10","","","","97.00","","","","-4","","NA"
"2017-01-25 08:00","2017","01","25","08:00","-0.4","","-1.2","","94","","28","","6","","","","96.98","","","","-2","","NA"
"2017-01-25 09:00","2017","01","25","09:00","0.0","","-0.8","","94","","25","","5","","","","96.96","","","","-2","","NA"
"2017-01-25 10:00","2017","01","25","10:00","0.4","","-0.3","","95","","25","","6","","","","96.95","","","","","","NA"
"2017-01-25 11:00","2017","01","25","11:00","0.9","","0.0","","94","","28","","4","","","","96.88","","","","","","NA"
"2017-01-25 12:00","2017","01","25","12:00","1.6","","0.5","","93","","26","","10","","","","96.78","","","","","","NA"
"2017-01-25 13:00","2017","01","25","13:00","1.9","","0.5","","91","","26","","9","","","","96.74","","","","","","NA"
"2017-01-25 14:00","2017","01","25","14:00","2.4","","-0.2","","83","","25","","8","","","","96.66","","","","","","NA"
"2017-01-25 15:00","2017","01","25","15:00","2.3","","-0.3","","83","","25","","7","","","","96.59","","","","","","NA"
"2017-01-25 16:00","2017","01","25","16:00","1.6","","-0.1","","89","","23","","9","","","","96.55","","","","","","NA"
"2017-01-25 17:00","2017","01","25","17:00","0.9","","-0.1","","93","","","","0","","","","96.44","","","","","","NA"
"2017-01-25 18:00","2017","01","25","18:00","0.7","","-0.1","","94","","20","","1","","","","96.41","","","","","","NA"
"2017-01-25 19:00","2017","01","25","19:00","0.6","","-0.1","","95","","20","","3","","","","96.42","","","","","","NA"
"2017-01-25 20:00","2017","01","25","20:00","0.7","","-0.1","","94","","","","0","","","","96.34","","","","","","NA"
"2017-01-25 21:00","2017","01","25","21:00","0.4","","-0.3","","96","","2","","2","","","","96.28","","","","","","NA"
"2017-01-25 22:00","2017","01","25","22:00","0.2","","-0.4","","96","","","","0","","","","96.24","","","","","","NA"
"2017-01-25 23:00","2017","01","25","23:00","0.1","","-0.4","","96","","","","0","","","","96.19","","","","","","NA"
"2017-01-26 00:00","2017","01","26","00:00","0.1","","-0.4","","96","","","","0","","","","96.12","","","","","","NA"
"2017-01-26 01:00","2017","01","26","01:00","0.1","","-0.4","","96","","","","0","","","","96.05","","","","","","NA"
"2017-01-26 02:00","2017","01","26","02:00","0.2","","-0.3","","96","","","","0","","","","96.01","","","","","","NA"
"2017-01-26 03:00","2017","01","26","03:00","0.3","","-0.2","","96","","28","","6","","","","96.02","","","","","","NA"
"2017-01-26 04:00","2017","01","26","04:00","0.2","","-0.3","","96","","29","","7","","","","95.99","","","","","","NA"
"2017-01-26 05:00","2017","01","26","05:00","0.1","","-0.4","","96","","27","","7","","","","95.95","","","","","","NA"
"2017-01-26 06:00","2017","01","26","06:00","0.0","","-0.4","","97","","27","","6","","","","95.93","","","","-2","","NA"
"2017-01-26 07:00","2017","01","26","07:00","0.2","","-0.3","","97","","27","","4","","","","95.95","","","","","","NA"
"2017-01-26 08:00","2017","01","26","08:00","0.1","","-0.3","","97","","27","","3","","","","95.96","","","","","","NA"
"2017-01-26 09:00","2017","01","26","09:00","0.2","","-0.3","","97","","36","","5","","","","95.97","","","","","","NA"
"2017-01-26 10:00","2017","01","26","10:00","0.1","","-0.4","","96","","35","","5","","","","96.00","","","","","","NA"
"2017-01-26 11:00","2017","01","26","11:00","0.5","","-0.8","","91","","32","","10","","","","96.05","","","","","","NA"
"2017-01-26 12:00","2017","01","26","12:00","0.6","","-1.2","","88","","32","","17","","","","96.05","","","","","","NA"
"2017-01-26 13:00","2017","01","26","13:00","0.4","","-1.9","","84","","31","","21","","","","96.05","","","","","","NA"
"2017-01-26 14:00","2017","01","26","14:00","0.4","","-2.0","","84","","31","","20","","","","96.12","","","","","","NA"
"2017-01-26 15:00","2017","01","26","15:00","0.2","","-2.0","","85","","30","","24","","","","96.22","","","","","","NA"
"2017-01-26 16:00","2017","01","26","16:00","0.1","","-1.9","","86","","29","","18","","","","96.30","","","","","","NA"
"2017-01-26 17:00","2017","01","26","17:00","0.2","","-1.0","","92","","27","","19","","","","96.36","","","","","","NA"
"2017-01-26 18:00","2017","01","26","18:00","0.1","","-1.2","","91","","28","","23","","","","96.41","","","","","","NA"
"2017-01-26 19:00","2017","01","26","19:00","0.3","","-2.0","","84","","29","","29","","","","96.46","","","","","","NA"
"2017-01-26 20:00","2017","01","26","20:00","0.2","","-1.5","","88","","28","","30","","","","96.50","","","","","","NA"
"2017-01-26 21:00","2017","01","26","21:00","0.4","","-2.1","","84","","28","","32","","","","96.54","","","","","","NA"
"2017-01-26 22:00","2017","01","26","22:00","-0.3","","-3.7","","78","","29","","36","","","","96.58","","","","-7","","NA"
"2017-01-26 23:00","2017","01","26","23:00","-0.5","","-3.8","","78","","30","","35","","","","96.60","","","","-8","","NA"
"2017-01-27 00:00","2017","01","27","00:00","-1.3","","-2.9","","89","","29","","36","","","","96.63","","","","-9","","NA"
"2017-01-27 01:00","2017","01","27","01:00","-1.4","","-3.7","","84","","28","","31","","","","96.63","","","","-8","","NA"
"2017-01-27 02:00","2017","01","27","02:00","-1.7","","-3.5","","88","","29","","28","","","","96.63","","","","-8","","NA"
"2017-01-27 03:00","2017","01","27","03:00","-1.4","","-4.3","","81","","29","","34","","","","96.63","","","","-9","","NA"
"2017-01-27 04:00","2017","01","27","04:00","-1.7","","-3.6","","87","","28","","27","","","","96.62","","","","-8","","NA"
"2017-01-27 05:00","2017","01","27","05:00","-2.1","","-3.3","","92","","30","","20","","","","96.59","","","","-8","","NA"
"2017-01-27 06:00","2017","01","27","06:00","-2.4","","-3.6","","92","","29","","33","","","","96.60","","","","-10","","NA"
"2017-01-27 07:00","2017","01","27","07:00","-2.1","","-3.3","","91","","28","","18","","","","96.62","","","","-8","","NA"
"2017-01-27 08:00","2017","01","27","08:00","-1.8","","-3.4","","89","","27","","26","","","","96.64","","","","-8","","NA"
"2017-01-27 09:00","2017","01","27","09:00","-1.7","","-2.9","","91","","28","","25","","","","96.68","","","","-8","","NA"
"2017-01-27 10:00","2017","01","27","10:00","-1.4","","-3.1","","88","","29","","26","","","","96.67","","","","-8","","NA"
"2017-01-27 11:00","2017","01","27","11:00","-1.2","","-3.7","","84","","28","","32","","","","96.68","","","","-8","","NA"
"2017-01-27 12:00","2017","01","27","12:00","-1.0","","-4.8","","76","","28","","34","","","","96.63","","","","-8","","NA"
"2017-01-27 13:00","2017","01","27","13:00","-1.8","","-3.7","","87","","29","","35","","","","96.60","","","","-9","","NA"
"2017-01-27 14:00","2017","01","27","14:00","-0.9","","-4.4","","77","","28","","39","","","","96.53","","","","-9","","NA"
"2017-01-27 15:00","2017","01","27","15:00","-0.8","","-5.5","","71","","28","","34","","","","96.52","","","","-8","","NA"
"2017-01-27 16:00","2017","01","27","16:00","-1.0","","-4.9","","75","","28","","30","","","","96.56","","","","-8","","NA"
"2017-01-27 17:00","2017","01","27","17:00","-1.5","","-4.5","","80","","28","","30","","","","96.58","","","","-8","","NA"
"2017-01-27 18:00","2017","01","27","18:00","-1.7","","-4.5","","81","","27","","28","","","","96.61","","","","-8","","NA"
"2017-01-27 19:00","2017","01","27","19:00","-1.9","","-4.5","","82","","27","","22","","","","96.63","","","","-8","","NA"
"2017-01-27 20:00","2017","01","27","20:00","-2.0","","-5.0","","80","","26","","16","","","","96.66","","","","-7","","NA"
"2017-01-27 21:00","2017","01","27","21:00","-2.0","","-4.5","","83","","27","","18","","","","96.66","","","","-7","","NA"
"2017-01-27 22:00","2017","01","27","22:00","-2.1","","-4.2","","85","","26","","15","","","","96.64","","","","-7","","NA"
"2017-01-27 23:00","2017","01","27","23:00","-2.0","","-4.1","","85","","26","","14","","","","96.62","","","","-7","","NA"
"2017-01-28 00:00","2017","01","28","00:00","-1.9","","-4.6","","82","","27","","18","","","","96.61","","","","-7","","NA"
"2017-01-28 01:00","2017","01","28","01:00","-1.9","","-5.0","","79","","26","","17","","","","96.59","","","","-7","","NA"
"2017-01-28 02:00","2017","01","28","02:00","-2.3","","-4.9","","83","","26","","17","","","","96.57","","","","-8","","NA"
"2017-01-28 03:00","2017","01","28","03:00","-2.3","","-5.4","","79","","26","","15","","","","96.60","","","","-7","","NA"
"2017-01-28 04:00","2017","01","28","04:00","-2.5","","-5.8","","78","","27","","16","","","","96.60","","","","-8","","NA"
"2017-01-28 05:00","2017","01","28","05:00","-2.6","","-6.1","","76","","26","","14","","","","96.58","","","","-7","","NA"
"2017-01-28 06:00","2017","01","28","06:00","-2.5","","-5.9","","78","","25","","16","","","","96.58","","","","-8","","NA"
"2017-01-28 07:00","2017","01","28","07:00","-2.7","","-5.7","","80","","25","","13","","","","96.58","","","","-7","","NA"
"2017-01-28 08:00","2017","01","28","08:00","-2.9","","-5.4","","83","","24","","11","","","","96.57","","","","-7","","NA"
"2017-01-28 09:00","2017","01","28","09:00","-2.8","","-5.2","","83","","24","","14","","","","96.57","","","","-8","","NA"
"2017-01-28 10:00","2017","01","28","10:00","-2.3","","-4.9","","82","","24","","15","","","","96.58","","","","-7","","NA"
"2017-01-28 11:00","2017","01","28","11:00","-1.8","","-4.7","","81","","24","","15","","","","96.58","","","","-7","","NA"
"2017-01-28 12:00","2017","01","28","12:00","-1.6","","-4.9","","78","","24","","19","","","","96.52","","","","-7","","NA"
"2017-01-28 13:00","2017","01","28","13:00","-1.3","","-5.1","","76","","24","","14","","","","96.46","","","","-6","","NA"
"2017-01-28 14:00","2017","01","28","14:00","-1.3","","-5.1","","76","","24","","17","","","","96.42","","","","-6","","NA"
"2017-01-28 15:00","2017","01","28","15:00","-1.4","","-4.9","","77","","24","","15","","","","96.43","","","","-6","","NA"
"2017-01-28 16:00","2017","01","28","16:00","-1.6","","-4.5","","80","","24","","17","","","","96.43","","","","-7","","NA"
"2017-01-28 17:00","2017","01","28","17:00","-1.6","","-4.4","","81","","23","","12","","","","96.42","","","","-6","","NA"
"2017-01-28 18:00","2017","01","28","18:00","-2.1","","-4.2","","86","","24","","13","","","","96.44","","","","-7","","NA"
"2017-01-28 19:00","2017","01","28","19:00","-2.6","","-3.7","","92","","25","","12","","","","96.46","","","","-7","","NA"
"2017-01-28 20:00","2017","01","28","20:00","-2.7","","-3.6","","93","","24","","9","","","","96.46","","","","-6","","NA"
"2017-01-28 21:00","2017","01","28","21:00","-2.7","","-3.7","","93","","27","","12","","","","96.48","","","","-7","","NA"
"2017-01-28 22:00","2017","01","28","22:00","-3.1","","-4.3","","91","","28","","18","","","","96.51","","","","-9","","NA"
"2017-01-28 23:00","2017","01","28","23:00","-4.2","","-5.2","","93","","26","","10","","","","96.51","","","","-8","","NA"
"2017-01-29 00:00","2017","01","29","00:00","-4.5","","-6.2","","88","","26","","14","","","","96.53","","","","-10","","NA"
"2017-01-29 01:00","2017","01","29","01:00","-4.7","","-6.1","","90","","27","","17","","","","96.54","","","","-11","","NA"
"2017-01-29 02:00","2017","01","29","02:00","-5.2","","-6.6","","90","","25","","9","","","","96.54","","","","-9","","NA"
"2017-01-29 03:00","2017","01","29","03:00","-5.2","","-7.8","","82","","26","","16","","","","96.58","","","","-11","","NA"
"2017-01-29 04:00","2017","01","29","04:00","-5.6","","-7.7","","85","","26","","18","","","","96.59","","","","-12","","NA"
"2017-01-29 05:00","2017","01","29","05:00","-5.6","","-7.3","","88","","26","","18","","","","96.61","","","","-12","","NA"
"2017-01-29 06:00","2017","01","29","06:00","-5.6","","-7.3","","88","","26","","19","","","","96.61","","","","-12","","NA"
"2017-01-29 07:00","2017","01","29","07:00","-5.9","","-9.0","","79","","26","","19","","","","96.64","","","","-13","","NA"
"2017-01-29 08:00","2017","01","29","08:00","-6.3","","-8.5","","84","","30","","20","","","","96.72","","","","-13","","NA"
"2017-01-29 09:00","2017","01","29","09:00","-7.9","","-10.5","","81","","33","","15","","","","96.82","","","","-14","","NA"
"2017-01-29 10:00","2017","01","29","10:00","-7.5","","-10.6","","78","","33","","10","","","","96.91","","","","-12","","NA"
"2017-01-29 11:00","2017","01","29","11:00","-7.2","","-10.4","","78","","32","","8","","","","96.97","","","","-11","","NA"
"2017-01-29 12:00","2017","01","29","12:00","-6.6","","-9.8","","78","","28","","13","","","","96.96","","","","-12","","NA"
"2017-01-29 13:00","2017","01","29","13:00","-7.0","","-10.5","","76","","28","","19","","","","96.96","","","","-14","","NA"
"2017-01-29 14:00","2017","01","29","14:00","-7.3","","-10.7","","77","","30","","16","","","","96.97","","","","-14","","NA"
"2017-01-29 15:00","2017","01","29","15:00","-7.8","","-10.5","","81","","30","","16","","","","97.02","","","","-14","","NA"
"2017-01-29 16:00","2017","01","29","16:00","-8.1","","-10.5","","83","","30","","14","","","","97.10","","","","-14","","NA"
"2017-01-29 17:00","2017","01","29","17:00","-8.5","","-10.7","","84","","30","","14","","","","97.17","","","","-15","","NA"
"2017-01-29 18:00","2017","01","29","18:00","-9.6","","-11.5","","86","","35","","3","","","","97.21","","","","-11","","NA"
"2017-01-29 19:00","2017","01","29","19:00","-9.6","","-11.4","","87","","28","","6","","","","97.27","","","","-13","","NA"
"2017-01-29 20:00","2017","01","29","20:00","-9.9","","-11.6","","87","","1","","9","","","","97.28","","","","-15","","NA"
"2017-01-29 21:00","2017","01","29","21:00","-10.5","","-12.2","","87","","1","","8","","","","97.29","","","","-15","","NA"
"2017-01-29 22:00","2017","01","29","22:00","-11.5","","-13.9","","83","","36","","10","","","","97.30","","","","-17","","NA"
"2017-01-29 23:00","2017","01","29","23:00","-11.9","","-14.5","","81","","2","","4","","","","97.34","","","","-14","","NA"
"2017-01-30 00:00","2017","01","30","00:00","-13.5","","-16.0","","81","","2","","8","","","","97.35","","","","-19","","NA"
"2017-01-30 01:00","2017","01","30","01:00","-14.1","","-17.0","","79","","1","","5","","","","97.38","","","","-18","","NA"
"2017-01-30 02:00","2017","01","30","02:00","-18.2","","-21.3","","77","","35","","4","","","","97.39","","","","-21","","NA"
"2017-01-30 03:00","2017","01","30","03:00","-18.1","","-20.2","","84","","","","0","","","","97.41","","","","","","NA"
"2017-01-30 04:00","2017","01","30","04:00","-18.8","","-20.7","","85","","36","","6","","","","97.41","","","","-24","","NA"
"2017-01-30 05:00","2017","01","30","05:00","-18.8","","-21.0","","83","","28","","3","","","","97.46","","","","-21","","NA"
"2017-01-30 06:00","2017","01","30","06:00","-20.0","","-22.0","","84","","32","","2","","","","97.48","","","","-22","","NA"
"2017-01-30 07:00","2017","01","30","07:00","-20.5","","-22.6","","83","","36","","1","","","","97.54","","","","-21","","NA"
"2017-01-30 08:00","2017","01","30","08:00","-18.3","","-20.4","","84","","33","","4","","","","97.61","","","","-22","","NA"
"2017-01-30 09:00","2017","01","30","09:00","-15.7","","-17.6","","85","","36","","9","","","","97.66","","","","-22","","NA"
"2017-01-30 10:00","2017","01","30","10:00","-14.1","","-16.4","","83","","1","","8","","","","97.72","","","","-19","","NA"
"2017-01-30 11:00","2017","01","30","11:00","-12.5","","-16.9","","70","","2","","4","","","","97.74","","","","-15","","NA"
"2017-01-30 12:00","2017","01","30","12:00","-11.7","","-16.6","","67","","4","","7","","","","97.68","","","","-16","","NA"
"2017-01-30 13:00","2017","01","30","13:00","-11.0","","-16.8","","62","","27","","11","","","","97.66","","","","-17","","NA"
"2017-01-30 14:00","2017","01","30","14:00","-10.4","","-16.3","","62","","28","","11","","","","97.67","","","","-16","","NA"
"2017-01-30 15:00","2017","01","30","15:00","-10.0","","-16.5","","59","","28","","11","","","","97.69","","","","-16","","NA"
"2017-01-30 16:00","2017","01","30","16:00","-9.8","","-15.7","","62","","29","","8","","","","97.71","","","","-14","","NA"
"2017-01-30 17:00","2017","01","30","17:00","-10.2","","-15.1","","68","","29","","5","","","","97.74","","","","-13","","NA"
"2017-01-30 18:00","2017","01","30","18:00","-11.5","","-15.6","","72","","","","0","","","","97.77","","","","","","NA"
"2017-01-30 19:00","2017","01","30","19:00","-11.8","","-15.0","","77","","8","","1","","","","97.78","","","","-12","","NA"
"2017-01-30 20:00","2017","01","30","20:00","-11.8","","-14.3","","82","","","","0","","","","97.75","","","","","","NA"
"2017-01-30 21:00","2017","01","30","21:00","-11.1","","-13.7","","81","","12","","7","","","","97.65","","","","-15","","NA"
"2017-01-30 22:00","2017","01","30","22:00","-15.0","","-17.5","","81","","7","","1","","","","97.66","","","","-16","","NA"
"2017-01-30 23:00","2017","01","30","23:00","-15.5","","-17.3","","86","","0","","1","","","","97.66","","","","-16","","NA"
"2017-01-31 00:00","2017","01","31","00:00","-14.8","","-16.3","","88","","1","","4","","","","97.63","","","","-18","","NA"
"2017-01-31 01:00","2017","01","31","01:00","-14.3","","-16.2","","86","","3","","1","","","","97.54","","","","-15","","NA"
"2017-01-31 02:00","2017","01","31","02:00","-18.4","","-20.3","","85","","2","","3","","","","97.44","","","","-21","","NA"
"2017-01-31 03:00","2017","01","31","03:00","-15.1","","-16.7","","88","","4","","2","","","","97.40","","","","-17","","NA"
"2017-01-31 04:00","2017","01","31","04:00","-11.5","","-13.3","","87","","9","","9","","","","97.32","","","","-17","","NA"
"2017-01-31 05:00","2017","01","31","05:00","-10.7","","-12.7","","86","","9","","11","","","","97.22","","","","-16","","NA"
"2017-01-31 06:00","2017","01","31","06:00","-10.4","","-12.1","","87","","9","","17","","","","97.16","","","","-18","","NA"
"2017-01-31 07:00","2017","01","31","07:00","-10.2","","-12.1","","86","","10","","23","","","","97.14","","","","-19","","NA"
"2017-01-31 08:00","2017","01","31","08:00","-10.7","","-12.9","","84","","10","","20","","","","97.16","","","","-19","","NA"
"2017-01-31 09:00","2017","01","31","09:00","-10.2","","-12.4","","84","","9","","17","","","","97.16","","","","-17","","NA"
"2017-01-31 10:00","2017","01","31","10:00","-9.4","","-11.8","","83","","10","","17","","","","97.16","","","","-16","","NA"
"2017-01-31 11:00","2017","01","31","11:00","-8.3","","-11.4","","78","","10","","21","","","","97.10","","","","-16","","NA"
"2017-01-31 12:00","2017","01","31","12:00","-7.5","","-10.9","","77","","9","","21","","","","97.05","","","","-15","","NA"
"2017-01-31 13:00","2017","01","31","13:00","-6.2","","-10.1","","74","","9","","18","","","","96.99","","","","-13","","NA"
"2017-01-31 14:00","2017","01","31","14:00","-5.4","","-9.3","","74","","9","","19","","","","96.96","","","","-12","","NA"
"2017-01-31 15:00","2017","01","31","15:00","-5.0","","-8.9","","74","","9","","19","","","","96.97","","","","-11","","NA"
"2017-01-31 16:00","2017","01","31","16:00","-4.8","","-8.5","","75","","10","","15","","","","97.01","","","","-10","","NA"
"2017-01-31 17:00","2017","01","31","17:00","-4.8","","-8.5","","75","","11","","13","","","","97.07","","","","-10","","NA"
"2017-01-31 18:00","2017","01","31","18:00","-5.4","","-7.5","","85","","12","","8","","","","97.14","","","","-9","","NA"
"2017-01-31 19:00","2017","01","31","19:00","-5.8","","-7.0","","91","","10","","10","","","","97.13","","","","-10","","NA"
"2017-01-31 20:00","2017","01","31","20:00","-5.9","","-7.1","","91","","9","","12","","","","97.13","","","","-11","","NA"
"2017-01-31 21:00","2017","01","31","21:00","-6.2","","-7.3","","92","","9","","12","","","","97.09","","","","-11","","NA"
"2017-01-31 22:00","2017","01","31","22:00","-6.4","","-7.6","","91","","10","","11","","","","97.08","","","","-11","","NA"
"2017-01-31 23:00","2017","01","31","23:00","-6.6","","-7.8","","91","","10","","10","","","","97.07","","","","-11","","NA"
